,RegionID,Zip Code,City,State,Metro,CountyName,SizeRank,2017-01,2017-02,2017-03,2017-04,2017-05,2017-06,2017-07,2017-08,2017-09,2017-10,2017-11,2017-12
17,71831,32162,The Villages,FL,The Villages,Sumter County,18,251016.0,251302.0,252109.0,253407.0,253594.0,253418.0,253282.0,253486.0,253995.0,254522.0,255039.0,255790.0
79,72463,33160,Sunny Isles Beach,FL,Miami-Fort Lauderdale-West Palm Beach,Miami-Dade County,80,931701.0,929177.0,924739.0,919894.0,917517.0,915806.0,915362.0,914302.0,912552.0,912687.0,910695.0,911996.0
81,73221,34787,Winter Garden,FL,Orlando-Kissimmee-Sanford,Orange County,82,301134.0,302905.0,304677.0,306201.0,306948.0,308755.0,309887.0,311189.0,312883.0,314094.0,315892.0,317213.0
90,72578,33411,Royal Palm Beach,FL,Miami-Fort Lauderdale-West Palm Beach,Palm Beach County,91,300033.0,301948.0,303285.0,304672.0,305836.0,307211.0,308614.0,310531.0,313126.0,315361.0,316613.0,317079.0
96,72363,33025,Miramar,FL,Miami-Fort Lauderdale-West Palm Beach,Broward County,97,271593.0,272940.0,274246.0,276996.0,278502.0,279607.0,280771.0,282854.0,285128.0,286760.0,288063.0,289577.0
101,72442,33139,Miami Beach,FL,Miami-Fort Lauderdale-West Palm Beach,Miami-Dade County,102,1926746.0,1920656.0,1912861.0,1910474.0,1907856.0,1907209.0,1908527.0,1917551.0,1922612.0,1925114.0,1914592.0,1913516.0
133,71864,32210,Jacksonville,FL,Jacksonville,Duval County,134,114006.0,115105.0,116048.0,116619.0,116896.0,117356.0,118474.0,119990.0,121472.0,123070.0,124698.0,126474.0
147,72901,33908,Fort Myers,FL,Cape Coral-Fort Myers,Lee County,148,342502.0,341562.0,341444.0,342052.0,343807.0,344183.0,344776.0,344465.0,344218.0,343493.0,343142.0,343123.0
157,72362,33024,Pembroke Pines,FL,Miami-Fort Lauderdale-West Palm Beach,Broward County,158,257239.0,258087.0,258811.0,261409.0,263085.0,264530.0,265697.0,267697.0,269888.0,271721.0,273016.0,274620.0
167,72737,33647,Tampa,FL,Tampa-St. Petersburg-Clearwater,Hillsborough County,168,289000.0,289662.0,289873.0,291052.0,292393.0,294114.0,294764.0,295671.0,296183.0,296719.0,297698.0,298287.0
191,73014,34135,Bonita Springs,FL,Cape Coral-Fort Myers,Lee County,192,354646.0,353650.0,353791.0,354173.0,355950.0,355932.0,356354.0,355930.0,355542.0,355004.0,354468.0,354289.0
212,71871,32218,Jacksonville,FL,Jacksonville,Duval County,213,157795.0,159637.0,161508.0,162438.0,162631.0,162858.0,163602.0,165109.0,166582.0,168103.0,169777.0,171576.0
215,71902,32256,Jacksonville,FL,Jacksonville,Duval County,216,304752.0,307815.0,310968.0,312130.0,312610.0,313056.0,314000.0,315411.0,316641.0,318158.0,320288.0,322205.0
222,73183,34711,Clermont,FL,Orlando-Kissimmee-Sanford,Lake County,223,237662.0,239430.0,240820.0,242430.0,243731.0,245514.0,246749.0,247179.0,247583.0,247688.0,248803.0,250259.0
229,72347,33009,Hallandale,FL,Miami-Fort Lauderdale-West Palm Beach,Broward County,230,234633.0,236356.0,237633.0,239435.0,240665.0,241526.0,242895.0,245227.0,247966.0,249962.0,252057.0,254296.0
245,71895,32244,Jacksonville,FL,Jacksonville,Duval County,246,136711.0,138530.0,140484.0,141560.0,142110.0,142747.0,143694.0,145113.0,146413.0,147867.0,149459.0,151204.0
260,72247,32822,Orlando,FL,Orlando-Kissimmee-Sanford,Orange County,261,163486.0,165258.0,167363.0,169495.0,171262.0,173291.0,175118.0,176944.0,178951.0,180606.0,182367.0,183929.0
264,73233,34953,Port Saint Lucie,FL,Port St. Lucie,Saint Lucie County,265,203479.0,204394.0,205799.0,206934.0,208523.0,210417.0,211886.0,213573.0,214971.0,216787.0,218619.0,220035.0
266,72488,33186,The Crossings,FL,Miami-Fort Lauderdale-West Palm Beach,Miami-Dade County,267,305752.0,307798.0,309210.0,310198.0,311959.0,313755.0,315086.0,317185.0,318892.0,321500.0,321948.0,323657.0
269,72350,33012,Hialeah,FL,Miami-Fort Lauderdale-West Palm Beach,Miami-Dade County,270,302176.0,304532.0,305878.0,307160.0,309776.0,312259.0,314628.0,316839.0,318353.0,321298.0,322600.0,325309.0
275,71837,32174,Ormond Beach,FL,Deltona-Daytona Beach-Ormond Beach,Volusia County,276,221095.0,222623.0,224295.0,226606.0,228199.0,229797.0,230884.0,231954.0,233989.0,236541.0,238871.0,240386.0
284,72392,33063,Margate,FL,Miami-Fort Lauderdale-West Palm Beach,Broward County,285,242742.0,243715.0,244587.0,247123.0,248770.0,250525.0,251909.0,254124.0,256341.0,258247.0,259797.0,261591.0
288,72393,33064,Pompano Beach,FL,Miami-Fort Lauderdale-West Palm Beach,Broward County,289,203434.0,205565.0,207590.0,210690.0,212732.0,214708.0,216598.0,219046.0,221286.0,223250.0,224907.0,226756.0
291,72365,33027,Miramar,FL,Miami-Fort Lauderdale-West Palm Beach,Broward County,292,377266.0,377787.0,378477.0,381083.0,382205.0,383242.0,383824.0,385468.0,387131.0,388709.0,389779.0,391602.0
293,72530,33311,Fort Lauderdale,FL,Miami-Fort Lauderdale-West Palm Beach,Broward County,294,170334.0,171756.0,173000.0,175516.0,177417.0,179640.0,181783.0,184500.0,186922.0,189298.0,191279.0,193011.0
330,72532,33313,Lauderhill,FL,Miami-Fort Lauderdale-West Palm Beach,Broward County,331,197024.0,198388.0,199773.0,202517.0,204741.0,206871.0,208920.0,211680.0,214414.0,216987.0,219143.0,221222.0
343,72252,32828,Orlando,FL,Orlando-Kissimmee-Sanford,Orange County,344,267415.0,269672.0,271848.0,273678.0,274940.0,277197.0,278769.0,280302.0,282032.0,283337.0,285525.0,287140.0
344,71878,32225,Jacksonville,FL,Jacksonville,Duval County,345,214326.0,217031.0,219983.0,221321.0,221805.0,222135.0,222794.0,224173.0,225708.0,227517.0,229556.0,231772.0
364,72538,33319,Lauderhill,FL,Miami-Fort Lauderdale-West Palm Beach,Broward County,365,209103.0,210454.0,211492.0,213912.0,215388.0,217023.0,218407.0,220300.0,222176.0,223866.0,225588.0,227362.0
391,72626,33467,Greenacres,FL,Miami-Fort Lauderdale-West Palm Beach,Palm Beach County,392,335327.0,336955.0,337884.0,338731.0,339337.0,340354.0,341552.0,343483.0,346187.0,348522.0,349669.0,349540.0
397,73089,34293,Venice,FL,North Port-Sarasota-Bradenton,Sarasota County,398,241147.0,240425.0,239832.0,239984.0,240726.0,241729.0,243459.0,245190.0,245649.0,245371.0,245336.0,246042.0
400,72540,33321,Tamarac,FL,Miami-Fort Lauderdale-West Palm Beach,Broward County,401,214636.0,215753.0,216961.0,219253.0,220825.0,222492.0,223832.0,225756.0,227533.0,229363.0,230837.0,232408.0
417,71897,32246,Jacksonville,FL,Jacksonville,Duval County,418,184046.0,186045.0,188076.0,189192.0,189646.0,190424.0,191529.0,193351.0,194881.0,196520.0,198599.0,200904.0
448,72460,33157,Village of Palmetto Bay,FL,Miami-Fort Lauderdale-West Palm Beach,Miami-Dade County,449,304186.0,306004.0,307747.0,309547.0,312644.0,315431.0,318053.0,320572.0,322408.0,324984.0,325640.0,327649.0
455,72199,32765,Oviedo,FL,Orlando-Kissimmee-Sanford,Seminole County,456,277624.0,279693.0,281840.0,284161.0,286275.0,287838.0,288876.0,290119.0,291168.0,291821.0,294587.0,298423.0
459,72103,32608,Gainesville,FL,Gainesville,Alachua County,460,244347.0,247763.0,249870.0,250419.0,249456.0,249997.0,251536.0,254434.0,257240.0,259708.0,261175.0,260860.0
473,72220,32792,Winter Park,FL,Orlando-Kissimmee-Sanford,Orange County,474,225568.0,226528.0,228279.0,230933.0,233622.0,236141.0,238012.0,239897.0,241602.0,242975.0,245452.0,248408.0
475,72653,33511,Brandon,FL,Tampa-St. Petersburg-Clearwater,Hillsborough County,476,198969.0,199771.0,200608.0,202302.0,204136.0,206068.0,207097.0,208060.0,208877.0,209782.0,211367.0,212681.0
505,399576,33578,Riverview,FL,Tampa-St. Petersburg-Clearwater,Hillsborough County,506,195436.0,196320.0,197217.0,198680.0,200206.0,201834.0,202730.0,203697.0,204361.0,205014.0,206023.0,206775.0
506,72617,33458,Jupiter,FL,Miami-Fort Lauderdale-West Palm Beach,Palm Beach County,507,365380.0,366920.0,367866.0,368666.0,369651.0,370937.0,372447.0,374419.0,377275.0,379867.0,381372.0,381803.0
525,72249,32825,Orlando,FL,Orlando-Kissimmee-Sanford,Orange County,526,211626.0,213361.0,215311.0,217296.0,218836.0,221006.0,222729.0,224403.0,226353.0,228014.0,229807.0,231268.0
535,71914,32303,Tallahassee,FL,Tallahassee,Leon County,536,134963.0,135438.0,136652.0,137516.0,138172.0,138158.0,138226.0,138643.0,139481.0,140376.0,140957.0,141515.0
536,72581,33414,Wellington,FL,Miami-Fort Lauderdale-West Palm Beach,Palm Beach County,537,363881.0,365742.0,366896.0,368123.0,369116.0,370400.0,371879.0,374073.0,376982.0,379436.0,380733.0,381063.0
552,72203,32771,Sanford,FL,Orlando-Kissimmee-Sanford,Seminole County,553,194036.0,195917.0,197989.0,200302.0,202235.0,203893.0,205336.0,206971.0,208244.0,209524.0,212204.0,215682.0
560,72599,33433,Boca Raton,FL,Miami-Fort Lauderdale-West Palm Beach,Palm Beach County,561,341559.0,343795.0,345277.0,346286.0,346869.0,347410.0,348475.0,350078.0,352643.0,354645.0,355369.0,355112.0
579,72353,33015,Country Club,FL,Miami-Fort Lauderdale-West Palm Beach,Miami-Dade County,580,307101.0,309418.0,311541.0,312817.0,315069.0,317258.0,319605.0,322657.0,324674.0,327252.0,327727.0,329676.0
592,72622,33463,Greenacres,FL,Miami-Fort Lauderdale-West Palm Beach,Palm Beach County,593,223891.0,226251.0,228047.0,229575.0,230759.0,232152.0,233657.0,235620.0,238117.0,240335.0,241682.0,242529.0
609,72602,33436,Boynton Beach,FL,Miami-Fort Lauderdale-West Palm Beach,Palm Beach County,610,275145.0,276635.0,277557.0,278601.0,279467.0,280570.0,281823.0,283600.0,286006.0,288082.0,289096.0,289387.0
621,73162,34668,Port Richey,FL,Tampa-St. Petersburg-Clearwater,Pasco County,622,95385.0,96302.0,97013.0,97828.0,99024.0,100566.0,102092.0,103592.0,105056.0,106610.0,108065.0,108955.0
635,72444,33141,Miami Beach,FL,Miami-Fort Lauderdale-West Palm Beach,Miami-Dade County,636,878018.0,878572.0,877374.0,875676.0,876080.0,877140.0,877912.0,879680.0,878684.0,876664.0,871081.0,867244.0
645,72543,33324,Plantation,FL,Miami-Fort Lauderdale-West Palm Beach,Broward County,646,309715.0,310337.0,310895.0,312758.0,313448.0,314310.0,314859.0,316472.0,318004.0,319516.0,320754.0,322314.0
649,71816,32137,Palm Coast,FL,Deltona-Daytona Beach-Ormond Beach,Flagler County,650,230605.0,232709.0,234781.0,236690.0,237878.0,237994.0,238017.0,238600.0,239211.0,239794.0,240364.0,240946.0
656,72480,33178,Doral,FL,Miami-Fort Lauderdale-West Palm Beach,Miami-Dade County,657,407972.0,407110.0,405862.0,404532.0,404492.0,404710.0,404565.0,405182.0,405027.0,405706.0,404352.0,403936.0
662,72359,33021,Hollywood,FL,Miami-Fort Lauderdale-West Palm Beach,Broward County,663,328698.0,329387.0,330225.0,332683.0,333844.0,334326.0,334813.0,336391.0,338312.0,339894.0,341199.0,342872.0
666,73202,34748,Leesburg,FL,Orlando-Kissimmee-Sanford,Lake County,667,151752.0,152741.0,153549.0,154602.0,155347.0,156494.0,157404.0,157832.0,158248.0,158402.0,159072.0,159883.0
678,72361,33023,Miramar,FL,Miami-Fort Lauderdale-West Palm Beach,Broward County,679,215628.0,216879.0,218151.0,221391.0,223727.0,225804.0,227956.0,230890.0,234132.0,236946.0,239418.0,241903.0
679,72262,32839,Orlando,FL,Orlando-Kissimmee-Sanford,Orange County,680,148593.0,150643.0,152468.0,153590.0,154905.0,157255.0,159503.0,161766.0,164150.0,166365.0,168416.0,170111.0
682,72907,33914,Cape Coral,FL,Cape Coral-Fort Myers,Lee County,683,283692.0,283424.0,283782.0,284583.0,286493.0,287120.0,287991.0,288035.0,288247.0,288104.0,287944.0,287909.0
696,72527,33308,Fort Lauderdale,FL,Miami-Fort Lauderdale-West Palm Beach,Broward County,697,598502.0,598237.0,597961.0,601735.0,603071.0,603807.0,603322.0,605359.0,607731.0,609962.0,612387.0,615855.0
697,73181,34698,Dunedin,FL,Tampa-St. Petersburg-Clearwater,Pinellas County,698,237254.0,237196.0,237606.0,239773.0,242069.0,244441.0,246863.0,250232.0,252962.0,255516.0,256622.0,257712.0
722,72585,33418,Palm Beach Gardens,FL,Miami-Fort Lauderdale-West Palm Beach,Palm Beach County,723,430455.0,432071.0,432949.0,434198.0,435172.0,435892.0,436838.0,438723.0,441993.0,444545.0,445479.0,445482.0
724,72531,33312,Fort Lauderdale,FL,Miami-Fort Lauderdale-West Palm Beach,Broward County,725,246733.0,248341.0,249666.0,252208.0,253840.0,255207.0,256751.0,259186.0,261525.0,263417.0,265151.0,267055.0
729,72603,33437,Boynton Beach,FL,Miami-Fort Lauderdale-West Palm Beach,Palm Beach County,730,316637.0,317739.0,318369.0,318684.0,318766.0,319095.0,319423.0,320007.0,321315.0,322522.0,323078.0,322881.0
752,71768,32068,Middleburg,FL,Jacksonville,Clay County,753,168993.0,170408.0,172228.0,173719.0,175129.0,176329.0,177423.0,178588.0,179830.0,181378.0,183217.0,185160.0
757,73256,34997,Stuart,FL,Port St. Lucie,Martin County,758,268135.0,269299.0,270345.0,272042.0,273814.0,274869.0,276127.0,277096.0,278274.0,279246.0,280293.0,280930.0
773,73043,34221,Palmetto,FL,North Port-Sarasota-Bradenton,Manatee County,774,208418.0,210120.0,211720.0,212987.0,214346.0,215732.0,216663.0,218237.0,219077.0,220578.0,220783.0,221573.0
777,73232,34952,Port Saint Lucie,FL,Port St. Lucie,Saint Lucie County,778,174406.0,175282.0,176545.0,177683.0,179007.0,180834.0,182306.0,184154.0,185745.0,187523.0,189240.0,190369.0
798,72834,33810,Lakeland,FL,Lakeland-Winter Haven,Polk County,799,169184.0,170273.0,171937.0,172833.0,173619.0,174190.0,174642.0,175583.0,176868.0,178377.0,180098.0,181471.0
802,73195,34741,Kissimmee,FL,Orlando-Kissimmee-Sanford,Osceola County,803,169721.0,170330.0,171366.0,172881.0,175358.0,177405.0,178625.0,179477.0,180797.0,182235.0,183760.0,185537.0
809,72394,33065,Coral Springs,FL,Miami-Fort Lauderdale-West Palm Beach,Broward County,810,325029.0,325205.0,325318.0,327653.0,328880.0,330311.0,331312.0,333487.0,335662.0,337793.0,339308.0,341186.0
838,72371,33033,Homestead,FL,Miami-Fort Lauderdale-West Palm Beach,Miami-Dade County,839,206456.0,208391.0,210038.0,211446.0,213878.0,216212.0,218020.0,220144.0,221738.0,224223.0,225194.0,227473.0
878,72358,33020,Hollywood,FL,Miami-Fort Lauderdale-West Palm Beach,Broward County,879,224434.0,226167.0,227962.0,230447.0,232238.0,233598.0,236025.0,239442.0,242956.0,245569.0,247610.0,249920.0
879,72717,33614,Egypt Lake-Leto,FL,Tampa-St. Petersburg-Clearwater,Hillsborough County,880,170445.0,172118.0,173471.0,175524.0,177766.0,180036.0,181645.0,183111.0,184234.0,185239.0,186729.0,188175.0
884,72478,33176,Kendall,FL,Miami-Fort Lauderdale-West Palm Beach,Miami-Dade County,885,449937.0,451681.0,452438.0,453021.0,455135.0,457360.0,459417.0,461801.0,463357.0,466485.0,467308.0,470020.0
910,72312,32935,Melbourne,FL,Palm Bay-Melbourne-Titusville,Brevard County,911,151040.0,152824.0,154220.0,156164.0,158714.0,160975.0,162928.0,164205.0,165380.0,166443.0,168542.0,170233.0
915,71832,32164,Palm Coast,FL,Deltona-Daytona Beach-Ormond Beach,Flagler County,916,185316.0,186733.0,188292.0,190152.0,191472.0,191750.0,191985.0,192634.0,193446.0,194202.0,194749.0,195286.0
924,73198,34744,Kissimmee,FL,Orlando-Kissimmee-Sanford,Osceola County,925,201265.0,201698.0,202476.0,203954.0,206588.0,208910.0,210218.0,211080.0,212733.0,214616.0,216275.0,218063.0
933,73157,34655,New Port Richey,FL,Tampa-St. Petersburg-Clearwater,Pasco County,934,231190.0,232113.0,232526.0,233284.0,234881.0,237219.0,239127.0,240654.0,241645.0,243059.0,243861.0,244478.0
949,72541,33322,Sunrise,FL,Miami-Fort Lauderdale-West Palm Beach,Broward County,950,276559.0,277297.0,277873.0,280301.0,281705.0,283355.0,284548.0,286549.0,288497.0,290271.0,291695.0,293401.0
960,72428,33125,Miami,FL,Miami-Fort Lauderdale-West Palm Beach,Miami-Dade County,961,273225.0,275852.0,278783.0,281455.0,284572.0,286207.0,286917.0,288932.0,291048.0,293647.0,294232.0,296126.0
973,72261,32837,Orlando,FL,Orlando-Kissimmee-Sanford,Orange County,974,237601.0,239572.0,241717.0,243545.0,244822.0,246892.0,248398.0,250030.0,252029.0,253389.0,254958.0,255991.0
991,72718,33615,Town 'n' Country,FL,Tampa-St. Petersburg-Clearwater,Hillsborough County,992,184153.0,185500.0,186740.0,188994.0,191177.0,193535.0,195054.0,196723.0,197990.0,199289.0,200949.0,202528.0
994,71869,32216,Jacksonville,FL,Jacksonville,Duval County,995,142827.0,143792.0,144568.0,145304.0,145916.0,146687.0,147677.0,148888.0,150214.0,151668.0,153268.0,155014.0
1004,72315,32940,Melbourne,FL,Palm Bay-Melbourne-Titusville,Brevard County,1005,291015.0,293111.0,295232.0,298375.0,301525.0,304126.0,305730.0,306752.0,307831.0,308921.0,311224.0,312802.0
1020,72720,33617,Temple Terrace,FL,Tampa-St. Petersburg-Clearwater,Hillsborough County,1021,162324.0,163537.0,165022.0,167333.0,169596.0,171608.0,172921.0,173908.0,174632.0,175247.0,176556.0,177779.0
1032,72445,33142,Miami,FL,Miami-Fort Lauderdale-West Palm Beach,Miami-Dade County,1033,157933.0,160684.0,163470.0,165891.0,169815.0,172223.0,174804.0,177127.0,180189.0,183406.0,185701.0,188172.0
1033,72391,33062,Pompano Beach,FL,Miami-Fort Lauderdale-West Palm Beach,Broward County,1034,534107.0,534249.0,534345.0,537645.0,539135.0,540068.0,540113.0,542056.0,543719.0,545357.0,546493.0,548712.0
1041,72715,33612,Tampa,FL,Tampa-St. Petersburg-Clearwater,Hillsborough County,1042,134391.0,135064.0,135759.0,138340.0,140727.0,142916.0,144076.0,145593.0,146730.0,147851.0,149235.0,150516.0
1042,71905,32259,Fruit Cove,FL,Jacksonville,Saint Johns County,1043,313980.0,315155.0,316815.0,318167.0,319387.0,319873.0,321231.0,322725.0,325603.0,328696.0,330664.0,331545.0
1052,72173,32725,Deltona,FL,Deltona-Daytona Beach-Ormond Beach,Volusia County,1053,144368.0,145950.0,147668.0,149993.0,151894.0,153685.0,155253.0,156738.0,159078.0,161613.0,164159.0,166020.0
1063,72154,32703,Apopka,FL,Orlando-Kissimmee-Sanford,Orange County,1064,180334.0,182421.0,184353.0,186252.0,187912.0,190281.0,192123.0,193949.0,195719.0,197267.0,199536.0,201936.0
1103,72608,33442,Deerfield Beach,FL,Miami-Fort Lauderdale-West Palm Beach,Broward County,1104,250207.0,251182.0,251934.0,253767.0,254770.0,256007.0,257040.0,258639.0,260230.0,261736.0,263012.0,264752.0
1105,73200,34746,Kissimmee,FL,Orlando-Kissimmee-Sanford,Osceola County,1106,206208.0,206392.0,206839.0,207718.0,209703.0,211330.0,212213.0,212756.0,214095.0,215584.0,217280.0,219042.0
1113,72582,33415,Greenacres,FL,Miami-Fort Lauderdale-West Palm Beach,Palm Beach County,1114,178923.0,180563.0,181751.0,183127.0,184478.0,185943.0,187388.0,189339.0,191781.0,194172.0,195376.0,196195.0
1117,72482,33180,Aventura,FL,Miami-Fort Lauderdale-West Palm Beach,Miami-Dade County,1118,620914.0,620817.0,622338.0,622251.0,623686.0,624605.0,625830.0,627522.0,625574.0,625688.0,622395.0,623956.0
1145,72158,32708,Winter Springs,FL,Orlando-Kissimmee-Sanford,Seminole County,1146,244917.0,246646.0,248352.0,250310.0,252240.0,253709.0,254958.0,256262.0,257500.0,258456.0,261263.0,264895.0
1165,72433,33130,Miami,FL,Miami-Fort Lauderdale-West Palm Beach,Miami-Dade County,1166,354058.0,359337.0,366376.0,371856.0,375246.0,376534.0,377464.0,378085.0,377485.0,376672.0,374582.0,373324.0
1171,72186,32746,Lake Mary,FL,Orlando-Kissimmee-Sanford,Seminole County,1172,296250.0,298161.0,300218.0,302176.0,304038.0,305358.0,306486.0,307724.0,308793.0,309499.0,312199.0,316065.0
1179,72035,32514,Pensacola,FL,Pensacola-Ferry Pass-Brent,Escambia County,1180,141176.0,141920.0,142542.0,142858.0,143875.0,145098.0,146335.0,147008.0,147615.0,148239.0,148831.0,149297.0
1246,72481,33179,Ives Estates,FL,Miami-Fort Lauderdale-West Palm Beach,Miami-Dade County,1247,297409.0,298718.0,299564.0,300506.0,302290.0,303411.0,304545.0,305698.0,307027.0,308851.0,308956.0,309842.0
1282,72397,33068,North Lauderdale,FL,Miami-Fort Lauderdale-West Palm Beach,Broward County,1283,195200.0,196580.0,197749.0,200515.0,202269.0,204040.0,205547.0,208071.0,210571.0,212990.0,214893.0,217026.0
1298,72259,32835,Orlando,FL,Orlando-Kissimmee-Sanford,Orange County,1299,230681.0,232903.0,235101.0,236627.0,237663.0,239566.0,240991.0,242418.0,243993.0,245157.0,246411.0,247268.0
1299,73220,34786,Windermere,FL,Orlando-Kissimmee-Sanford,Orange County,1300,406129.0,407981.0,409732.0,410797.0,410911.0,412454.0,413416.0,414604.0,416452.0,417310.0,419131.0,420257.0
1305,72912,33919,Fort Myers,FL,Cape Coral-Fort Myers,Lee County,1306,264073.0,263281.0,263456.0,264380.0,266477.0,267362.0,268254.0,268338.0,268548.0,268324.0,268020.0,267997.0
1324,72429,33126,Miami,FL,Miami-Fort Lauderdale-West Palm Beach,Miami-Dade County,1325,288666.0,290912.0,293306.0,295533.0,298071.0,299725.0,300904.0,303378.0,305138.0,307631.0,307701.0,309087.0
1328,71877,32224,Jacksonville,FL,Jacksonville,Duval County,1329,295633.0,299129.0,302851.0,304512.0,304990.0,305379.0,306262.0,308059.0,309930.0,312192.0,314927.0,317502.0
1338,72234,32808,Pine Hills,FL,Orlando-Kissimmee-Sanford,Orange County,1339,113284.0,114537.0,116169.0,119040.0,121626.0,124177.0,126617.0,128443.0,130598.0,132246.0,134209.0,135993.0
1339,72212,32780,Titusville,FL,Palm Bay-Melbourne-Titusville,Brevard County,1340,150675.0,152054.0,153594.0,156164.0,158902.0,161336.0,162996.0,164331.0,165629.0,166816.0,168758.0,170425.0
1353,71743,32034,Fernandina Beach,FL,Jacksonville,Nassau County,1354,318865.0,320124.0,322035.0,323306.0,326365.0,328988.0,332192.0,334259.0,335576.0,336333.0,337769.0,340646.0
1357,73005,34112,Naples,FL,Naples-Immokalee-Marco Island,Collier County,1358,291935.0,291097.0,290680.0,290708.0,291383.0,291729.0,291450.0,291784.0,293060.0,293639.0,293997.0,294490.0
1364,72854,33844,Haines City,FL,Lakeland-Winter Haven,Polk County,1365,155956.0,157309.0,159189.0,160449.0,161524.0,162555.0,163333.0,164433.0,165690.0,167061.0,168503.0,169752.0
1370,73027,34203,Bradenton,FL,North Port-Sarasota-Bradenton,Manatee County,1371,253700.0,255356.0,256501.0,257231.0,257619.0,258375.0,258743.0,260038.0,260256.0,261031.0,260502.0,260706.0
1376,72067,32566,Navarre,FL,Pensacola-Ferry Pass-Brent,Santa Rosa County,1377,223505.0,225045.0,226543.0,227768.0,229583.0,231657.0,233406.0,234747.0,235974.0,237135.0,238735.0,239958.0
1379,71829,32159,The Villages,FL,The Villages,Sumter County,1380,207191.0,207406.0,207621.0,208337.0,208367.0,208734.0,208973.0,208855.0,208797.0,208548.0,208716.0,208999.0
1406,72897,33904,Cape Coral,FL,Cape Coral-Fort Myers,Lee County,1407,253730.0,253432.0,253912.0,255246.0,257625.0,258759.0,259767.0,259829.0,259966.0,259930.0,260027.0,260465.0
1407,72918,33928,Estero,FL,Cape Coral-Fort Myers,Lee County,1408,354445.0,352979.0,352919.0,353016.0,354533.0,354113.0,354461.0,353822.0,353493.0,352288.0,351254.0,350321.0
1412,72468,33165,University Park,FL,Miami-Fort Lauderdale-West Palm Beach,Miami-Dade County,1413,345763.0,347760.0,349122.0,350561.0,352811.0,355172.0,356994.0,358751.0,359526.0,361570.0,362358.0,364894.0
1413,72464,33161,North Miami,FL,Miami-Fort Lauderdale-West Palm Beach,Miami-Dade County,1414,269124.0,271173.0,272808.0,274581.0,276942.0,279760.0,281721.0,283879.0,284750.0,286649.0,287273.0,289017.0
1419,71903,32257,Jacksonville,FL,Jacksonville,Duval County,1420,200274.0,203102.0,205758.0,206922.0,207595.0,208452.0,209596.0,211260.0,212817.0,214658.0,216488.0,218273.0
1425,72248,32824,Orlando,FL,Orlando-Kissimmee-Sanford,Orange County,1426,224379.0,226794.0,229049.0,230625.0,231691.0,233503.0,234972.0,236387.0,237997.0,239061.0,241034.0,242812.0
1426,72601,33435,Boynton Beach,FL,Miami-Fort Lauderdale-West Palm Beach,Palm Beach County,1427,202268.0,203768.0,204678.0,206080.0,207712.0,209631.0,211386.0,213303.0,215401.0,217312.0,218559.0,219523.0
1427,73161,34667,Hudson,FL,Tampa-St. Petersburg-Clearwater,Pasco County,1428,150279.0,151199.0,151939.0,152892.0,154627.0,156595.0,158355.0,159801.0,161040.0,162650.0,163912.0,164581.0
1433,73033,34209,Bradenton,FL,North Port-Sarasota-Bradenton,Manatee County,1434,254166.0,256147.0,258004.0,259628.0,260808.0,262180.0,262640.0,263977.0,264095.0,264993.0,264453.0,264914.0
1440,73145,34609,Spring Hill,FL,Tampa-St. Petersburg-Clearwater,Hernando County,1441,155046.0,155958.0,157001.0,158105.0,159194.0,160456.0,162227.0,163921.0,165088.0,165738.0,166782.0,168334.0
1462,72612,33446,Delray Beach,FL,Miami-Fort Lauderdale-West Palm Beach,Palm Beach County,1463,449343.0,450084.0,449964.0,449646.0,449545.0,449963.0,450230.0,451052.0,452673.0,454479.0,454557.0,453537.0
1519,72295,32907,Palm Bay,FL,Palm Bay-Melbourne-Titusville,Brevard County,1520,158615.0,160340.0,162050.0,164219.0,166661.0,168765.0,170628.0,171929.0,173226.0,174379.0,176320.0,177748.0
1522,72477,33175,Tamiami,FL,Miami-Fort Lauderdale-West Palm Beach,Miami-Dade County,1523,338609.0,340562.0,342064.0,343146.0,345163.0,346714.0,348428.0,350510.0,352525.0,355117.0,356092.0,358448.0
1548,71771,32073,Orange Park,FL,Jacksonville,Clay County,1549,162297.0,163709.0,165270.0,167305.0,168935.0,170368.0,171494.0,172619.0,173816.0,175496.0,177340.0,179401.0
1572,72161,32712,Apopka,FL,Orlando-Kissimmee-Sanford,Orange County,1573,238958.0,241483.0,243544.0,245028.0,245724.0,247707.0,249214.0,250962.0,252764.0,254226.0,256147.0,257681.0
1574,73010,34119,Naples,FL,Naples-Immokalee-Marco Island,Collier County,1575,501132.0,497880.0,496351.0,495822.0,495857.0,495170.0,493649.0,492998.0,494394.0,494406.0,492987.0,491376.0
1578,72584,33417,Century Village,FL,Miami-Fort Lauderdale-West Palm Beach,Palm Beach County,1579,189410.0,191551.0,193194.0,194738.0,196063.0,197415.0,198615.0,200160.0,202099.0,204266.0,205855.0,206962.0
1580,72042,32526,Pensacola,FL,Pensacola-Ferry Pass-Brent,Escambia County,1581,136993.0,137771.0,138334.0,138532.0,139322.0,140393.0,141613.0,142312.0,143185.0,144136.0,145058.0,145619.0
1585,73050,34231,Sarasota,FL,North Port-Sarasota-Bradenton,Sarasota County,1586,244404.0,243565.0,242931.0,243284.0,244327.0,246036.0,248476.0,250540.0,251080.0,250814.0,250859.0,251579.0
1586,72479,33177,South Miami Heights,FL,Miami-Fort Lauderdale-West Palm Beach,Miami-Dade County,1587,261879.0,264153.0,266511.0,268348.0,270914.0,273214.0,275503.0,278044.0,279876.0,282120.0,282846.0,284909.0
1589,72437,33134,Coral Gables,FL,Miami-Fort Lauderdale-West Palm Beach,Miami-Dade County,1590,557260.0,560551.0,562753.0,563426.0,563863.0,565207.0,566606.0,570258.0,572678.0,575588.0,575930.0,577811.0
1620,72497,33196,The Hammocks,FL,Miami-Fort Lauderdale-West Palm Beach,Miami-Dade County,1621,331180.0,332936.0,334473.0,335515.0,337517.0,339194.0,340449.0,342212.0,343683.0,345956.0,346246.0,347645.0
1622,72620,33461,Palm Springs,FL,Miami-Fort Lauderdale-West Palm Beach,Palm Beach County,1623,187401.0,189307.0,190925.0,192835.0,194442.0,196274.0,198005.0,200018.0,202415.0,204745.0,206228.0,207281.0
1654,72910,33917,North Fort Myers,FL,Cape Coral-Fort Myers,Lee County,1655,196939.0,196736.0,197233.0,198021.0,199810.0,200603.0,201587.0,201724.0,202055.0,202003.0,202189.0,202533.0
1655,72029,32507,Pensacola,FL,Pensacola-Ferry Pass-Brent,Escambia County,1656,144448.0,144970.0,145492.0,145693.0,146713.0,147800.0,149346.0,150365.0,151381.0,152325.0,153523.0,154527.0
1657,72640,33484,Delray Beach,FL,Miami-Fort Lauderdale-West Palm Beach,Palm Beach County,1658,228553.0,229643.0,230380.0,231196.0,231818.0,232461.0,232959.0,233586.0,234753.0,236181.0,237346.0,238098.0
1670,72324,32955,Rockledge,FL,Palm Bay-Melbourne-Titusville,Brevard County,1671,230419.0,231996.0,233609.0,236404.0,239482.0,242142.0,243908.0,245168.0,246455.0,247819.0,250300.0,252103.0
1680,72577,33410,Palm Beach Gardens,FL,Miami-Fort Lauderdale-West Palm Beach,Palm Beach County,1681,351753.0,353127.0,354027.0,354917.0,355905.0,357131.0,358222.0,360359.0,363229.0,366010.0,367377.0,367701.0
1685,73031,34207,Bradenton,FL,North Port-Sarasota-Bradenton,Manatee County,1686,149708.0,151624.0,153116.0,154778.0,156467.0,158406.0,159675.0,161193.0,161957.0,162828.0,162666.0,163027.0
1688,72370,33032,Princeton,FL,Miami-Fort Lauderdale-West Palm Beach,Miami-Dade County,1689,225728.0,228016.0,229994.0,231562.0,233699.0,235793.0,237413.0,239429.0,240761.0,243011.0,243614.0,245578.0
1698,72611,33445,Delray Beach,FL,Miami-Fort Lauderdale-West Palm Beach,Palm Beach County,1699,271153.0,272771.0,273877.0,274893.0,275801.0,277086.0,278501.0,280026.0,282036.0,283833.0,284855.0,285268.0
1707,399570,32163,The Villages,FL,The Villages,Sumter County,1708,302280.0,303395.0,304906.0,307457.0,308644.0,309696.0,310766.0,311974.0,313328.0,314840.0,316285.0,317792.0
1715,72884,33881,Winter Haven,FL,Lakeland-Winter Haven,Polk County,1716,127541.0,129145.0,131275.0,133011.0,134520.0,135856.0,137061.0,138471.0,140126.0,142361.0,144530.0,146535.0
1732,73210,34761,Ocoee,FL,Orlando-Kissimmee-Sanford,Orange County,1733,223838.0,225920.0,228093.0,229732.0,230762.0,232741.0,234375.0,236094.0,237920.0,239316.0,240883.0,242179.0
1739,72172,32724,Deland,FL,Deltona-Daytona Beach-Ormond Beach,Volusia County,1740,178850.0,180759.0,182737.0,185192.0,186955.0,188470.0,189588.0,190653.0,192652.0,195013.0,197232.0,198728.0
1740,72163,32714,Altamonte Springs,FL,Orlando-Kissimmee-Sanford,Seminole County,1741,204945.0,207086.0,209436.0,211576.0,213545.0,215511.0,217313.0,219232.0,220510.0,221589.0,224315.0,228053.0
1750,72713,33610,Tampa,FL,Tampa-St. Petersburg-Clearwater,Hillsborough County,1751,105210.0,106519.0,108275.0,111376.0,114673.0,118210.0,121176.0,123441.0,124812.0,126040.0,127395.0,128963.0
1755,72434,33131,Miami,FL,Miami-Fort Lauderdale-West Palm Beach,Miami-Dade County,1756,475945.0,472689.0,468790.0,467384.0,466175.0,464846.0,462010.0,460829.0,459346.0,458928.0,455391.0,453255.0
1792,72182,32738,Deltona,FL,Deltona-Daytona Beach-Ormond Beach,Volusia County,1793,144455.0,146040.0,147686.0,149816.0,151599.0,153222.0,154483.0,155727.0,157878.0,160247.0,162406.0,163943.0
1795,72727,33624,Greater Carrollwood,FL,Tampa-St. Petersburg-Clearwater,Hillsborough County,1796,219184.0,220821.0,222254.0,224626.0,226974.0,229362.0,230775.0,232189.0,233287.0,234552.0,236175.0,237553.0
1805,73023,34145,Marco Island,FL,Naples-Immokalee-Marco Island,Collier County,1806,759284.0,752596.0,748909.0,747760.0,748592.0,749507.0,750217.0,751894.0,753888.0,753526.0,750314.0,748475.0
1816,72356,33018,Hialeah,FL,Miami-Fort Lauderdale-West Palm Beach,Miami-Dade County,1817,316271.0,318332.0,319750.0,320232.0,321492.0,322893.0,324476.0,327055.0,328994.0,332121.0,332880.0,334985.0
1824,72243,32818,Pine Hills,FL,Orlando-Kissimmee-Sanford,Orange County,1825,171889.0,173802.0,176007.0,178035.0,179815.0,182147.0,184305.0,186529.0,188634.0,190375.0,192450.0,194485.0
1826,72474,33172,Fountainbleau,FL,Miami-Fort Lauderdale-West Palm Beach,Miami-Dade County,1827,356916.0,357960.0,358658.0,358539.0,358878.0,359512.0,360146.0,362132.0,363662.0,365345.0,364256.0,364634.0
1829,71861,32207,Jacksonville,FL,Jacksonville,Duval County,1830,145523.0,146719.0,147710.0,148734.0,149603.0,150524.0,151762.0,153238.0,154852.0,156469.0,158167.0,160115.0
1831,72568,33401,West Palm Beach,FL,Miami-Fort Lauderdale-West Palm Beach,Palm Beach County,1832,225820.0,228442.0,230644.0,232839.0,234696.0,236647.0,238494.0,240962.0,243457.0,246279.0,247789.0,249108.0
1838,72811,33771,Largo,FL,Tampa-St. Petersburg-Clearwater,Pinellas County,1839,163376.0,163699.0,164507.0,166366.0,168383.0,170505.0,172490.0,175054.0,177293.0,179190.0,180568.0,181908.0
1864,72377,33040,Key West,FL,Key West,Monroe County,1865,617850.0,621557.0,623854.0,624322.0,622860.0,623635.0,624796.0,626883.0,628422.0,632514.0,634837.0,636251.0
1879,72157,32707,Casselberry,FL,Orlando-Kissimmee-Sanford,Seminole County,1880,194439.0,195779.0,197229.0,199577.0,201774.0,203768.0,205747.0,207978.0,209832.0,211527.0,214400.0,218063.0
1880,72237,32811,Orlando,FL,Orlando-Kissimmee-Sanford,Orange County,1881,100801.0,103248.0,105563.0,107217.0,108639.0,110126.0,111810.0,113652.0,115767.0,117486.0,119060.0,120462.0
1893,72594,33428,Boca Raton,FL,Miami-Fort Lauderdale-West Palm Beach,Palm Beach County,1894,312567.0,314367.0,315855.0,317238.0,318505.0,319821.0,321315.0,323333.0,326035.0,328162.0,329462.0,329927.0
1909,73051,34232,Sarasota,FL,North Port-Sarasota-Bradenton,Sarasota County,1910,225151.0,224689.0,224041.0,224273.0,225053.0,226559.0,228814.0,230828.0,231785.0,231646.0,231745.0,232206.0
1923,72883,33880,Winter Haven,FL,Lakeland-Winter Haven,Polk County,1924,120950.0,122313.0,124371.0,125835.0,127133.0,128185.0,129267.0,130691.0,132183.0,133875.0,135403.0,136859.0
1924,72689,33573,Sun City Center,FL,Tampa-St. Petersburg-Clearwater,Hillsborough County,1925,196404.0,196974.0,197326.0,198355.0,199553.0,200717.0,201367.0,202040.0,202517.0,203160.0,204233.0,205170.0
1925,72714,33611,Tampa,FL,Tampa-St. Petersburg-Clearwater,Hillsborough County,1926,270617.0,271986.0,273284.0,276557.0,279999.0,283407.0,284520.0,285504.0,285807.0,286175.0,287432.0,288375.0
1956,73244,34983,Port Saint Lucie,FL,Port St. Lucie,Saint Lucie County,1957,178850.0,179984.0,181442.0,182454.0,183767.0,185429.0,186900.0,188818.0,190518.0,192589.0,194493.0,195808.0
1957,71915,32304,Tallahassee,FL,Tallahassee,Leon County,1958,80739.0,81053.0,81786.0,82342.0,82986.0,82811.0,82900.0,83216.0,83963.0,84820.0,85260.0,85791.0
1958,72354,33016,Hialeah,FL,Miami-Fort Lauderdale-West Palm Beach,Miami-Dade County,1959,316718.0,318313.0,319843.0,320625.0,321922.0,323171.0,324304.0,326612.0,328446.0,331269.0,331687.0,333357.0
1980,72056,32547,Fort Walton Beach,FL,Crestview-Fort Walton Beach-Destin,Okaloosa County,1981,180175.0,181222.0,182626.0,184155.0,185461.0,187243.0,189545.0,191305.0,192565.0,192470.0,192662.0,193726.0
1981,71806,32127,Port Orange,FL,Deltona-Daytona Beach-Ormond Beach,Volusia County,1982,200042.0,202133.0,204242.0,206630.0,208046.0,209646.0,210884.0,212098.0,214317.0,216446.0,218677.0,220000.0
1996,72028,32506,Pensacola,FL,Pensacola-Ferry Pass-Brent,Escambia County,1997,117606.0,118284.0,119224.0,119666.0,120980.0,122069.0,123391.0,124290.0,125291.0,126359.0,127231.0,127715.0
2018,73004,34110,Naples,FL,Naples-Immokalee-Marco Island,Collier County,2019,504395.0,502034.0,501425.0,501473.0,502391.0,501485.0,500148.0,498811.0,500532.0,500629.0,499409.0,497654.0
2028,72458,33155,Miami,FL,Miami-Fort Lauderdale-West Palm Beach,Miami-Dade County,2029,371233.0,373827.0,376374.0,377966.0,380153.0,381849.0,383439.0,385091.0,386019.0,388147.0,388598.0,391205.0
2050,72436,33133,Miami,FL,Miami-Fort Lauderdale-West Palm Beach,Miami-Dade County,2051,722524.0,722562.0,723717.0,724825.0,727918.0,730500.0,732648.0,735908.0,737516.0,739040.0,736235.0,735823.0
2069,72765,33702,Saint Petersburg,FL,Tampa-St. Petersburg-Clearwater,Pinellas County,2070,193411.0,193385.0,193867.0,195753.0,197386.0,199196.0,200955.0,204070.0,206494.0,208762.0,210063.0,211374.0
2075,72494,33193,Kendall West,FL,Miami-Fort Lauderdale-West Palm Beach,Miami-Dade County,2076,315780.0,317664.0,319170.0,320404.0,322752.0,324670.0,326418.0,328296.0,329818.0,332279.0,332918.0,334985.0
2092,73155,34653,New Port Richey,FL,Tampa-St. Petersburg-Clearwater,Pasco County,2093,113715.0,114770.0,115702.0,116714.0,118335.0,120290.0,122018.0,123613.0,124797.0,126283.0,127370.0,128181.0
2096,72352,33014,Hialeah,FL,Miami-Fort Lauderdale-West Palm Beach,Miami-Dade County,2097,294697.0,296460.0,297650.0,299115.0,301485.0,303290.0,305034.0,307031.0,308714.0,310841.0,311467.0,313337.0
2105,72707,33604,Tampa,FL,Tampa-St. Petersburg-Clearwater,Hillsborough County,2106,150584.0,151997.0,153489.0,155980.0,158278.0,160481.0,161816.0,163117.0,164210.0,165425.0,166967.0,168214.0
2140,72933,33952,Port Charlotte,FL,Punta Gorda,Charlotte County,2141,136070.0,137245.0,138009.0,138961.0,139629.0,140429.0,141575.0,142652.0,143252.0,143962.0,145107.0,146329.0
2160,72716,33613,Lake Magdalene,FL,Tampa-St. Petersburg-Clearwater,Hillsborough County,2161,208637.0,209278.0,210521.0,212839.0,215165.0,217323.0,218696.0,220179.0,221270.0,222278.0,223948.0,225944.0
2182,72450,33147,West Little River,FL,Miami-Fort Lauderdale-West Palm Beach,Miami-Dade County,2183,166131.0,169448.0,172607.0,174839.0,177908.0,180181.0,182467.0,184708.0,186878.0,189723.0,192079.0,195097.0
2191,71863,32209,Jacksonville,FL,Jacksonville,Duval County,2192,36615.0,37351.0,38132.0,38546.0,39000.0,39585.0,40468.0,41062.0,41464.0,41707.0,42408.0,43457.0
2206,71776,32084,Saint Augustine,FL,Jacksonville,Saint Johns County,2207,211212.0,211968.0,212852.0,214084.0,215469.0,216525.0,217878.0,219315.0,221729.0,224686.0,226571.0,227323.0
2212,72887,33884,Winter Haven,FL,Lakeland-Winter Haven,Polk County,2213,172355.0,173489.0,175190.0,176134.0,176652.0,177099.0,177666.0,178773.0,180103.0,181874.0,183655.0,185371.0
2247,73029,34205,Bradenton,FL,North Port-Sarasota-Bradenton,Manatee County,2248,161895.0,163255.0,164706.0,166161.0,167644.0,169360.0,170312.0,171856.0,172754.0,174306.0,174742.0,175686.0
2248,71904,32258,Jacksonville,FL,Jacksonville,Duval County,2249,235011.0,237489.0,239897.0,240720.0,240721.0,240969.0,241556.0,242957.0,244147.0,245747.0,247721.0,249810.0
2265,72015,32459,Santa Rosa Beach,FL,Crestview-Fort Walton Beach-Destin,Walton County,2266,486808.0,488013.0,490674.0,494515.0,497529.0,500628.0,504015.0,507576.0,509231.0,512485.0,516517.0,520813.0
2275,72770,33707,Gulfport,FL,Tampa-St. Petersburg-Clearwater,Pinellas County,2276,198518.0,198918.0,199769.0,201587.0,203645.0,205735.0,208202.0,211399.0,214582.0,217564.0,220087.0,221930.0
2286,72528,33309,Oakland Park,FL,Miami-Fort Lauderdale-West Palm Beach,Broward County,2287,213218.0,214537.0,215753.0,218168.0,219916.0,221461.0,222897.0,224965.0,227209.0,229466.0,231707.0,234022.0
2287,72438,33135,Miami,FL,Miami-Fort Lauderdale-West Palm Beach,Miami-Dade County,2288,334250.0,336557.0,339297.0,341116.0,343032.0,343420.0,344275.0,346600.0,348472.0,350916.0,351015.0,352776.0
2303,72931,33950,Punta Gorda,FL,Punta Gorda,Charlotte County,2304,364002.0,366335.0,367320.0,368869.0,370511.0,372227.0,374444.0,376235.0,377054.0,377738.0,379338.0,380510.0
2311,72348,33010,Hialeah,FL,Miami-Fort Lauderdale-West Palm Beach,Miami-Dade County,2312,265209.0,268275.0,270586.0,272745.0,275791.0,279101.0,281811.0,285991.0,288721.0,292286.0,292787.0,294767.0
2312,73011,34120,Naples,FL,Naples-Immokalee-Marco Island,Collier County,2313,309832.0,309119.0,309544.0,310489.0,312092.0,312923.0,312934.0,313469.0,315097.0,315846.0,315374.0,315024.0
2323,72773,33710,Saint Petersburg,FL,Tampa-St. Petersburg-Clearwater,Pinellas County,2324,176928.0,176368.0,176269.0,177984.0,180084.0,182082.0,184559.0,187692.0,190475.0,193122.0,194801.0,196328.0
2324,73003,34109,Naples,FL,Naples-Immokalee-Marco Island,Collier County,2325,490098.0,487336.0,486401.0,486358.0,486536.0,485625.0,483635.0,482764.0,483578.0,483345.0,481717.0,480333.0
2333,73134,34491,Summerfield,FL,Ocala,Marion County,2334,175759.0,176370.0,177786.0,179301.0,180560.0,181075.0,181293.0,182080.0,182927.0,183873.0,184653.0,185441.0
2349,73208,34759,Poinciana,FL,Lakeland-Winter Haven,Polk County,2350,153071.0,154058.0,155562.0,156690.0,157870.0,158953.0,159860.0,161094.0,162513.0,164180.0,165710.0,167198.0
2353,71972,32404,Panama City,FL,Panama City,Bay County,2354,154286.0,154649.0,155177.0,155856.0,156493.0,157368.0,158162.0,159536.0,160705.0,160721.0,161607.0,162841.0
2371,73006,34113,Naples,FL,Naples-Immokalee-Marco Island,Collier County,2372,419840.0,417884.0,416682.0,416716.0,417147.0,416680.0,415116.0,414924.0,416049.0,416444.0,415580.0,414473.0
2383,71781,32092,Saint Augustine,FL,Jacksonville,Saint Johns County,2384,278502.0,279537.0,280838.0,281979.0,283014.0,283743.0,284897.0,285916.0,288054.0,290614.0,292577.0,293275.0
2433,72389,33060,Pompano Beach,FL,Miami-Fort Lauderdale-West Palm Beach,Broward County,2434,275472.0,276252.0,277384.0,279531.0,281105.0,282170.0,283576.0,285572.0,287786.0,289345.0,290706.0,292639.0
2442,72025,32503,Pensacola,FL,Pensacola-Ferry Pass-Brent,Escambia County,2443,156765.0,157901.0,158823.0,159206.0,160038.0,161406.0,162957.0,164195.0,165409.0,166433.0,167829.0,169003.0
2449,71793,32114,Daytona Beach,FL,Deltona-Daytona Beach-Ormond Beach,Volusia County,2450,91461.0,92248.0,93280.0,94730.0,96086.0,97881.0,99034.0,99620.0,100400.0,102101.0,104113.0,105485.0
2452,72797,33756,Clearwater,FL,Tampa-St. Petersburg-Clearwater,Pinellas County,2453,191962.0,192188.0,193087.0,195395.0,197992.0,200407.0,202509.0,205474.0,207771.0,210038.0,211077.0,211960.0
2453,73083,34285,Venice,FL,North Port-Sarasota-Bradenton,Sarasota County,2454,335188.0,333818.0,332576.0,332443.0,332993.0,334150.0,336117.0,338024.0,337923.0,337525.0,336994.0,337627.0
2454,72238,32812,Orlando,FL,Orlando-Kissimmee-Sanford,Orange County,2455,239749.0,241903.0,243923.0,245675.0,246764.0,248648.0,249922.0,251295.0,252954.0,254305.0,256035.0,257265.0
2461,73032,34208,Bradenton,FL,North Port-Sarasota-Bradenton,Manatee County,2462,183398.0,185033.0,186592.0,188137.0,189872.0,191548.0,192687.0,194337.0,195226.0,196405.0,196162.0,196470.0
2465,73062,34243,Sarasota,FL,North Port-Sarasota-Bradenton,Sarasota County,2466,283103.0,284629.0,285730.0,286545.0,287037.0,287978.0,288221.0,289208.0,289095.0,289661.0,289180.0,289469.0
2473,71899,32250,Jacksonville Beach,FL,Jacksonville,Duval County,2474,337617.0,342396.0,347826.0,350941.0,352658.0,354232.0,356715.0,360116.0,362885.0,365768.0,368922.0,372333.0
2505,72898,33905,Fort Myers,FL,Cape Coral-Fort Myers,Lee County,2506,167448.0,168073.0,169065.0,170189.0,171830.0,172706.0,173746.0,174271.0,174852.0,175090.0,175367.0,175780.0
2517,72292,32904,West Melbourne,FL,Palm Bay-Melbourne-Titusville,Brevard County,2518,233376.0,235129.0,236713.0,239136.0,241944.0,244683.0,246688.0,248160.0,249425.0,250672.0,253034.0,254844.0
2519,72621,33462,Lantana,FL,Miami-Fort Lauderdale-West Palm Beach,Palm Beach County,2520,223764.0,225265.0,226853.0,228546.0,230308.0,232182.0,233897.0,235835.0,238263.0,240898.0,242803.0,243695.0
2531,73002,34108,Naples,FL,Naples-Immokalee-Marco Island,Collier County,2532,620563.0,616358.0,614192.0,614142.0,615450.0,616268.0,616414.0,618188.0,621767.0,624099.0,622102.0,621171.0
2568,71774,32082,Ponte Vedra Beach,FL,Jacksonville,Saint Johns County,2569,561752.0,564009.0,567626.0,571189.0,574045.0,575448.0,576307.0,577865.0,581041.0,586129.0,588308.0,588965.0
2569,72072,32571,Pace,FL,Pensacola-Ferry Pass-Brent,Santa Rosa County,2570,177095.0,178314.0,179736.0,180886.0,182058.0,183231.0,184186.0,184976.0,185863.0,186554.0,187658.0,188346.0
2577,71859,32205,Jacksonville,FL,Jacksonville,Duval County,2578,129731.0,130724.0,131863.0,133332.0,134210.0,135403.0,136443.0,138038.0,139396.0,141267.0,143125.0,145192.0
2604,72079,32578,Niceville,FL,Crestview-Fort Walton Beach-Destin,Okaloosa County,2605,271981.0,273404.0,275270.0,277000.0,277640.0,279008.0,281113.0,282809.0,284051.0,283814.0,283898.0,285225.0
2612,72367,33029,Pembroke Pines,FL,Miami-Fort Lauderdale-West Palm Beach,Broward County,2613,403157.0,403736.0,404467.0,407152.0,408432.0,409632.0,410460.0,412277.0,414124.0,415515.0,416371.0,417699.0
2621,72443,33140,Miami Beach,FL,Miami-Fort Lauderdale-West Palm Beach,Miami-Dade County,2622,1693619.0,1699592.0,1696300.0,1698832.0,1691819.0,1690377.0,1685081.0,1686408.0,1683361.0,1685066.0,1677639.0,1680594.0
2623,72998,34104,Naples,FL,Naples-Immokalee-Marco Island,Collier County,2624,334031.0,332432.0,331426.0,331447.0,332268.0,332309.0,331362.0,331273.0,332569.0,333377.0,333442.0,333907.0
2646,71765,32065,Orange Park,FL,Jacksonville,Clay County,2647,190655.0,191996.0,193824.0,195497.0,197185.0,198470.0,199406.0,200166.0,201336.0,203200.0,205397.0,207804.0
2677,72805,33764,Clearwater,FL,Tampa-St. Petersburg-Clearwater,Pinellas County,2678,240037.0,239763.0,239890.0,241414.0,243400.0,245688.0,248243.0,251648.0,254376.0,256659.0,257067.0,257399.0
2681,72571,33404,Riviera Beach,FL,Miami-Fort Lauderdale-West Palm Beach,Palm Beach County,2682,129999.0,130658.0,131518.0,133648.0,135632.0,137881.0,139664.0,141565.0,143480.0,145279.0,146779.0,148134.0
2690,72053,32541,Destin,FL,Crestview-Fort Walton Beach-Destin,Okaloosa County,2691,366216.0,367886.0,370471.0,373191.0,374783.0,376946.0,379824.0,382106.0,383380.0,382312.0,381139.0,381868.0
2693,73171,34683,Palm Harbor,FL,Tampa-St. Petersburg-Clearwater,Pinellas County,2694,288659.0,289059.0,289880.0,291479.0,293241.0,295007.0,296982.0,300175.0,302975.0,305384.0,306267.0,306997.0
2695,73236,34957,Jensen Beach,FL,Port St. Lucie,Martin County,2696,261285.0,262457.0,263411.0,264999.0,266492.0,267970.0,269801.0,271540.0,272843.0,274079.0,275126.0,276327.0
2707,72722,33619,Palm River-Clair Mel,FL,Tampa-St. Petersburg-Clearwater,Hillsborough County,2708,108509.0,109184.0,110146.0,112794.0,115756.0,118821.0,121141.0,122706.0,124034.0,125910.0,128134.0,130429.0
2708,73085,34287,North Port,FL,North Port-Sarasota-Bradenton,Sarasota County,2709,155792.0,155833.0,155913.0,156479.0,157573.0,158909.0,160647.0,162208.0,163172.0,163400.0,163738.0,164221.0
2710,72776,33713,Saint Petersburg,FL,Tampa-St. Petersburg-Clearwater,Pinellas County,2711,150055.0,149444.0,149420.0,151452.0,153705.0,155985.0,158272.0,161224.0,163787.0,166420.0,168172.0,170018.0
2744,72949,33990,Cape Coral,FL,Cape Coral-Fort Myers,Lee County,2745,212266.0,212195.0,212768.0,213790.0,215628.0,216428.0,217429.0,217943.0,218585.0,218966.0,219296.0,219819.0
2747,72472,33169,Miami Gardens,FL,Miami-Fort Lauderdale-West Palm Beach,Miami-Dade County,2748,221119.0,222949.0,224872.0,226960.0,230422.0,233572.0,236141.0,238927.0,241252.0,244622.0,246086.0,248618.0
2756,72440,33137,Miami,FL,Miami-Fort Lauderdale-West Palm Beach,Miami-Dade County,2757,717365.0,721610.0,728648.0,732209.0,733220.0,735078.0,732373.0,733989.0,733450.0,733270.0,730025.0,729316.0
2759,71778,32086,Saint Augustine,FL,Jacksonville,Saint Johns County,2760,219644.0,220526.0,221774.0,223167.0,224589.0,225718.0,227405.0,228893.0,231041.0,233369.0,234699.0,235266.0
2760,72446,33143,Glenvar Heights,FL,Miami-Fort Lauderdale-West Palm Beach,Miami-Dade County,2761,786069.0,786939.0,786348.0,784322.0,785535.0,788021.0,790093.0,794123.0,795865.0,799345.0,798035.0,798773.0
2763,72327,32958,Sebastian,FL,Sebastian-Vero Beach,Indian River County,2764,192202.0,194900.0,197085.0,198110.0,199372.0,201202.0,202925.0,204310.0,205003.0,205654.0,206739.0,208511.0
2765,73172,34684,Palm Harbor,FL,Tampa-St. Petersburg-Clearwater,Pinellas County,2766,229256.0,229975.0,231261.0,232621.0,234109.0,235467.0,237327.0,239769.0,241814.0,243623.0,244355.0,245185.0
2775,72836,33813,Lakeland Highlands,FL,Lakeland-Winter Haven,Polk County,2776,205740.0,207048.0,209322.0,210586.0,211739.0,212566.0,213508.0,214698.0,216147.0,217791.0,219746.0,221710.0
2799,72772,33709,Kenneth City,FL,Tampa-St. Petersburg-Clearwater,Pinellas County,2800,145072.0,144507.0,144273.0,145828.0,147677.0,149706.0,151849.0,154443.0,156497.0,158634.0,160000.0,161591.0
2801,72465,33162,North Miami Beach,FL,Miami-Fort Lauderdale-West Palm Beach,Miami-Dade County,2802,239728.0,241767.0,244011.0,246900.0,250391.0,253347.0,255421.0,258131.0,260538.0,263378.0,264167.0,265902.0
2807,71833,32168,New Smyrna Beach,FL,Deltona-Daytona Beach-Ormond Beach,Volusia County,2808,207000.0,208650.0,210607.0,212965.0,214515.0,215821.0,216940.0,217724.0,219595.0,221636.0,223924.0,225345.0
2809,72552,33334,Oakland Park,FL,Miami-Fort Lauderdale-West Palm Beach,Broward County,2810,292350.0,293226.0,294050.0,296139.0,297258.0,298640.0,300415.0,303325.0,305874.0,307501.0,308885.0,310287.0
2818,72400,33071,Coral Springs,FL,Miami-Fort Lauderdale-West Palm Beach,Broward County,2819,381309.0,381358.0,381879.0,384532.0,385712.0,387074.0,388163.0,390393.0,392158.0,393720.0,394609.0,396260.0
2836,72768,33705,Saint Petersburg,FL,Tampa-St. Petersburg-Clearwater,Pinellas County,2837,142298.0,142305.0,143293.0,145607.0,148274.0,150707.0,152951.0,155472.0,157600.0,159830.0,161543.0,163034.0
2847,71912,32301,Tallahassee,FL,Tallahassee,Leon County,2848,120845.0,121593.0,122850.0,123630.0,124252.0,124303.0,124438.0,124689.0,125653.0,126794.0,127807.0,128826.0
2853,72826,33801,Lakeland,FL,Lakeland-Winter Haven,Polk County,2854,101056.0,102391.0,104185.0,105914.0,107235.0,108313.0,109564.0,111044.0,112720.0,114298.0,115901.0,117194.0
2862,73144,34608,Spring Hill,FL,Tampa-St. Petersburg-Clearwater,Hernando County,2863,130635.0,131721.0,133241.0,135010.0,136810.0,138384.0,140168.0,141767.0,142974.0,143838.0,144977.0,146515.0
2865,71865,32211,Jacksonville,FL,Jacksonville,Duval County,2866,105435.0,107698.0,110267.0,112463.0,114435.0,116216.0,118073.0,120282.0,122476.0,124428.0,126311.0,128479.0
2873,72839,33823,Auburndale,FL,Lakeland-Winter Haven,Polk County,2874,144126.0,145193.0,146934.0,148269.0,149294.0,150256.0,151282.0,152660.0,154070.0,155851.0,157647.0,159275.0
2875,72896,33903,North Fort Myers,FL,Cape Coral-Fort Myers,Lee County,2876,172750.0,173148.0,173935.0,174783.0,176241.0,176956.0,177843.0,178326.0,178855.0,179186.0,179810.0,180654.0
2878,73013,34134,Bonita Springs,FL,Cape Coral-Fort Myers,Lee County,2879,614555.0,612170.0,611515.0,612514.0,615371.0,615865.0,615868.0,615276.0,615061.0,614660.0,614092.0,613810.0
2905,72297,32909,Palm Bay,FL,Palm Bay-Melbourne-Titusville,Brevard County,2906,162228.0,163329.0,164508.0,166629.0,169073.0,171218.0,172886.0,174103.0,175187.0,176172.0,177854.0,179171.0
2915,72598,33432,Boca Raton,FL,Miami-Fort Lauderdale-West Palm Beach,Palm Beach County,2916,806115.0,811773.0,814570.0,815843.0,815439.0,817088.0,820623.0,825023.0,830030.0,833937.0,836799.0,837001.0
2916,72236,32810,Orlando,FL,Orlando-Kissimmee-Sanford,Orange County,2917,158360.0,160184.0,162113.0,164171.0,165781.0,168045.0,169705.0,171375.0,173317.0,175017.0,176374.0,177476.0
2917,72619,33460,Lake Worth,FL,Miami-Fort Lauderdale-West Palm Beach,Palm Beach County,2918,196198.0,198573.0,200366.0,202334.0,204123.0,206386.0,208205.0,210336.0,212547.0,215070.0,216803.0,218216.0
2920,72828,33803,Lakeland,FL,Lakeland-Winter Haven,Polk County,2921,152289.0,153415.0,155134.0,156273.0,157338.0,158375.0,159362.0,160649.0,162101.0,163257.0,164484.0,165552.0
2927,72398,33069,Pompano Beach,FL,Miami-Fort Lauderdale-West Palm Beach,Broward County,2928,163595.0,165082.0,165999.0,167481.0,168295.0,169982.0,171797.0,174026.0,176053.0,177458.0,178106.0,179095.0
2931,73250,34990,Palm City,FL,Port St. Lucie,Martin County,2932,363986.0,364946.0,366098.0,368437.0,370358.0,371322.0,372359.0,373798.0,375375.0,376943.0,377886.0,378493.0
2948,73207,34758,Poinciana,FL,Lakeland-Winter Haven,Polk County,2949,167621.0,168550.0,169616.0,170871.0,172990.0,174829.0,176092.0,176960.0,178372.0,180051.0,181721.0,183388.0
2963,71862,32208,Jacksonville,FL,Jacksonville,Duval County,2964,54493.0,56382.0,58270.0,59764.0,61064.0,62253.0,63597.0,65262.0,67105.0,68765.0,70111.0,71163.0
2981,71923,32312,Tallahassee,FL,Tallahassee,Leon County,2982,281415.0,282964.0,285759.0,287157.0,288241.0,288719.0,289539.0,291046.0,292810.0,294692.0,295686.0,296705.0
2982,72071,32570,Milton,FL,Pensacola-Ferry Pass-Brent,Santa Rosa County,2983,131652.0,132766.0,134093.0,135061.0,136166.0,137196.0,138344.0,139150.0,139976.0,140518.0,141583.0,142537.0
3001,73007,34114,Naples,FL,Naples-Immokalee-Marco Island,Collier County,3002,373359.0,370903.0,369386.0,369142.0,369687.0,369429.0,368744.0,368817.0,370409.0,371168.0,371090.0,370469.0
3025,73247,34986,Port Saint Lucie,FL,Port St. Lucie,Saint Lucie County,3026,242196.0,242825.0,243865.0,244285.0,244947.0,246096.0,247009.0,248350.0,249399.0,250783.0,252341.0,253403.0
3026,72848,33837,Davenport,FL,Lakeland-Winter Haven,Polk County,3027,193509.0,194443.0,196270.0,197226.0,197958.0,198240.0,198640.0,199528.0,200788.0,202676.0,204714.0,206493.0
3028,72563,33351,Sunrise,FL,Miami-Fort Lauderdale-West Palm Beach,Broward County,3029,252214.0,253347.0,254403.0,256710.0,257971.0,259550.0,260727.0,262903.0,264951.0,267095.0,268688.0,270407.0
3030,73154,34652,New Port Richey,FL,Tampa-St. Petersburg-Clearwater,Pasco County,3031,100547.0,101649.0,102542.0,103548.0,105145.0,106894.0,108307.0,109794.0,111170.0,112883.0,114269.0,115012.0
3043,72405,33076,Parkland,FL,Miami-Fort Lauderdale-West Palm Beach,Broward County,3044,505552.0,505640.0,505741.0,508432.0,509486.0,510534.0,510937.0,512828.0,515256.0,517710.0,518971.0,520290.0
3053,72536,33317,Plantation,FL,Miami-Fort Lauderdale-West Palm Beach,Broward County,3054,340072.0,341215.0,342537.0,345605.0,347276.0,348663.0,349923.0,351940.0,353657.0,354956.0,356230.0,358059.0
3063,72810,33770,Largo,FL,Tampa-St. Petersburg-Clearwater,Pinellas County,3064,199764.0,199572.0,200015.0,202042.0,204498.0,206818.0,208900.0,211697.0,214028.0,216146.0,217133.0,218008.0
3066,73175,34689,Tarpon Springs,FL,Tampa-St. Petersburg-Clearwater,Pinellas County,3067,227718.0,227731.0,228382.0,230078.0,231606.0,233168.0,235136.0,238198.0,240681.0,242779.0,243510.0,244478.0
3069,71773,32080,Saint Augustine,FL,Jacksonville,Saint Johns County,3070,367783.0,369271.0,371017.0,372566.0,373702.0,374551.0,375733.0,377110.0,379056.0,381668.0,383704.0,384617.0
3096,72906,33913,Fort Myers,FL,Cape Coral-Fort Myers,Lee County,3097,321216.0,320076.0,319668.0,319613.0,320884.0,320867.0,321430.0,320822.0,320335.0,319340.0,318739.0,318445.0
3141,73142,34606,Spring Hill,FL,Tampa-St. Petersburg-Clearwater,Hernando County,3142,121739.0,122686.0,123867.0,125496.0,127112.0,128753.0,130410.0,131958.0,133030.0,133885.0,134940.0,136583.0
3149,72102,32607,Gainesville,FL,Gainesville,Alachua County,3150,189659.0,192904.0,195059.0,195812.0,195345.0,195990.0,197570.0,200115.0,202715.0,205302.0,207381.0,207740.0
3151,72387,33055,Miami Gardens,FL,Miami-Fort Lauderdale-West Palm Beach,Miami-Dade County,3152,221865.0,224094.0,226439.0,228474.0,231768.0,234928.0,237900.0,240567.0,242847.0,246207.0,248148.0,251534.0
3161,71910,32277,Jacksonville,FL,Jacksonville,Duval County,3162,156331.0,157514.0,158988.0,160337.0,161514.0,162675.0,164124.0,166094.0,167862.0,169374.0,170884.0,172441.0
3163,72459,33156,Pinecrest,FL,Miami-Fort Lauderdale-West Palm Beach,Miami-Dade County,3164,1009626.0,1008070.0,1005785.0,1006350.0,1010846.0,1015841.0,1018625.0,1023906.0,1025547.0,1028738.0,1026125.0,1025853.0
3226,72700,33594,Valrico,FL,Tampa-St. Petersburg-Clearwater,Hillsborough County,3227,197609.0,198578.0,199537.0,201207.0,202979.0,204773.0,205812.0,206898.0,207842.0,208850.0,210310.0,211529.0
3227,72607,33441,Deerfield Beach,FL,Miami-Fort Lauderdale-West Palm Beach,Broward County,3228,263396.0,264513.0,265303.0,267896.0,269501.0,271134.0,272687.0,274833.0,277305.0,279043.0,280581.0,282017.0
3228,72168,32720,Deland,FL,Deltona-Daytona Beach-Ormond Beach,Volusia County,3229,160783.0,162251.0,163732.0,165824.0,167505.0,168991.0,170073.0,170901.0,172543.0,174721.0,176972.0,178717.0
3244,72441,33138,Miami,FL,Miami-Fort Lauderdale-West Palm Beach,Miami-Dade County,3245,563151.0,565738.0,567470.0,566428.0,567031.0,568123.0,569018.0,571007.0,571642.0,573785.0,573592.0,575662.0
3266,71920,32309,Tallahassee,FL,Tallahassee,Leon County,3267,246018.0,246998.0,249110.0,250235.0,251181.0,251345.0,251673.0,252663.0,254099.0,255823.0,256575.0,257346.0
3311,72545,33326,Weston,FL,Miami-Fort Lauderdale-West Palm Beach,Broward County,3312,397636.0,397340.0,397165.0,399398.0,400183.0,401311.0,401956.0,403792.0,405885.0,407659.0,408878.0,410419.0
3321,399577,33579,Riverview,FL,Tampa-St. Petersburg-Clearwater,Hillsborough County,3322,225499.0,226189.0,226899.0,228318.0,229745.0,231370.0,232146.0,233007.0,233694.0,234352.0,235524.0,236400.0
3329,73045,34223,Englewood,FL,Punta Gorda,Charlotte County,3330,254102.0,254000.0,253966.0,254786.0,256083.0,257685.0,259550.0,261313.0,261716.0,261862.0,262251.0,263396.0
3331,72314,32937,Satellite Beach,FL,Palm Bay-Melbourne-Titusville,Brevard County,3332,296482.0,298913.0,301040.0,304574.0,308530.0,312103.0,315217.0,317420.0,319693.0,320840.0,323257.0,324881.0
3339,73057,34238,Sarasota,FL,North Port-Sarasota-Bradenton,Sarasota County,3340,412778.0,411197.0,409490.0,408632.0,408861.0,409587.0,410707.0,411355.0,409885.0,407059.0,404754.0,403357.0
3352,72233,32807,Orlando,FL,Orlando-Kissimmee-Sanford,Orange County,3353,160725.0,163225.0,165668.0,167817.0,169641.0,171895.0,173944.0,175837.0,177835.0,179496.0,181510.0,183177.0
3353,72669,33542,Zephyrhills,FL,Tampa-St. Petersburg-Clearwater,Pasco County,3354,105356.0,106279.0,106734.0,107583.0,109109.0,111161.0,113091.0,114817.0,116139.0,117311.0,118458.0,118331.0
3357,72574,33407,West Palm Beach,FL,Miami-Fort Lauderdale-West Palm Beach,Palm Beach County,3358,159143.0,160843.0,162172.0,163732.0,165517.0,167861.0,170337.0,172483.0,174653.0,176653.0,178571.0,179872.0
3358,73197,34743,Kissimmee,FL,Orlando-Kissimmee-Sanford,Osceola County,3359,173874.0,174336.0,175277.0,176925.0,179791.0,182338.0,183865.0,184923.0,186685.0,188505.0,190256.0,191858.0
3380,72600,33434,Boca Raton,FL,Miami-Fort Lauderdale-West Palm Beach,Palm Beach County,3381,375163.0,377005.0,378155.0,378918.0,379387.0,379935.0,380905.0,382355.0,384831.0,386786.0,387663.0,387615.0
3421,72402,33073,Coconut Creek,FL,Miami-Fort Lauderdale-West Palm Beach,Broward County,3422,340981.0,341673.0,342525.0,344994.0,346199.0,347162.0,347903.0,349488.0,351383.0,353019.0,353990.0,355233.0
3423,72576,33409,West Palm Beach,FL,Miami-Fort Lauderdale-West Palm Beach,Palm Beach County,3424,191347.0,193522.0,195035.0,196666.0,197908.0,199551.0,201304.0,203491.0,206198.0,208633.0,210352.0,211486.0
3435,72900,33907,Fort Myers,FL,Cape Coral-Fort Myers,Lee County,3436,173440.0,173874.0,174546.0,175305.0,177038.0,177912.0,178758.0,179014.0,179174.0,179414.0,179424.0,179793.0
3436,72485,33183,Kendale Lakes,FL,Miami-Fort Lauderdale-West Palm Beach,Miami-Dade County,3437,320756.0,323332.0,324964.0,325481.0,326899.0,327985.0,329077.0,331206.0,333255.0,336034.0,336920.0,339429.0
3455,71796,32117,Holly Hill,FL,Deltona-Daytona Beach-Ormond Beach,Volusia County,3456,98854.0,100555.0,102411.0,104336.0,106012.0,107852.0,109291.0,110776.0,112940.0,115780.0,118573.0,120420.0
3456,72833,33809,Lakeland,FL,Lakeland-Winter Haven,Polk County,3457,165347.0,166469.0,168067.0,168952.0,169670.0,170304.0,170851.0,171867.0,173139.0,174820.0,176511.0,178030.0
3483,72729,33626,Westchase,FL,Tampa-St. Petersburg-Clearwater,Hillsborough County,3484,350390.0,351552.0,352071.0,354016.0,356038.0,358272.0,358783.0,359393.0,359493.0,360030.0,361007.0,361682.0
3503,72475,33173,Kendall,FL,Miami-Fort Lauderdale-West Palm Beach,Miami-Dade County,3504,347113.0,349517.0,351266.0,352183.0,353965.0,355454.0,356639.0,358381.0,359657.0,361851.0,362151.0,363863.0
3512,72293,32905,Palm Bay,FL,Palm Bay-Melbourne-Titusville,Brevard County,3513,124260.0,125347.0,126383.0,128497.0,131164.0,133667.0,135645.0,137005.0,138023.0,138813.0,140285.0,141838.0
3523,71976,32408,Panama City Beach,FL,Panama City,Bay County,3524,235995.0,236765.0,237214.0,237735.0,237905.0,238746.0,239889.0,241875.0,244111.0,244681.0,246352.0,248093.0
3538,72364,33026,Pembroke Pines,FL,Miami-Fort Lauderdale-West Palm Beach,Broward County,3539,301269.0,302314.0,303275.0,305597.0,306849.0,308102.0,309255.0,311409.0,313678.0,315619.0,316961.0,318469.0
3540,72205,32773,Sanford,FL,Orlando-Kissimmee-Sanford,Seminole County,3541,153622.0,155155.0,156810.0,159199.0,161533.0,163376.0,165007.0,166347.0,167627.0,168705.0,171075.0,174081.0
3549,72242,32817,Orlando,FL,Orlando-Kissimmee-Sanford,Orange County,3550,210482.0,211888.0,213450.0,215340.0,216977.0,219205.0,221107.0,223094.0,225312.0,227003.0,229188.0,231103.0
3556,72876,33870,Sebring,FL,Sebring,Highlands County,3557,95226.0,96649.0,97687.0,98885.0,99210.0,100049.0,101194.0,102448.0,103532.0,104703.0,105810.0,106268.0
3561,73118,34472,Ocala,FL,Ocala,Marion County,3562,111940.0,112837.0,114388.0,116254.0,117900.0,118885.0,119597.0,120750.0,122031.0,123450.0,124841.0,126172.0
3567,72194,32757,Mount Dora,FL,Orlando-Kissimmee-Sanford,Lake County,3568,205080.0,207242.0,209013.0,210986.0,212496.0,214593.0,216066.0,217136.0,218205.0,219035.0,220463.0,222064.0
3622,73127,34481,Ocala,FL,Ocala,Marion County,3623,139468.0,140325.0,141605.0,142999.0,144205.0,144856.0,145282.0,146133.0,147133.0,148074.0,149013.0,149805.0
3632,72289,32901,Melbourne,FL,Palm Bay-Melbourne-Titusville,Brevard County,3633,150822.0,152008.0,153287.0,155699.0,158590.0,161248.0,163031.0,164107.0,164998.0,165332.0,166783.0,167887.0
3653,72331,32962,Vero Beach,FL,Sebastian-Vero Beach,Indian River County,3654,144848.0,147027.0,148728.0,149633.0,150826.0,152628.0,154388.0,155777.0,156355.0,156831.0,157595.0,159082.0
3729,72045,32533,Cantonment,FL,Pensacola-Ferry Pass-Brent,Escambia County,3730,173410.0,174257.0,174858.0,174938.0,176132.0,177541.0,179182.0,179809.0,180549.0,181138.0,181907.0,182260.0
3742,72592,33426,Boynton Beach,FL,Miami-Fort Lauderdale-West Palm Beach,Palm Beach County,3743,208958.0,210306.0,211150.0,211987.0,212793.0,213646.0,214600.0,215908.0,217860.0,219677.0,220684.0,221173.0
3747,72721,33618,Greater Carrollwood,FL,Tampa-St. Petersburg-Clearwater,Hillsborough County,3748,282366.0,285354.0,286772.0,288968.0,291079.0,293242.0,293777.0,294560.0,294949.0,296035.0,297832.0,298840.0
3790,72902,33909,Cape Coral,FL,Cape Coral-Fort Myers,Lee County,3791,183434.0,183528.0,184135.0,185094.0,186877.0,187822.0,188995.0,189392.0,189849.0,189975.0,190598.0,191288.0
3791,72057,32548,Fort Walton Beach,FL,Crestview-Fort Walton Beach-Destin,Okaloosa County,3792,160397.0,161565.0,163302.0,164643.0,165497.0,166720.0,168731.0,170303.0,171746.0,172130.0,172686.0,174059.0
3805,72670,33543,Wesley Chapel,FL,Tampa-St. Petersburg-Clearwater,Pasco County,3806,229282.0,230169.0,230394.0,230562.0,231730.0,233620.0,235302.0,236350.0,236991.0,238040.0,238684.0,238531.0
3817,72812,33772,Seminole,FL,Tampa-St. Petersburg-Clearwater,Pinellas County,3818,220065.0,219420.0,219194.0,220594.0,222638.0,224897.0,226943.0,229639.0,231660.0,233553.0,234269.0,235266.0
3824,72232,32806,Orlando,FL,Orlando-Kissimmee-Sanford,Orange County,3825,256662.0,258764.0,260605.0,262290.0,263189.0,264894.0,266241.0,267506.0,269072.0,270744.0,272417.0,273551.0
3825,72027,32505,Pensacola,FL,Pensacola-Ferry Pass-Brent,Escambia County,3826,55200.0,55426.0,55796.0,56066.0,56345.0,56574.0,56664.0,56561.0,56951.0,57467.0,58542.0,59255.0
3828,73026,34202,Bradenton,FL,North Port-Sarasota-Bradenton,Manatee County,3829,432162.0,432891.0,433033.0,432667.0,432436.0,432692.0,432181.0,433389.0,433577.0,434541.0,433092.0,432011.0
3864,72821,33781,Pinellas Park,FL,Tampa-St. Petersburg-Clearwater,Pinellas County,3865,154077.0,154130.0,154308.0,155400.0,156791.0,158539.0,160196.0,162503.0,164183.0,166025.0,167152.0,168611.0
3878,72244,32819,Doctor Phillips,FL,Orlando-Kissimmee-Sanford,Orange County,3879,311382.0,313739.0,315821.0,317372.0,318187.0,320312.0,321396.0,322827.0,324458.0,325493.0,327019.0,328137.0
3893,71797,32118,Daytona Beach,FL,Deltona-Daytona Beach-Ormond Beach,Volusia County,3894,193942.0,195521.0,196852.0,198921.0,199946.0,201202.0,201568.0,202507.0,204839.0,207197.0,209378.0,210672.0
3916,71973,32405,Panama City,FL,Panama City,Bay County,3917,159515.0,160326.0,161270.0,162219.0,162887.0,163606.0,164498.0,166130.0,167803.0,167976.0,168922.0,170173.0
3943,73122,34476,Ocala,FL,Ocala,Marion County,3944,160730.0,161552.0,163188.0,165029.0,166683.0,167461.0,168010.0,168921.0,170025.0,171048.0,172149.0,173211.0
3949,72217,32789,Winter Park,FL,Orlando-Kissimmee-Sanford,Orange County,3950,462059.0,466417.0,471018.0,474128.0,475465.0,478328.0,479956.0,482016.0,484324.0,487054.0,489458.0,491590.0
3957,72523,33304,Fort Lauderdale,FL,Miami-Fort Lauderdale-West Palm Beach,Broward County,3958,459868.0,459598.0,458910.0,461294.0,461715.0,461939.0,461892.0,463439.0,465612.0,467308.0,468896.0,471255.0
3958,73117,34471,Ocala,FL,Ocala,Marion County,3959,168895.0,170099.0,171853.0,173743.0,175306.0,176264.0,176970.0,178449.0,179698.0,180756.0,181817.0,183060.0
3961,72668,33541,Zephyrhills,FL,Tampa-St. Petersburg-Clearwater,Pasco County,3962,166637.0,167157.0,167314.0,167781.0,169000.0,170871.0,172407.0,173553.0,174084.0,175232.0,176040.0,176188.0
3967,72210,32778,Tavares,FL,Orlando-Kissimmee-Sanford,Lake County,3968,169241.0,170939.0,172289.0,174016.0,175237.0,176841.0,177965.0,178587.0,179278.0,179737.0,181223.0,182643.0
3973,72246,32821,Williamsburg,FL,Orlando-Kissimmee-Sanford,Orange County,3974,201634.0,204061.0,206452.0,208486.0,209820.0,211604.0,212367.0,213417.0,214778.0,216046.0,217940.0,219565.0
3977,72764,33701,Saint Petersburg,FL,Tampa-St. Petersburg-Clearwater,Pinellas County,3978,310497.0,310914.0,311797.0,314804.0,317743.0,320973.0,323713.0,327909.0,331738.0,335891.0,338765.0,340441.0
3982,71798,32119,South Daytona,FL,Deltona-Daytona Beach-Ormond Beach,Volusia County,3983,153137.0,154443.0,155823.0,157837.0,159342.0,160843.0,161782.0,162691.0,164207.0,165936.0,167675.0,168958.0
4015,72211,32779,Longwood,FL,Orlando-Kissimmee-Sanford,Seminole County,4016,324821.0,326316.0,328485.0,331159.0,334019.0,335532.0,336431.0,337443.0,338312.0,339353.0,342572.0,347123.0
4017,72905,33912,Fort Myers,FL,Cape Coral-Fort Myers,Lee County,4018,356827.0,355616.0,355261.0,355516.0,357091.0,357175.0,357546.0,357176.0,356853.0,356043.0,354862.0,353977.0
4021,72256,32832,Orlando,FL,Orlando-Kissimmee-Sanford,Orange County,4022,299758.0,302276.0,304678.0,306406.0,307122.0,308751.0,310014.0,311276.0,312946.0,314015.0,315796.0,317203.0
4040,71808,32129,Port Orange,FL,Deltona-Daytona Beach-Ormond Beach,Volusia County,4041,164721.0,166189.0,167670.0,169457.0,170619.0,171951.0,173024.0,173989.0,175673.0,177260.0,178922.0,179790.0
4043,72766,33703,Saint Petersburg,FL,Tampa-St. Petersburg-Clearwater,Pinellas County,4044,238567.0,238724.0,239520.0,241094.0,242659.0,244222.0,245815.0,248587.0,250713.0,252806.0,254126.0,255725.0
4059,72710,33607,Tampa,FL,Tampa-St. Petersburg-Clearwater,Hillsborough County,4060,160704.0,161965.0,163466.0,166315.0,169515.0,172499.0,174067.0,175214.0,175784.0,176329.0,177400.0,179393.0
4064,72775,33712,Saint Petersburg,FL,Tampa-St. Petersburg-Clearwater,Pinellas County,4065,123556.0,124161.0,125755.0,128282.0,131243.0,133389.0,135244.0,137449.0,139239.0,141108.0,142564.0,144455.0
4075,73075,34275,Nokomis,FL,North Port-Sarasota-Bradenton,Sarasota County,4076,339179.0,337800.0,336497.0,336425.0,336997.0,338017.0,339227.0,340194.0,339468.0,338686.0,338240.0,338494.0
4076,73201,34747,Citrus Ridge,FL,Orlando-Kissimmee-Sanford,Osceola County,4077,297730.0,296632.0,295966.0,295844.0,297003.0,297719.0,297558.0,297011.0,297438.0,297979.0,298707.0,299805.0
4094,72357,33019,Hollywood,FL,Miami-Fort Lauderdale-West Palm Beach,Broward County,4095,538295.0,537606.0,536402.0,538768.0,539640.0,540456.0,539777.0,539413.0,540435.0,541501.0,542467.0,543608.0
4097,72642,33487,Boca Raton,FL,Miami-Fort Lauderdale-West Palm Beach,Palm Beach County,4098,440872.0,443213.0,444399.0,445035.0,444990.0,445613.0,447024.0,449157.0,452104.0,454804.0,456271.0,456783.0
4118,72652,33510,Brandon,FL,Tampa-St. Petersburg-Clearwater,Hillsborough County,4119,179670.0,180977.0,182191.0,184057.0,186039.0,188018.0,189185.0,190481.0,191443.0,192452.0,193733.0,194923.0
4127,71886,32233,Atlantic Beach,FL,Jacksonville,Duval County,4128,256460.0,259558.0,263607.0,265809.0,267563.0,269158.0,271146.0,273574.0,275891.0,279136.0,282980.0,286988.0
4140,72686,33570,Ruskin,FL,Tampa-St. Petersburg-Clearwater,Hillsborough County,4141,188945.0,190021.0,190859.0,192160.0,193436.0,194727.0,195318.0,196026.0,196582.0,197125.0,198047.0,198759.0
4144,72862,33852,Lake Placid,FL,Sebring,Highlands County,4145,135270.0,136346.0,136928.0,137829.0,138099.0,138699.0,139669.0,140673.0,141780.0,143181.0,144480.0,144845.0
4163,71874,32221,Jacksonville,FL,Jacksonville,Duval County,4164,158023.0,159958.0,161784.0,162629.0,162719.0,163105.0,163820.0,165266.0,166632.0,168130.0,169990.0,171854.0
4180,72388,33056,Miami Gardens,FL,Miami-Fort Lauderdale-West Palm Beach,Miami-Dade County,4181,206495.0,209254.0,211333.0,212922.0,215646.0,218921.0,221620.0,224280.0,226417.0,229390.0,231271.0,233742.0
4182,72796,33755,Clearwater,FL,Tampa-St. Petersburg-Clearwater,Pinellas County,4183,170740.0,170679.0,171248.0,173341.0,175570.0,177660.0,179735.0,182420.0,184390.0,186568.0,187769.0,188964.0
4189,72448,33145,Miami,FL,Miami-Fort Lauderdale-West Palm Beach,Miami-Dade County,4190,432396.0,431601.0,431411.0,431097.0,431730.0,431800.0,432662.0,434751.0,435954.0,438184.0,437452.0,438373.0
4200,72616,33455,Hobe Sound,FL,Port St. Lucie,Martin County,4201,311085.0,311600.0,311916.0,313343.0,314960.0,316233.0,317616.0,319226.0,320946.0,322306.0,323410.0,323663.0
4233,72575,33408,North Palm Beach,FL,Miami-Fort Lauderdale-West Palm Beach,Palm Beach County,4234,465009.0,467189.0,468813.0,470834.0,472845.0,474806.0,476782.0,479835.0,484235.0,488253.0,491044.0,492427.0
4249,73177,34691,Holiday,FL,Tampa-St. Petersburg-Clearwater,Pasco County,4250,92350.0,93082.0,93624.0,94313.0,95284.0,96755.0,97979.0,99534.0,101098.0,103217.0,105126.0,106497.0
4268,72645,33496,Boca Raton,FL,Miami-Fort Lauderdale-West Palm Beach,Palm Beach County,4269,474114.0,475060.0,475149.0,475736.0,476142.0,476453.0,476680.0,477533.0,479339.0,480706.0,480715.0,480037.0
4272,72335,32966,Vero Beach,FL,Sebastian-Vero Beach,Indian River County,4273,202463.0,204576.0,206362.0,207199.0,208170.0,209496.0,211037.0,212053.0,212543.0,212718.0,213488.0,215098.0
4273,72051,32539,Crestview,FL,Crestview-Fort Walton Beach-Destin,Okaloosa County,4274,140439.0,141515.0,142774.0,144463.0,145644.0,147207.0,148998.0,150359.0,151175.0,150967.0,150806.0,151589.0
4286,72332,32963,Vero Beach,FL,Sebastian-Vero Beach,Indian River County,4287,720240.0,723516.0,726008.0,726222.0,726310.0,728781.0,732367.0,735219.0,735622.0,736486.0,739298.0,744054.0
4288,72064,32563,Gulf Breeze,FL,Pensacola-Ferry Pass-Brent,Santa Rosa County,4289,221793.0,223665.0,225687.0,227335.0,229069.0,230870.0,232322.0,233491.0,234764.0,236003.0,237800.0,239256.0
4320,73243,34982,Fort Pierce,FL,Port St. Lucie,Saint Lucie County,4321,138494.0,139781.0,140993.0,141949.0,143148.0,144827.0,146514.0,148281.0,149496.0,151267.0,153216.0,154739.0
4339,73008,34116,Naples,FL,Naples-Immokalee-Marco Island,Collier County,4340,251119.0,251497.0,252286.0,253516.0,255040.0,256425.0,256817.0,258192.0,260292.0,262212.0,262586.0,262775.0
4340,73240,34974,Okeechobee,FL,Okeechobee,Okeechobee County,4341,134840.0,135547.0,136265.0,136965.0,137665.0,138321.0,139055.0,139791.0,140628.0,141432.0,142019.0,142650.0
4341,71919,32308,Tallahassee,FL,Tallahassee,Leon County,4342,205553.0,206561.0,208363.0,209346.0,209963.0,210183.0,210325.0,210897.0,211983.0,213300.0,213941.0,214685.0
4342,71730,32003,Fleming Island,FL,Jacksonville,Clay County,4343,256962.0,259106.0,261298.0,263885.0,266054.0,268219.0,269386.0,270357.0,271433.0,272681.0,274309.0,276009.0
4352,72152,32701,Altamonte Springs,FL,Orlando-Kissimmee-Sanford,Seminole County,4353,200892.0,202138.0,203735.0,206259.0,208843.0,211428.0,214078.0,216594.0,218486.0,220022.0,223293.0,227384.0
4357,72728,33625,Citrus Park,FL,Tampa-St. Petersburg-Clearwater,Hillsborough County,4358,217546.0,219098.0,220203.0,222293.0,224577.0,227004.0,228245.0,229429.0,230367.0,231755.0,233405.0,234695.0
4358,72730,33629,Tampa,FL,Tampa-St. Petersburg-Clearwater,Hillsborough County,4359,564181.0,565586.0,566697.0,570010.0,573290.0,577077.0,578720.0,580711.0,581439.0,583027.0,585875.0,588433.0
4380,73153,34639,Land O Lakes,FL,Tampa-St. Petersburg-Clearwater,Pasco County,4381,233929.0,234678.0,235130.0,235678.0,237141.0,239079.0,240972.0,242311.0,243322.0,244701.0,245529.0,245800.0
4382,72951,33993,Cape Coral,FL,Cape Coral-Fort Myers,Lee County,4383,203139.0,203198.0,203988.0,205148.0,206966.0,207659.0,208668.0,209089.0,209657.0,209909.0,210484.0,211117.0
4384,399582,33967,Fort Myers,FL,Cape Coral-Fort Myers,Lee County,4385,226137.0,225765.0,226392.0,227613.0,229983.0,231133.0,232442.0,232904.0,233148.0,233049.0,233144.0,233720.0
4390,72336,32967,Vero Beach,FL,Sebastian-Vero Beach,Indian River County,4391,213785.0,216246.0,218035.0,218668.0,219722.0,221372.0,223111.0,224237.0,224767.0,225175.0,226128.0,227277.0
4405,72533,33314,Davie,FL,Miami-Fort Lauderdale-West Palm Beach,Broward County,4406,235992.0,237652.0,238987.0,241120.0,242329.0,243429.0,244572.0,246559.0,248694.0,250557.0,252331.0,254295.0
4440,72843,33830,Bartow,FL,Lakeland-Winter Haven,Polk County,4441,116869.0,118266.0,120299.0,121990.0,123342.0,124311.0,125455.0,127014.0,128703.0,130544.0,132337.0,134125.0
4446,72676,33556,Odessa,FL,Tampa-St. Petersburg-Clearwater,Hillsborough County,4447,376951.0,378425.0,379442.0,380944.0,383000.0,385247.0,386384.0,387384.0,388030.0,389199.0,390623.0,391813.0
4450,72679,33563,Plant City,FL,Tampa-St. Petersburg-Clearwater,Hillsborough County,4451,133928.0,135174.0,136488.0,138892.0,141052.0,143453.0,145035.0,146430.0,147453.0,148367.0,149389.0,150246.0
4465,72308,32927,Cocoa,FL,Palm Bay-Melbourne-Titusville,Brevard County,4466,157654.0,159591.0,161324.0,163331.0,165627.0,167785.0,169419.0,170252.0,170985.0,172126.0,174403.0,176308.0
4482,72229,32803,Orlando,FL,Orlando-Kissimmee-Sanford,Orange County,4483,275791.0,277989.0,280447.0,282662.0,284609.0,287514.0,289368.0,290904.0,291987.0,293001.0,294160.0,294947.0
4485,71876,32223,Jacksonville,FL,Jacksonville,Duval County,4486,247728.0,250722.0,253906.0,254893.0,255073.0,255042.0,255937.0,257360.0,258787.0,260509.0,262456.0,264515.0
4505,72100,32605,Gainesville,FL,Gainesville,Alachua County,4506,179444.0,182585.0,184489.0,185188.0,184612.0,185173.0,186358.0,188469.0,190704.0,192804.0,194523.0,194668.0
4509,73041,34219,Parrish,FL,North Port-Sarasota-Bradenton,Manatee County,4510,283567.0,285180.0,286391.0,287261.0,288096.0,289086.0,289321.0,290537.0,290918.0,292173.0,291886.0,292244.0
4514,72544,33325,Davie,FL,Miami-Fort Lauderdale-West Palm Beach,Broward County,4515,373963.0,374097.0,374401.0,377103.0,378474.0,379566.0,380150.0,381709.0,383331.0,384705.0,385463.0,386752.0
4515,72101,32606,Gainesville,FL,Gainesville,Alachua County,4516,215746.0,219131.0,221253.0,221446.0,220333.0,220788.0,222501.0,225402.0,228095.0,230480.0,232299.0,232354.0
4532,72520,33301,Fort Lauderdale,FL,Miami-Fort Lauderdale-West Palm Beach,Broward County,4533,1067899.0,1066236.0,1064694.0,1072075.0,1074137.0,1076360.0,1075770.0,1079346.0,1083514.0,1087365.0,1091446.0,1096440.0
4537,71749,32043,Green Cove Springs,FL,Jacksonville,Clay County,4538,183506.0,185406.0,187878.0,190128.0,192137.0,193809.0,195106.0,196502.0,197730.0,199480.0,201299.0,203457.0
4541,73166,34677,Oldsmar,FL,Tampa-St. Petersburg-Clearwater,Pinellas County,4542,272083.0,271851.0,272189.0,273594.0,275314.0,276963.0,278637.0,281470.0,283845.0,286211.0,286935.0,287903.0
4568,72368,33030,Homestead,FL,Miami-Fort Lauderdale-West Palm Beach,Miami-Dade County,4569,209292.0,210574.0,211791.0,213463.0,215957.0,218243.0,219918.0,221981.0,223677.0,226372.0,227609.0,229910.0
4572,72059,32550,Miramar Beach,FL,Crestview-Fort Walton Beach-Destin,Walton County,4573,464157.0,465677.0,467793.0,470958.0,473037.0,475566.0,478399.0,482021.0,484133.0,486928.0,489892.0,492745.0
4584,72227,32801,Orlando,FL,Orlando-Kissimmee-Sanford,Orange County,4585,311372.0,312299.0,313473.0,315018.0,316212.0,317968.0,319538.0,320939.0,322968.0,324401.0,325922.0,326615.0
4588,72322,32953,Merritt Island,FL,Palm Bay-Melbourne-Titusville,Brevard County,4589,260952.0,263029.0,265079.0,268181.0,271691.0,274727.0,277201.0,278932.0,280660.0,281829.0,284091.0,285640.0
4594,72769,33706,Saint Pete Beach,FL,Tampa-St. Petersburg-Clearwater,Pinellas County,4595,538250.0,538165.0,538093.0,540217.0,542181.0,545624.0,549204.0,554303.0,558225.0,562462.0,564592.0,566923.0
4595,72840,33825,Avon Park,FL,Sebring,Highlands County,4596,93498.0,94388.0,94668.0,95526.0,95536.0,96224.0,97194.0,98325.0,99331.0,100582.0,101907.0,102678.0
4603,73212,34769,Saint Cloud,FL,Orlando-Kissimmee-Sanford,Osceola County,4604,160203.0,160527.0,161216.0,162791.0,165359.0,167613.0,169161.0,170144.0,171789.0,173884.0,175447.0,176885.0
4604,71834,32169,New Smyrna Beach,FL,Deltona-Daytona Beach-Ormond Beach,Volusia County,4605,357721.0,360504.0,364007.0,367513.0,369849.0,371527.0,373113.0,374687.0,378076.0,381236.0,384410.0,385992.0
4610,72329,32960,Vero Beach,FL,Sebastian-Vero Beach,Indian River County,4611,159910.0,162411.0,164659.0,166084.0,167546.0,169102.0,170579.0,171737.0,172537.0,173053.0,173365.0,174287.0
4624,72476,33174,Fountainbleau,FL,Miami-Fort Lauderdale-West Palm Beach,Miami-Dade County,4625,331062.0,333968.0,336494.0,338055.0,340450.0,342436.0,343699.0,344817.0,345331.0,346777.0,346797.0,348300.0
4651,72804,33763,Clearwater,FL,Tampa-St. Petersburg-Clearwater,Pinellas County,4652,182353.0,182505.0,183239.0,184788.0,186641.0,188620.0,190817.0,193806.0,196310.0,198670.0,200017.0,201652.0
4663,72048,32536,Crestview,FL,Crestview-Fort Walton Beach-Destin,Okaloosa County,4664,164429.0,165430.0,166687.0,168385.0,169428.0,170685.0,171969.0,172975.0,173737.0,173763.0,173915.0,174845.0
4682,72547,33328,Davie,FL,Miami-Fort Lauderdale-West Palm Beach,Broward County,4683,374096.0,374779.0,375205.0,377829.0,379054.0,380580.0,381404.0,383325.0,385012.0,386458.0,386998.0,387920.0
4685,72771,33708,Madeira Beach,FL,Tampa-St. Petersburg-Clearwater,Pinellas County,4686,360284.0,360298.0,360615.0,362271.0,364136.0,366287.0,368441.0,371556.0,374459.0,377402.0,378947.0,380670.0
4687,72894,33901,Fort Myers,FL,Cape Coral-Fort Myers,Lee County,4688,179544.0,179800.0,180264.0,180951.0,182413.0,182909.0,183768.0,184075.0,184602.0,184858.0,185012.0,185854.0
4690,72999,34105,Naples,FL,Naples-Immokalee-Marco Island,Collier County,4691,540446.0,537863.0,536302.0,535776.0,535745.0,535893.0,534885.0,535103.0,536653.0,537204.0,534032.0,531187.0
4692,72026,32504,Pensacola,FL,Pensacola-Ferry Pass-Brent,Escambia County,4693,153403.0,153918.0,154524.0,154603.0,155361.0,156245.0,157445.0,158418.0,159335.0,159824.0,160213.0,160711.0
4697,73046,34224,Englewood,FL,Punta Gorda,Charlotte County,4698,179005.0,180243.0,181458.0,182960.0,184143.0,185232.0,186758.0,188075.0,188897.0,189625.0,190879.0,192064.0
4699,71840,32177,Palatka,FL,Palatka,Putnam County,4700,85014.0,85675.0,86746.0,87832.0,89371.0,90713.0,92569.0,94054.0,95322.0,96005.0,96960.0,97934.0
4707,72950,33991,Cape Coral,FL,Cape Coral-Fort Myers,Lee County,4708,230373.0,230015.0,230550.0,231335.0,233078.0,233636.0,234551.0,234887.0,235329.0,235575.0,235896.0,236496.0
4719,399578,33596,Valrico,FL,Tampa-St. Petersburg-Clearwater,Hillsborough County,4720,264128.0,265057.0,265454.0,267114.0,268812.0,270704.0,271306.0,272077.0,272782.0,273587.0,275192.0,276312.0
4742,73215,34772,Saint Cloud,FL,Orlando-Kissimmee-Sanford,Osceola County,4743,220607.0,220871.0,221587.0,223007.0,225666.0,227864.0,228985.0,229603.0,231054.0,232704.0,234280.0,236165.0
4799,71936,32327,Crawfordville,FL,Tallahassee,Wakulla County,4800,163530.0,164776.0,166004.0,167011.0,167904.0,168899.0,169922.0,171026.0,172090.0,173085.0,174052.0,174919.0
4857,72395,33066,Coconut Creek,FL,Miami-Fort Lauderdale-West Palm Beach,Broward County,4858,244440.0,245283.0,245897.0,247834.0,249054.0,250921.0,252585.0,254510.0,256299.0,257865.0,259696.0,261386.0
4858,72923,33936,Lehigh Acres,FL,Cape Coral-Fort Myers,Lee County,4859,123307.0,123962.0,124999.0,126106.0,127887.0,129019.0,130403.0,131221.0,132080.0,132718.0,133638.0,134679.0
4870,72677,33558,Lutz,FL,Tampa-St. Petersburg-Clearwater,Hillsborough County,4871,333995.0,334937.0,335482.0,336878.0,338470.0,340581.0,341580.0,342688.0,343032.0,343702.0,344699.0,345292.0
4876,73034,34210,Bradenton,FL,North Port-Sarasota-Bradenton,Manatee County,4877,261140.0,263089.0,264651.0,265880.0,266729.0,268035.0,268242.0,269660.0,269690.0,270857.0,270291.0,270179.0
4885,73137,34601,Brooksville,FL,Tampa-St. Petersburg-Clearwater,Hernando County,4886,124077.0,124785.0,125293.0,125943.0,126914.0,127966.0,129759.0,131561.0,133517.0,134831.0,135989.0,137057.0
4890,73152,34638,Land O Lakes,FL,Tampa-St. Petersburg-Clearwater,Pasco County,4891,242549.0,243424.0,243883.0,244277.0,245647.0,247534.0,249318.0,250624.0,251479.0,252655.0,253226.0,252927.0
4899,72084,32583,Milton,FL,Pensacola-Ferry Pass-Brent,Santa Rosa County,4900,141383.0,142615.0,143957.0,144885.0,145977.0,147040.0,148151.0,149181.0,150190.0,150989.0,151926.0,152833.0
4900,72909,33916,Fort Myers,FL,Cape Coral-Fort Myers,Lee County,4901,98543.0,100155.0,101453.0,103156.0,104591.0,105237.0,106390.0,107724.0,109155.0,110097.0,111470.0,112300.0
4913,72386,33054,Miami Gardens,FL,Miami-Fort Lauderdale-West Palm Beach,Miami-Dade County,4914,177618.0,180876.0,183264.0,185584.0,187755.0,190417.0,192821.0,195935.0,198377.0,201835.0,204480.0,207513.0
4931,73156,34654,New Port Richey,FL,Tampa-St. Petersburg-Clearwater,Pasco County,4932,182310.0,182960.0,183319.0,184125.0,185754.0,187792.0,189426.0,190791.0,191737.0,193201.0,194150.0,194044.0
4940,72830,33805,Lakeland,FL,Lakeland-Winter Haven,Polk County,4941,96111.0,97171.0,98990.0,100808.0,102275.0,103459.0,105064.0,106971.0,109084.0,111089.0,113412.0,114841.0
4951,72779,33716,Saint Petersburg,FL,Tampa-St. Petersburg-Clearwater,Pinellas County,4952,270458.0,270538.0,271052.0,271313.0,271672.0,272267.0,273553.0,276129.0,278421.0,280674.0,281087.0,281590.0
4955,72694,33584,Seffner,FL,Tampa-St. Petersburg-Clearwater,Hillsborough County,4956,177237.0,178352.0,179426.0,181132.0,182981.0,185038.0,186412.0,187826.0,188716.0,189598.0,190766.0,191962.0
4988,72672,33547,Riverview,FL,Tampa-St. Petersburg-Clearwater,Hillsborough County,4989,305265.0,305925.0,306323.0,308168.0,310243.0,312124.0,312353.0,312886.0,313425.0,314240.0,315560.0,316558.0
5009,72822,33782,Pinellas Park,FL,Tampa-St. Petersburg-Clearwater,Pinellas County,5010,154450.0,153974.0,153555.0,154955.0,156506.0,158371.0,160030.0,162511.0,164590.0,166853.0,168450.0,170183.0
5023,72705,33602,Tampa,FL,Tampa-St. Petersburg-Clearwater,Hillsborough County,5024,276763.0,278640.0,281025.0,283785.0,286747.0,289311.0,290732.0,292218.0,293716.0,295322.0,297528.0,299237.0
5038,72629,33470,Loxahatchee Groves,FL,Miami-Fort Lauderdale-West Palm Beach,Palm Beach County,5039,332707.0,335434.0,336977.0,338617.0,340020.0,341780.0,343581.0,345945.0,348920.0,351552.0,352958.0,353491.0
5065,72610,33444,Delray Beach,FL,Miami-Fort Lauderdale-West Palm Beach,Palm Beach County,5066,285375.0,286877.0,287736.0,289096.0,290543.0,292154.0,293776.0,295295.0,297829.0,300175.0,302132.0,303168.0
5066,72671,33544,Wesley Chapel,FL,Tampa-St. Petersburg-Clearwater,Pasco County,5067,256868.0,258047.0,258391.0,258665.0,260019.0,262068.0,263885.0,265188.0,266073.0,267632.0,268459.0,267859.0
5068,73036,34212,Bradenton,FL,North Port-Sarasota-Bradenton,Manatee County,5069,350477.0,352218.0,353425.0,354342.0,354951.0,355765.0,355684.0,356950.0,357214.0,358498.0,358131.0,358528.0
5077,71981,32413,Panama City Beach,FL,Panama City,Bay County,5078,243878.0,245386.0,246366.0,247121.0,247439.0,248300.0,249452.0,251680.0,254471.0,255798.0,258258.0,260385.0
5106,73148,34613,North Weeki Wachee,FL,Tampa-St. Petersburg-Clearwater,Hernando County,5107,148427.0,149389.0,150344.0,151461.0,152616.0,154030.0,155878.0,157437.0,158589.0,159333.0,160347.0,161817.0
5119,72396,33067,Coral Springs,FL,Miami-Fort Lauderdale-West Palm Beach,Broward County,5120,448655.0,448727.0,449028.0,451408.0,452119.0,452701.0,453155.0,455537.0,458464.0,461084.0,462492.0,464161.0
5154,72188,32750,Longwood,FL,Orlando-Kissimmee-Sanford,Seminole County,5155,221208.0,222992.0,225268.0,227829.0,230244.0,231835.0,233187.0,234538.0,235957.0,237152.0,239851.0,243331.0
5156,72997,34103,Naples,FL,Naples-Immokalee-Marco Island,Collier County,5157,778862.0,772800.0,767402.0,765396.0,765915.0,765911.0,764868.0,765025.0,768104.0,769489.0,771168.0,772547.0
5168,72685,33569,Riverview,FL,Tampa-St. Petersburg-Clearwater,Hillsborough County,5169,223146.0,224138.0,225159.0,226844.0,228718.0,230547.0,231412.0,232405.0,233243.0,234019.0,235230.0,236084.0
5176,72197,32763,Orange City,FL,Deltona-Daytona Beach-Ormond Beach,Volusia County,5177,132370.0,134304.0,136430.0,139081.0,141258.0,143215.0,144981.0,146609.0,148976.0,151373.0,153642.0,155195.0
5178,72430,33127,Miami,FL,Miami-Fort Lauderdale-West Palm Beach,Miami-Dade County,5179,205824.0,208405.0,210607.0,212416.0,215157.0,216701.0,218393.0,221044.0,223605.0,226976.0,227765.0,229344.0
5185,72453,33150,Miami,FL,Miami-Fort Lauderdale-West Palm Beach,Miami-Dade County,5186,186373.0,189267.0,191408.0,193653.0,197215.0,200652.0,203754.0,205719.0,207356.0,209718.0,211879.0,215057.0
5211,72636,33480,Palm Beach,FL,Miami-Fort Lauderdale-West Palm Beach,Palm Beach County,5212,4136864.0,4161990.0,4178703.0,4188945.0,4199272.0,4210332.0,4220909.0,4243238.0,4279835.0,4320395.0,4336823.0,4342854.0
5234,73088,34292,Venice,FL,North Port-Sarasota-Bradenton,Sarasota County,5235,337163.0,335721.0,334417.0,333936.0,334201.0,334741.0,335830.0,336575.0,335707.0,334344.0,333396.0,333268.0
5255,72892,33897,Davenport,FL,Lakeland-Winter Haven,Polk County,5256,189134.0,190095.0,191756.0,192643.0,193396.0,193901.0,194297.0,195275.0,196495.0,198225.0,199938.0,201639.0
5256,72235,32809,Pine Castle,FL,Orlando-Kissimmee-Sanford,Orange County,5257,160889.0,162803.0,165099.0,167413.0,169390.0,171657.0,173643.0,175742.0,178220.0,180195.0,182464.0,184556.0
5304,72189,32751,Maitland,FL,Orlando-Kissimmee-Sanford,Orange County,5305,316436.0,318471.0,320811.0,323244.0,325508.0,328074.0,329713.0,331349.0,332983.0,334033.0,335774.0,337868.0
5310,72307,32926,Cocoa,FL,Palm Bay-Melbourne-Titusville,Brevard County,5311,174405.0,176112.0,177709.0,180466.0,183648.0,187173.0,189811.0,191616.0,192618.0,193346.0,195284.0,196972.0
5325,72709,33606,Tampa,FL,Tampa-St. Petersburg-Clearwater,Hillsborough County,5326,600732.0,603324.0,605119.0,609746.0,613657.0,618658.0,619726.0,621673.0,622278.0,625661.0,630493.0,635174.0
5328,73222,34788,Leesburg,FL,Orlando-Kissimmee-Sanford,Lake County,5329,143180.0,144665.0,145777.0,147139.0,148222.0,149772.0,150844.0,151378.0,151893.0,152434.0,153739.0,155381.0
5332,72309,32931,Cocoa Beach,FL,Palm Bay-Melbourne-Titusville,Brevard County,5333,385378.0,387504.0,389076.0,393178.0,397977.0,402086.0,404079.0,404768.0,405776.0,407422.0,411169.0,413996.0
5334,72688,33572,Apollo Beach,FL,Tampa-St. Petersburg-Clearwater,Hillsborough County,5335,276653.0,277549.0,278155.0,279779.0,281482.0,283243.0,283755.0,284407.0,284544.0,285104.0,286075.0,286722.0
5344,71969,32401,Panama City,FL,Panama City,Bay County,5345,106575.0,106883.0,107139.0,107711.0,108069.0,108301.0,108677.0,109797.0,111186.0,110988.0,111452.0,112668.0
5350,72835,33811,Lakeland,FL,Lakeland-Winter Haven,Polk County,5351,177692.0,178724.0,180363.0,181253.0,182099.0,182672.0,183244.0,184103.0,185306.0,186754.0,188357.0,189651.0
5351,71922,32311,Tallahassee,FL,Tallahassee,Leon County,5352,191691.0,192460.0,194375.0,195359.0,196126.0,196137.0,196401.0,197078.0,198243.0,199692.0,200287.0,201027.0
5361,72457,33154,Bal Harbour,FL,Miami-Fort Lauderdale-West Palm Beach,Miami-Dade County,5362,916561.0,912834.0,908960.0,906996.0,907190.0,907352.0,907926.0,909206.0,909967.0,914639.0,911636.0,910478.0
5366,72447,33144,Miami,FL,Miami-Fort Lauderdale-West Palm Beach,Miami-Dade County,5367,324790.0,327177.0,330335.0,332461.0,335981.0,338195.0,340408.0,342565.0,343956.0,346395.0,347122.0,349363.0
5383,72351,33013,Hialeah,FL,Miami-Fort Lauderdale-West Palm Beach,Miami-Dade County,5384,270886.0,273293.0,275572.0,277304.0,280639.0,283344.0,285729.0,288793.0,291673.0,295832.0,297748.0,300667.0
5388,71807,32128,Port Orange,FL,Deltona-Daytona Beach-Ormond Beach,Volusia County,5389,271237.0,273325.0,275620.0,278245.0,279868.0,281359.0,282345.0,283048.0,284974.0,286959.0,289083.0,290460.0
5402,73053,34234,Sarasota,FL,North Port-Sarasota-Bradenton,Sarasota County,5403,151754.0,152525.0,153226.0,154061.0,155111.0,156650.0,158456.0,160202.0,161388.0,161444.0,161850.0,162000.0
5413,73116,34470,Ocala,FL,Ocala,Marion County,5414,110866.0,111902.0,113529.0,115311.0,116772.0,117534.0,118217.0,119285.0,120391.0,121563.0,122777.0,123866.0
5431,72435,33132,Miami,FL,Miami-Fort Lauderdale-West Palm Beach,Miami-Dade County,5432,455153.0,455500.0,454561.0,454247.0,453486.0,452523.0,449420.0,448426.0,446976.0,446951.0,442252.0,441071.0
5436,72469,33166,Miami Springs,FL,Miami-Fort Lauderdale-West Palm Beach,Miami-Dade County,5437,376759.0,377614.0,378323.0,379530.0,382533.0,384486.0,386165.0,387746.0,389188.0,391737.0,392082.0,393045.0
5445,72573,33406,Lake Clarke Shores,FL,Miami-Fort Lauderdale-West Palm Beach,Palm Beach County,5446,217552.0,219765.0,221685.0,223578.0,225273.0,226946.0,228571.0,230701.0,233177.0,235601.0,236838.0,237835.0
5463,72814,33774,Largo,FL,Tampa-St. Petersburg-Clearwater,Pinellas County,5464,235877.0,235611.0,235763.0,237300.0,239249.0,241319.0,243833.0,247051.0,249689.0,252104.0,253243.0,254597.0
5471,72634,33477,Jupiter,FL,Miami-Fort Lauderdale-West Palm Beach,Palm Beach County,5472,517099.0,518262.0,519014.0,520247.0,521495.0,523079.0,525255.0,527751.0,531160.0,534672.0,536993.0,537784.0
5472,72641,33486,Boca Raton,FL,Miami-Fort Lauderdale-West Palm Beach,Palm Beach County,5473,450856.0,453172.0,454656.0,456106.0,457011.0,458347.0,459967.0,462638.0,466019.0,469062.0,470730.0,471532.0
5473,71870,32217,Jacksonville,FL,Jacksonville,Duval County,5474,193858.0,196410.0,199088.0,200327.0,200920.0,201198.0,202071.0,203491.0,205003.0,206544.0,208604.0,210745.0
5485,72174,32726,Eustis,FL,Orlando-Kissimmee-Sanford,Lake County,5486,143160.0,145083.0,146814.0,148606.0,150037.0,151805.0,152961.0,153725.0,154526.0,155091.0,155728.0,156620.0
5498,72802,33761,Clearwater,FL,Tampa-St. Petersburg-Clearwater,Pinellas County,5499,290635.0,290978.0,291946.0,293590.0,295239.0,296799.0,298309.0,301213.0,303804.0,306284.0,307102.0,307854.0
5502,73068,34266,Arcadia,FL,Arcadia,De Soto County,5503,95733.0,96411.0,97213.0,97859.0,98510.0,99086.0,99656.0,100300.0,100983.0,101778.0,102615.0,103467.0
5529,72777,33714,West and East Lealman,FL,Tampa-St. Petersburg-Clearwater,Pinellas County,5530,108675.0,109431.0,110547.0,111917.0,113995.0,116219.0,118569.0,121274.0,123422.0,125780.0,127729.0,130194.0
5547,73055,34236,Sarasota,FL,North Port-Sarasota-Bradenton,Sarasota County,5548,809573.0,811294.0,812303.0,814602.0,818995.0,823761.0,830751.0,834340.0,833413.0,829909.0,828546.0,829790.0
5574,72366,33028,Pembroke Pines,FL,Miami-Fort Lauderdale-West Palm Beach,Broward County,5575,391598.0,392076.0,392361.0,394812.0,396095.0,397291.0,397943.0,399519.0,401280.0,402795.0,403828.0,405175.0
5590,72321,32952,Merritt Island,FL,Palm Bay-Melbourne-Titusville,Brevard County,5591,279147.0,281099.0,283249.0,286641.0,290349.0,293305.0,295332.0,296805.0,298341.0,299817.0,302457.0,304304.0
5594,72004,32444,Lynn Haven,FL,Panama City,Bay County,5595,197088.0,197908.0,198655.0,199887.0,200800.0,201470.0,202340.0,203791.0,205338.0,205113.0,205487.0,206057.0
5599,72491,33189,Cutler Bay,FL,Miami-Fort Lauderdale-West Palm Beach,Miami-Dade County,5600,263833.0,265837.0,267731.0,269711.0,272119.0,274277.0,276302.0,278768.0,280329.0,282534.0,283090.0,284867.0
5607,72260,32836,Doctor Phillips,FL,Orlando-Kissimmee-Sanford,Orange County,5608,439100.0,441638.0,444178.0,445366.0,445249.0,446570.0,447079.0,447892.0,448872.0,449262.0,450757.0,451758.0
5617,72870,33860,Mulberry,FL,Lakeland-Winter Haven,Polk County,5618,150112.0,151356.0,153201.0,154141.0,155000.0,155886.0,156870.0,158132.0,159359.0,161066.0,162855.0,164463.0
5634,72800,33759,Clearwater,FL,Tampa-St. Petersburg-Clearwater,Pinellas County,5635,227996.0,227341.0,227186.0,228791.0,230652.0,232502.0,234565.0,237828.0,240666.0,243375.0,244650.0,245995.0
5640,73104,34446,Homosassa,FL,Homosassa Springs,Citrus County,5641,163627.0,164847.0,166848.0,168087.0,169672.0,170695.0,171919.0,172755.0,173921.0,175863.0,177807.0,179291.0
5658,72162,32713,Debary,FL,Deltona-Daytona Beach-Ormond Beach,Volusia County,5659,204212.0,206083.0,208096.0,210718.0,212619.0,214117.0,215207.0,216365.0,218708.0,221274.0,223742.0,225520.0
5692,71839,32176,Ormond Beach,FL,Deltona-Daytona Beach-Ormond Beach,Volusia County,5693,218151.0,219773.0,221672.0,224317.0,225871.0,227374.0,227878.0,229036.0,231581.0,235377.0,238714.0,241668.0
5713,73052,34233,Sarasota,FL,North Port-Sarasota-Bradenton,Sarasota County,5714,279890.0,279335.0,278908.0,279207.0,280055.0,281149.0,282911.0,284386.0,284716.0,284682.0,285107.0,285962.0
5790,72920,33931,Fort Myers Beach,FL,Cape Coral-Fort Myers,Lee County,5791,528236.0,527152.0,527210.0,528852.0,532677.0,534213.0,535853.0,537395.0,539091.0,539841.0,538734.0,539514.0
5793,72639,33483,Delray Beach,FL,Miami-Fort Lauderdale-West Palm Beach,Palm Beach County,5794,921356.0,927340.0,930150.0,931176.0,932437.0,934626.0,937064.0,940872.0,947869.0,955155.0,961074.0,963603.0
5801,72230,32804,Orlando,FL,Orlando-Kissimmee-Sanford,Orange County,5802,299976.0,302606.0,305013.0,306637.0,307957.0,310414.0,311972.0,313422.0,314899.0,316184.0,318212.0,319566.0
5851,72224,32796,Titusville,FL,Palm Bay-Melbourne-Titusville,Brevard County,5852,130367.0,131471.0,132748.0,134994.0,137618.0,140217.0,142013.0,143661.0,145250.0,146835.0,148715.0,150422.0
5860,73115,34465,Beverly Hills,FL,Homosassa Springs,Citrus County,5861,102611.0,103751.0,105382.0,106936.0,108587.0,109963.0,111485.0,112686.0,113977.0,115580.0,116962.0,118274.0
5870,72345,33004,Dania Beach,FL,Miami-Fort Lauderdale-West Palm Beach,Broward County,5871,268947.0,270060.0,271245.0,273720.0,275428.0,276987.0,278489.0,280859.0,282612.0,283950.0,285712.0,288184.0
5881,73128,34482,Ocala,FL,Ocala,Marion County,5882,156096.0,157077.0,158580.0,160044.0,161250.0,162032.0,162810.0,164380.0,165620.0,166756.0,167783.0,168716.0
5888,73253,34994,Stuart,FL,Port St. Lucie,Martin County,5889,252067.0,253676.0,255225.0,257439.0,259312.0,260909.0,262831.0,264712.0,265610.0,267124.0,270492.0,274528.0
5896,73102,34442,Hernando,FL,Homosassa Springs,Citrus County,5897,196316.0,197295.0,199291.0,200648.0,202326.0,203426.0,205140.0,205972.0,207396.0,209212.0,210862.0,212105.0
5897,71785,32097,Yulee,FL,Jacksonville,Nassau County,5898,196724.0,197210.0,197602.0,198195.0,200122.0,201870.0,203701.0,204336.0,204846.0,205129.0,206088.0,208049.0
5928,73191,34736,Groveland,FL,Orlando-Kissimmee-Sanford,Lake County,5929,198295.0,200156.0,201836.0,203604.0,204916.0,206418.0,207671.0,208404.0,209334.0,209879.0,211164.0,212489.0
5947,72929,33948,Port Charlotte,FL,Punta Gorda,Charlotte County,5948,171891.0,172844.0,174016.0,175312.0,176530.0,177766.0,179219.0,180356.0,180683.0,180919.0,181696.0,182674.0
5954,71975,32407,Panama City Beach,FL,Panama City,Bay County,5955,204558.0,205325.0,206095.0,206588.0,207295.0,208096.0,209182.0,210829.0,212597.0,213082.0,214568.0,215982.0
5962,72712,33609,Tampa,FL,Tampa-St. Petersburg-Clearwater,Hillsborough County,5963,397255.0,398622.0,399464.0,402764.0,406517.0,409718.0,411004.0,412098.0,412793.0,414499.0,416969.0,419577.0
5975,73214,34771,Saint Cloud,FL,Orlando-Kissimmee-Sanford,Osceola County,5976,264787.0,264612.0,264804.0,266149.0,269175.0,271821.0,273409.0,274162.0,276605.0,279319.0,281402.0,283247.0
5984,72250,32826,Orlando,FL,Orlando-Kissimmee-Sanford,Orange County,5985,195584.0,197161.0,199380.0,201379.0,203104.0,205288.0,207192.0,209315.0,211669.0,213587.0,215887.0,217895.0
6018,72813,33773,Largo,FL,Tampa-St. Petersburg-Clearwater,Pinellas County,6019,182685.0,182827.0,183272.0,184730.0,186603.0,188565.0,190547.0,192957.0,194844.0,196565.0,197590.0,198727.0
6022,72483,33181,North Miami,FL,Miami-Fort Lauderdale-West Palm Beach,Miami-Dade County,6023,590443.0,590044.0,589739.0,589448.0,591212.0,592256.0,591996.0,593694.0,594885.0,595613.0,593594.0,593409.0
6034,73179,34695,Safety Harbor,FL,Tampa-St. Petersburg-Clearwater,Pinellas County,6035,284221.0,283643.0,283595.0,285090.0,286827.0,288712.0,290927.0,294350.0,297218.0,299773.0,300446.0,301407.0
6036,72487,33185,Kendall West,FL,Miami-Fort Lauderdale-West Palm Beach,Miami-Dade County,6037,362269.0,364155.0,365403.0,365967.0,367557.0,368995.0,370665.0,372951.0,374650.0,377036.0,377088.0,378818.0
6057,72542,33323,Sunrise,FL,Miami-Fort Lauderdale-West Palm Beach,Broward County,6058,309325.0,309747.0,310395.0,312611.0,314013.0,315709.0,317312.0,319396.0,321210.0,322383.0,323346.0,324821.0
6062,72096,32601,Gainesville,FL,Gainesville,Alachua County,6063,133502.0,135693.0,137116.0,137420.0,137012.0,137400.0,139134.0,141268.0,144058.0,146121.0,148485.0,149692.0
6066,71820,32141,Edgewater,FL,Deltona-Daytona Beach-Ormond Beach,Volusia County,6067,154054.0,155599.0,157208.0,159158.0,160598.0,162111.0,163446.0,164402.0,166290.0,168328.0,170258.0,171441.0
6075,73186,34714,Citrus Ridge,FL,Orlando-Kissimmee-Sanford,Osceola County,6076,207670.0,209035.0,210046.0,211607.0,212906.0,214445.0,215229.0,215223.0,215250.0,215177.0,216124.0,217249.0
6113,72706,33603,Tampa,FL,Tampa-St. Petersburg-Clearwater,Hillsborough County,6114,185266.0,186199.0,187833.0,190712.0,193592.0,196155.0,198043.0,199464.0,200367.0,201127.0,202492.0,204427.0
6128,72774,33711,Saint Petersburg,FL,Tampa-St. Petersburg-Clearwater,Pinellas County,6129,93785.0,94725.0,95778.0,97783.0,99712.0,101527.0,103519.0,105929.0,107793.0,109170.0,110627.0,112223.0
6141,72375,33037,Key Largo,FL,Key West,Monroe County,6142,563074.0,561927.0,562544.0,563509.0,564352.0,566167.0,568489.0,570759.0,571817.0,574932.0,578607.0,582029.0
6178,72597,33431,Boca Raton,FL,Miami-Fort Lauderdale-West Palm Beach,Palm Beach County,6179,397530.0,399404.0,400767.0,401851.0,402114.0,402823.0,403871.0,405805.0,408898.0,411994.0,413915.0,415184.0
6185,71860,32206,Jacksonville,FL,Jacksonville,Duval County,6186,38823.0,39976.0,40940.0,41704.0,42391.0,43433.0,44369.0,45257.0,46371.0,47572.0,48852.0,49694.0
6200,399573,33472,Boynton Beach,FL,Miami-Fort Lauderdale-West Palm Beach,Palm Beach County,6201,297024.0,298457.0,299306.0,300089.0,300707.0,301472.0,302036.0,303073.0,304947.0,306929.0,308147.0,308485.0
6246,71760,32060,Live Oak,FL,,Suwannee County,6247,135009.0,136274.0,137521.0,138483.0,139214.0,139830.0,140567.0,141514.0,142539.0,143340.0,144158.0,144777.0
6252,72942,33971,Lehigh Acres,FL,Cape Coral-Fort Myers,Lee County,6253,156652.0,157267.0,158532.0,159915.0,162099.0,163302.0,164784.0,165513.0,166185.0,166527.0,166949.0,167487.0
6257,72231,32805,Orlando,FL,Orlando-Kissimmee-Sanford,Orange County,6258,96671.0,98955.0,101705.0,103913.0,105874.0,107680.0,109865.0,112007.0,114188.0,116107.0,117735.0,119669.0
6264,72893,33898,Lake Wales,FL,Lakeland-Winter Haven,Polk County,6265,131796.0,132954.0,134612.0,135839.0,136885.0,137614.0,138018.0,138706.0,139480.0,140817.0,142111.0,143476.0
6265,72734,33634,Town 'n' Country,FL,Tampa-St. Petersburg-Clearwater,Hillsborough County,6266,176304.0,177733.0,178829.0,180848.0,183104.0,185407.0,186783.0,188123.0,189232.0,190542.0,192300.0,193822.0
6269,399569,32081,Ponte Vedra,FL,Jacksonville,Saint Johns County,6270,381411.0,382962.0,385063.0,386223.0,387191.0,387711.0,388982.0,390656.0,393564.0,396820.0,399335.0,400303.0
6282,71879,32226,Jacksonville,FL,Jacksonville,Duval County,6283,220013.0,222118.0,224208.0,224888.0,224918.0,224959.0,225371.0,226665.0,228099.0,229819.0,231622.0,233549.0
6292,72628,33469,Tequesta,FL,Miami-Fort Lauderdale-West Palm Beach,Palm Beach County,6293,428400.0,429897.0,431550.0,432833.0,434528.0,435940.0,437658.0,439595.0,442282.0,444869.0,446342.0,447463.0
6294,71916,32305,Tallahassee,FL,Tallahassee,Leon County,6295,84750.0,85780.0,86563.0,87349.0,88435.0,89239.0,89089.0,88764.0,88570.0,89007.0,89252.0,89166.0
6296,72996,34102,Naples,FL,Naples-Immokalee-Marco Island,Collier County,6297,2705413.0,2684757.0,2669894.0,2669524.0,2669393.0,2668285.0,2658079.0,2666147.0,2686614.0,2699569.0,2695513.0,2684479.0
6309,72432,33129,Miami,FL,Miami-Fort Lauderdale-West Palm Beach,Miami-Dade County,6310,683506.0,686986.0,692328.0,688806.0,687334.0,685112.0,684652.0,684665.0,683765.0,682076.0,679538.0,677227.0
6310,73126,34480,Ocala,FL,Ocala,Marion County,6311,161722.0,162902.0,164577.0,166699.0,168547.0,169771.0,170506.0,171857.0,173061.0,174264.0,175596.0,177090.0
6313,73084,34286,North Port,FL,North Port-Sarasota-Bradenton,Sarasota County,6314,190156.0,190099.0,190011.0,190743.0,191998.0,193483.0,195361.0,196979.0,197549.0,197220.0,197134.0,197480.0
6323,72703,33598,Wimauma,FL,Tampa-St. Petersburg-Clearwater,Hillsborough County,6324,235001.0,235064.0,235427.0,236533.0,237811.0,239408.0,240092.0,240536.0,240286.0,240104.0,240314.0,241349.0
6364,72572,33405,West Palm Beach,FL,Miami-Fort Lauderdale-West Palm Beach,Palm Beach County,6365,244025.0,245556.0,246836.0,248807.0,250750.0,253203.0,255321.0,257805.0,260368.0,263329.0,265466.0,266890.0
6394,73120,34474,Ocala,FL,Ocala,Marion County,6395,164471.0,165285.0,166817.0,168629.0,170264.0,171276.0,171955.0,173257.0,174277.0,175641.0,176786.0,178299.0
6445,73119,34473,Ocala,FL,Ocala,Marion County,6446,128884.0,130249.0,132102.0,134117.0,135725.0,136786.0,137314.0,138572.0,139785.0,141123.0,142255.0,143293.0
6447,72471,33168,North Miami,FL,Miami-Fort Lauderdale-West Palm Beach,Miami-Dade County,6448,192417.0,194879.0,197368.0,199562.0,202564.0,205525.0,208175.0,211970.0,215515.0,219663.0,221790.0,224605.0
6454,72948,33983,Punta Gorda,FL,Punta Gorda,Charlotte County,6455,218365.0,219191.0,220395.0,221704.0,222501.0,223121.0,224274.0,225333.0,225930.0,226401.0,227494.0,228731.0
6475,72878,33872,Sebring,FL,Sebring,Highlands County,6476,130755.0,131446.0,131630.0,132295.0,132191.0,132580.0,133175.0,134079.0,134938.0,136021.0,137197.0,137530.0
6484,73044,34222,Ellenton,FL,North Port-Sarasota-Bradenton,Manatee County,6485,247287.0,248757.0,250041.0,251259.0,252353.0,253629.0,254401.0,255807.0,256236.0,257489.0,257552.0,258190.0
6486,72891,33896,Citrus Ridge,FL,Orlando-Kissimmee-Sanford,Osceola County,6487,218564.0,219071.0,220116.0,220508.0,221036.0,221347.0,221662.0,222541.0,223927.0,225555.0,227266.0,228736.0
6488,71738,32024,Lake City,FL,Lake City,Columbia County,6489,160933.0,162095.0,163395.0,164710.0,166019.0,167118.0,168178.0,169145.0,170150.0,170999.0,171770.0,172605.0
6491,71739,32025,Lake City,FL,Lake City,Columbia County,6492,118914.0,119726.0,120470.0,121156.0,121914.0,122758.0,123467.0,124199.0,124822.0,125497.0,126076.0,126708.0
6494,72801,33760,South Highpoint,FL,Tampa-St. Petersburg-Clearwater,Pinellas County,6495,181372.0,181704.0,182509.0,184104.0,185797.0,187278.0,188901.0,191502.0,193707.0,196321.0,197881.0,199694.0
6499,72535,33316,Fort Lauderdale,FL,Miami-Fort Lauderdale-West Palm Beach,Broward County,6500,947210.0,945903.0,944034.0,948989.0,951431.0,954635.0,956806.0,960529.0,965323.0,969515.0,975606.0,981615.0
6512,72311,32934,Melbourne,FL,Palm Bay-Melbourne-Titusville,Brevard County,6513,289252.0,291591.0,293919.0,297286.0,301039.0,304464.0,306756.0,308446.0,310085.0,312040.0,315110.0,317369.0
6517,72767,33704,Saint Petersburg,FL,Tampa-St. Petersburg-Clearwater,Pinellas County,6518,379664.0,380552.0,382231.0,385506.0,388703.0,391711.0,393872.0,397273.0,400476.0,404348.0,406944.0,408783.0
6546,73047,34228,Longboat Key,FL,North Port-Sarasota-Bradenton,Sarasota County,6547,877287.0,877136.0,875186.0,873223.0,872461.0,873823.0,876101.0,879441.0,878464.0,874164.0,868155.0,862890.0
6549,73054,34235,Sarasota,FL,North Port-Sarasota-Bradenton,Sarasota County,6550,230350.0,229768.0,228965.0,228897.0,229479.0,230542.0,231894.0,233036.0,233292.0,232545.0,232310.0,232341.0
6561,72302,32920,Cape Canaveral,FL,Palm Bay-Melbourne-Titusville,Brevard County,6562,224592.0,226616.0,228365.0,230974.0,233872.0,236337.0,238249.0,238867.0,239838.0,240435.0,242752.0,244331.0
6565,72682,33566,Plant City,FL,Tampa-St. Petersburg-Clearwater,Hillsborough County,6566,200194.0,200878.0,201764.0,203281.0,204800.0,206684.0,207953.0,209200.0,210265.0,211267.0,212879.0,214041.0
6584,72808,33767,Clearwater,FL,Tampa-St. Petersburg-Clearwater,Pinellas County,6585,722123.0,720715.0,720003.0,722180.0,723600.0,726394.0,728580.0,734283.0,739980.0,745943.0,749701.0,752312.0
6601,73231,34951,Fort Pierce,FL,Port St. Lucie,Saint Lucie County,6602,145089.0,146032.0,147235.0,148311.0,149313.0,150471.0,151284.0,152801.0,153974.0,155486.0,156642.0,157616.0
6612,73173,34685,Palm Harbor,FL,Tampa-St. Petersburg-Clearwater,Pinellas County,6613,371131.0,371541.0,372193.0,373683.0,375004.0,376406.0,377990.0,381036.0,383374.0,385838.0,386212.0,386801.0
6613,73021,34142,Immokalee,FL,Naples-Immokalee-Marco Island,Collier County,6614,186277.0,188197.0,187926.0,188109.0,188973.0,189886.0,191017.0,192067.0,193085.0,193025.0,192640.0,191248.0
6619,72735,33635,Town 'n' Country,FL,Tampa-St. Petersburg-Clearwater,Hillsborough County,6620,252123.0,252470.0,253232.0,255077.0,257050.0,259213.0,260444.0,261760.0,262565.0,263581.0,265265.0,267098.0
6631,72659,33525,Dade City,FL,Tampa-St. Petersburg-Clearwater,Pasco County,6632,178462.0,179089.0,179043.0,179732.0,181212.0,183683.0,185842.0,187660.0,188681.0,190176.0,191106.0,190293.0
6633,72817,33777,Seminole,FL,Tampa-St. Petersburg-Clearwater,Pinellas County,6634,194358.0,194049.0,194239.0,195736.0,197598.0,199370.0,201337.0,203893.0,206022.0,208193.0,209460.0,210780.0
6652,72736,33637,Temple Terrace,FL,Tampa-St. Petersburg-Clearwater,Hillsborough County,6653,163169.0,164102.0,165328.0,167191.0,168853.0,170383.0,171246.0,172191.0,172854.0,173877.0,175389.0,176699.0
6668,73058,34239,Sarasota,FL,North Port-Sarasota-Bradenton,Sarasota County,6669,288164.0,287484.0,286524.0,285826.0,286116.0,286943.0,288688.0,290243.0,290986.0,290811.0,291194.0,291656.0
6690,72550,33331,Weston,FL,Miami-Fort Lauderdale-West Palm Beach,Broward County,6691,482188.0,482386.0,482271.0,485334.0,486583.0,487928.0,488556.0,490574.0,492831.0,494465.0,495635.0,496812.0
6710,72596,33430,Belle Glade,FL,Miami-Fort Lauderdale-West Palm Beach,Palm Beach County,6711,118842.0,119082.0,118512.0,118480.0,118922.0,120932.0,122400.0,124261.0,125597.0,127151.0,127101.0,127064.0
6726,72818,33778,Largo,FL,Tampa-St. Petersburg-Clearwater,Pinellas County,6727,198653.0,198610.0,199209.0,200813.0,203019.0,205099.0,207144.0,209573.0,211550.0,213734.0,215031.0,216441.0
6751,73056,34237,Sarasota,FL,North Port-Sarasota-Bradenton,Sarasota County,6752,186419.0,186190.0,186225.0,187070.0,188218.0,189409.0,190936.0,192335.0,193160.0,193841.0,194994.0,195941.0
6795,72253,32829,Orlando,FL,Orlando-Kissimmee-Sanford,Orange County,6796,227134.0,229258.0,231400.0,233050.0,234231.0,236158.0,237536.0,238965.0,240458.0,241823.0,243512.0,245027.0
6810,72708,33605,Tampa,FL,Tampa-St. Petersburg-Clearwater,Hillsborough County,6811,87934.0,88514.0,90023.0,92605.0,95276.0,98473.0,101280.0,103654.0,104886.0,106698.0,109023.0,112026.0
6813,73255,34996,Stuart,FL,Port St. Lucie,Martin County,6814,496879.0,497648.0,499188.0,502504.0,505557.0,507526.0,509386.0,511023.0,512715.0,515212.0,517601.0,519438.0
6838,72104,32609,Gainesville,FL,Gainesville,Alachua County,6839,109205.0,111077.0,112958.0,114144.0,114415.0,114396.0,114758.0,115763.0,117240.0,118421.0,119539.0,120005.0
6862,73091,34420,Belleview,FL,Ocala,Marion County,6863,110738.0,111699.0,113183.0,114909.0,116421.0,117452.0,118423.0,119823.0,121328.0,122680.0,124028.0,125209.0
6882,72606,33440,Clewiston,FL,Clewiston,Hendry County,6883,102533.0,103014.0,103473.0,104085.0,104526.0,104968.0,105323.0,105752.0,106278.0,106827.0,107242.0,107602.0
6902,73061,34242,Siesta Key,FL,North Port-Sarasota-Bradenton,Sarasota County,6903,855053.0,853511.0,850830.0,848549.0,850296.0,853723.0,859926.0,863669.0,864305.0,861005.0,858992.0,857504.0
6987,73035,34211,Bradenton,FL,North Port-Sarasota-Bradenton,Manatee County,6988,378865.0,380082.0,380778.0,380900.0,381136.0,381775.0,381370.0,382550.0,382612.0,384987.0,385320.0,386275.0
7012,399575,33545,Wesley Chapel,FL,Tampa-St. Petersburg-Clearwater,Pasco County,7013,210196.0,211497.0,212159.0,213067.0,215146.0,217538.0,219299.0,220481.0,221486.0,222961.0,224063.0,223570.0
7042,72719,33616,Tampa,FL,Tampa-St. Petersburg-Clearwater,Hillsborough County,7043,205151.0,206407.0,208539.0,211806.0,214632.0,216861.0,218001.0,219260.0,220461.0,221193.0,223183.0,225584.0
7050,72922,33935,Labelle,FL,Clewiston,Hendry County,7051,113934.0,114312.0,114858.0,115528.0,116158.0,116985.0,117751.0,118608.0,119241.0,120018.0,120712.0,121785.0
7072,72046,32534,Pensacola,FL,Pensacola-Ferry Pass-Brent,Escambia County,7073,121840.0,122701.0,123208.0,123524.0,124222.0,125221.0,126313.0,126900.0,127537.0,128118.0,129051.0,129753.0
7111,72837,33815,Lakeland,FL,Lakeland-Winter Haven,Polk County,7112,62623.0,62888.0,63600.0,64815.0,65824.0,66727.0,67969.0,69578.0,71630.0,72815.0,73987.0,74731.0
7126,72372,33034,Florida City,FL,Miami-Fort Lauderdale-West Palm Beach,Miami-Dade County,7127,150316.0,152128.0,153850.0,154623.0,156326.0,156907.0,158325.0,160156.0,161571.0,162504.0,162560.0,163638.0
7146,73176,34690,Holiday,FL,Tampa-St. Petersburg-Clearwater,Pasco County,7147,84563.0,85505.0,85806.0,86219.0,87304.0,88381.0,89494.0,90839.0,92590.0,94431.0,96091.0,96460.0
7151,72291,32903,Melbourne,FL,Palm Bay-Melbourne-Titusville,Brevard County,7152,366844.0,369106.0,371455.0,375541.0,380245.0,383789.0,385785.0,387375.0,389150.0,390935.0,393634.0,395723.0
7170,72452,33149,Key Biscayne,FL,Miami-Fort Lauderdale-West Palm Beach,Miami-Dade County,7171,2639087.0,2649253.0,2654617.0,2655680.0,2663273.0,2667633.0,2664629.0,2662808.0,2656216.0,2658268.0,2645107.0,2644468.0
7189,73187,34715,Clermont,FL,Orlando-Kissimmee-Sanford,Lake County,7190,221008.0,223095.0,225124.0,227119.0,228747.0,230444.0,231729.0,232122.0,232753.0,232881.0,234152.0,235577.0
7197,72681,33565,Plant City,FL,Tampa-St. Petersburg-Clearwater,Hillsborough County,7198,226448.0,230103.0,231537.0,233489.0,235362.0,237563.0,239589.0,241235.0,242659.0,244207.0,246364.0,247921.0
7200,72439,33136,Miami,FL,Miami-Fort Lauderdale-West Palm Beach,Miami-Dade County,7201,345781.0,343023.0,340688.0,341825.0,341693.0,342176.0,338258.0,336997.0,333836.0,332560.0,331756.0,334159.0
7207,72674,33549,Lutz,FL,Tampa-St. Petersburg-Clearwater,Hillsborough County,7208,238672.0,239662.0,240470.0,242007.0,243866.0,245754.0,246885.0,248010.0,248816.0,250027.0,251398.0,252768.0
7213,72303,32922,Cocoa,FL,Palm Bay-Melbourne-Titusville,Brevard County,7214,73341.0,74522.0,75169.0,76967.0,79325.0,81623.0,83431.0,84817.0,86174.0,86863.0,88259.0,89658.0
7243,71991,32428,Chipley,FL,,Washington County,7244,101754.0,102209.0,102723.0,103387.0,103964.0,104496.0,105238.0,106101.0,106985.0,107789.0,108613.0,109276.0
7254,72945,33980,Punta Gorda,FL,Punta Gorda,Charlotte County,7255,188791.0,189516.0,190356.0,191304.0,191943.0,193018.0,194342.0,195470.0,195639.0,195922.0,196872.0,197951.0
7327,71928,32317,Tallahassee,FL,Tallahassee,Leon County,7328,252736.0,253914.0,256463.0,258024.0,259401.0,259813.0,260343.0,261682.0,263644.0,265854.0,266960.0,268156.0
7332,72546,33327,Weston,FL,Miami-Fort Lauderdale-West Palm Beach,Broward County,7333,500022.0,499357.0,498656.0,500516.0,501275.0,502075.0,502494.0,503745.0,505289.0,506155.0,506908.0,507916.0
7340,72946,33981,Port Charlotte,FL,Punta Gorda,Charlotte County,7341,213138.0,214310.0,215567.0,216915.0,218008.0,219126.0,220686.0,222041.0,222692.0,223153.0,224440.0,225705.0
7378,71780,32091,Starke,FL,,Bradford County,7379,105013.0,105633.0,106193.0,106794.0,107267.0,107880.0,108267.0,108936.0,109601.0,110486.0,111300.0,111901.0
7386,71921,32310,Tallahassee,FL,Tallahassee,Leon County,7387,75227.0,75784.0,76355.0,76894.0,77912.0,78334.0,78493.0,78531.0,79135.0,80005.0,80353.0,80264.0
7389,72524,33305,Fort Lauderdale,FL,Miami-Fort Lauderdale-West Palm Beach,Broward County,7390,514236.0,513167.0,511718.0,514083.0,514275.0,514778.0,515569.0,518121.0,519974.0,520647.0,521698.0,524452.0
7418,71995,32433,Defuniak Springs,FL,Crestview-Fort Walton Beach-Destin,Walton County,7419,105873.0,106996.0,108668.0,110067.0,110792.0,110972.0,111175.0,111680.0,112052.0,112703.0,113812.0,114845.0
7449,72534,33315,Fort Lauderdale,FL,Miami-Fort Lauderdale-West Palm Beach,Broward County,7450,312910.0,313910.0,314561.0,317817.0,319656.0,321006.0,321538.0,323126.0,324692.0,325797.0,326558.0,327652.0
7450,72486,33184,Tamiami,FL,Miami-Fort Lauderdale-West Palm Beach,Miami-Dade County,7451,343657.0,346353.0,348553.0,349907.0,351217.0,352039.0,353456.0,355428.0,357345.0,359696.0,360458.0,362342.0
7464,72251,32827,Orlando,FL,Orlando-Kissimmee-Sanford,Orange County,7465,355602.0,357621.0,359615.0,361265.0,362065.0,363945.0,365217.0,366502.0,368208.0,369271.0,371631.0,373366.0
7468,73229,34949,Fort Pierce,FL,Port St. Lucie,Saint Lucie County,7469,318311.0,318858.0,319931.0,321110.0,323103.0,326254.0,328880.0,331824.0,334081.0,337161.0,339539.0,341601.0
7523,72134,32656,Keystone Heights,FL,Jacksonville,Clay County,7524,132618.0,133267.0,134375.0,135387.0,136058.0,137049.0,137637.0,139186.0,140530.0,142539.0,143723.0,144855.0
7551,71736,32011,Callahan,FL,Jacksonville,Nassau County,7552,184990.0,185371.0,185949.0,186379.0,188117.0,188739.0,189410.0,189494.0,189895.0,190895.0,191996.0,194354.0
7571,72657,33523,Ridge Manor,FL,Tampa-St. Petersburg-Clearwater,Hernando County,7572,110181.0,110613.0,111184.0,111826.0,113267.0,115083.0,116931.0,118393.0,119383.0,120074.0,120373.0,120167.0
7582,73060,34241,Sarasota,FL,North Port-Sarasota-Bradenton,Sarasota County,7583,367940.0,367222.0,366293.0,366276.0,366866.0,367711.0,369115.0,370282.0,369817.0,368374.0,367378.0,367363.0
7590,71756,32055,Lake City,FL,Lake City,Columbia County,7591,106449.0,106977.0,107419.0,107763.0,108352.0,108969.0,109549.0,110183.0,110653.0,111198.0,111610.0,112162.0
7605,72579,33412,West Palm Beach,FL,Miami-Fort Lauderdale-West Palm Beach,Palm Beach County,7606,374012.0,375826.0,376987.0,378198.0,379260.0,380706.0,382325.0,384317.0,386829.0,388902.0,389795.0,389660.0
7620,72678,33559,Lutz,FL,Tampa-St. Petersburg-Clearwater,Hillsborough County,7621,203313.0,204266.0,205116.0,205945.0,207580.0,209596.0,211542.0,213018.0,213995.0,215374.0,216255.0,217134.0
7625,72341,32976,Micco,FL,Palm Bay-Melbourne-Titusville,Brevard County,7626,119566.0,120357.0,121148.0,122874.0,124664.0,126178.0,127004.0,127804.0,128607.0,129078.0,130336.0,131559.0
7636,72142,32669,Newberry,FL,Gainesville,Alachua County,7637,204594.0,207531.0,209430.0,209596.0,208248.0,208311.0,209357.0,211781.0,214130.0,216580.0,218175.0,218094.0
7642,72806,33765,Clearwater,FL,Tampa-St. Petersburg-Clearwater,Pinellas County,7643,189652.0,192070.0,195047.0,197249.0,199878.0,202334.0,204749.0,208029.0,210590.0,213280.0,214509.0,215714.0
7651,71956,32351,Quincy,FL,Tallahassee,Gadsden County,7652,78959.0,79474.0,79664.0,79106.0,78965.0,78918.0,79393.0,79598.0,79850.0,80181.0,80574.0,80803.0
7665,72778,33715,Saint Petersburg,FL,Tampa-St. Petersburg-Clearwater,Pinellas County,7666,608935.0,608107.0,607538.0,607556.0,608321.0,609770.0,611587.0,616090.0,619785.0,622463.0,621370.0,620811.0
7717,73219,34785,Wildwood,FL,The Villages,Sumter County,7718,100063.0,100225.0,100025.0,99965.0,100885.0,102270.0,104158.0,105025.0,105923.0,107450.0,109195.0,111284.0
7727,72663,33534,Gibsonton,FL,Tampa-St. Petersburg-Clearwater,Hillsborough County,7728,179859.0,180690.0,181362.0,183015.0,184736.0,186481.0,187491.0,188633.0,189428.0,190122.0,191050.0,191999.0
7734,72938,33957,Sanibel,FL,Cape Coral-Fort Myers,Lee County,7735,831888.0,829577.0,828918.0,830007.0,832988.0,831134.0,829863.0,827909.0,826960.0,825986.0,825584.0,827025.0
7740,72928,33947,Rotonda West,FL,Punta Gorda,Charlotte County,7741,248808.0,249395.0,250479.0,251757.0,253110.0,254197.0,255879.0,257484.0,258177.0,258525.0,259170.0,260137.0
7744,72337,32968,Vero Beach,FL,Sebastian-Vero Beach,Indian River County,7745,237713.0,239984.0,242063.0,242903.0,244130.0,245746.0,247344.0,248506.0,249060.0,249174.0,249904.0,251557.0
7767,72110,32615,Alachua,FL,Gainesville,Alachua County,7768,180206.0,182593.0,184480.0,184834.0,184177.0,184397.0,185889.0,188106.0,190344.0,192396.0,193885.0,194272.0
7779,72320,32951,Melbourne Beach,FL,Palm Bay-Melbourne-Titusville,Brevard County,7780,400827.0,402817.0,404218.0,407958.0,412967.0,416972.0,419031.0,419953.0,421108.0,422773.0,425930.0,427794.0
7783,73163,34669,Hudson,FL,Tampa-St. Petersburg-Clearwater,Pasco County,7784,158956.0,159356.0,159672.0,160229.0,161500.0,163052.0,164355.0,165504.0,166344.0,167724.0,168712.0,169106.0
7801,399581,33966,Fort Myers,FL,Cape Coral-Fort Myers,Lee County,7802,288811.0,287895.0,288148.0,288764.0,290512.0,290919.0,291794.0,291676.0,291578.0,291119.0,290675.0,290483.0
7854,72131,32653,Gainesville,FL,Gainesville,Alachua County,7855,189244.0,192358.0,194348.0,194924.0,194125.0,194570.0,195961.0,198414.0,200914.0,203039.0,204783.0,204825.0
7872,72470,33167,Westview,FL,Miami-Fort Lauderdale-West Palm Beach,Miami-Dade County,7873,178773.0,181192.0,183443.0,185290.0,187767.0,190726.0,193915.0,198257.0,202140.0,206267.0,208652.0,211722.0
7898,73245,34984,Port Saint Lucie,FL,Port St. Lucie,Saint Lucie County,7899,195695.0,196851.0,198345.0,199416.0,200887.0,202723.0,204354.0,206235.0,207821.0,209771.0,211869.0,213452.0
7940,73098,34432,Dunnellon,FL,Ocala,Marion County,7941,153749.0,154915.0,156582.0,158428.0,159923.0,160662.0,161295.0,162504.0,163738.0,164809.0,165633.0,166366.0
7947,73238,34972,Okeechobee,FL,Okeechobee,Okeechobee County,7948,116669.0,117092.0,117578.0,118084.0,118611.0,119146.0,119843.0,120607.0,121537.0,122272.0,122892.0,123513.0
7966,72383,33050,Marathon,FL,Key West,Monroe County,7967,535289.0,537416.0,540024.0,540574.0,539374.0,539239.0,540824.0,543625.0,546219.0,549020.0,549083.0,547004.0
7994,72853,33843,Frostproof,FL,Lakeland-Winter Haven,Polk County,7995,85780.0,86768.0,88117.0,89240.0,89572.0,89752.0,89481.0,89656.0,89908.0,90093.0,90448.0,90725.0
8058,72936,33955,Punta Gorda,FL,Punta Gorda,Charlotte County,8059,240548.0,240511.0,240851.0,241603.0,242719.0,243423.0,244428.0,245384.0,245610.0,246230.0,247289.0,248655.0
8090,73146,34610,Shady Hills,FL,Tampa-St. Petersburg-Clearwater,Pasco County,8091,182565.0,183051.0,183606.0,184185.0,185273.0,186881.0,188625.0,190462.0,191606.0,193006.0,193911.0,194204.0
8098,73132,34488,Silver Springs,FL,Ocala,Marion County,8099,112980.0,113623.0,115019.0,116769.0,118332.0,119338.0,120359.0,122038.0,123775.0,125490.0,126688.0,127707.0
8109,73108,34450,Inverness,FL,Homosassa Springs,Citrus County,8110,122692.0,123586.0,125313.0,126742.0,128318.0,129541.0,131154.0,132137.0,132946.0,134226.0,134914.0,135881.0
8125,73230,34950,Fort Pierce,FL,Port St. Lucie,Saint Lucie County,8126,73129.0,74025.0,74708.0,75094.0,76082.0,77345.0,79243.0,80708.0,82062.0,83233.0,84678.0,85727.0
8149,72580,33413,Greenacres,FL,Miami-Fort Lauderdale-West Palm Beach,Palm Beach County,8150,259567.0,261673.0,263089.0,264527.0,265837.0,267605.0,269395.0,271551.0,273880.0,276080.0,277362.0,278077.0
8155,73125,34479,Ocala,FL,Ocala,Marion County,8156,108151.0,109221.0,110865.0,112597.0,114035.0,114891.0,115683.0,117068.0,118423.0,119435.0,120278.0,120994.0
8168,71900,32254,Jacksonville,FL,Jacksonville,Duval County,8169,38698.0,39040.0,39245.0,39799.0,40392.0,41274.0,42307.0,42726.0,42803.0,43123.0,44492.0,46097.0
8170,72869,33859,Lake Wales,FL,Lakeland-Winter Haven,Polk County,8171,154881.0,155664.0,156850.0,157721.0,158241.0,158693.0,158989.0,159915.0,160930.0,161872.0,162913.0,163985.0
8176,72373,33035,Homestead,FL,Miami-Fort Lauderdale-West Palm Beach,Miami-Dade County,8177,184666.0,186230.0,187488.0,188660.0,190449.0,192209.0,193096.0,194059.0,194738.0,196208.0,196601.0,198096.0
8223,72570,33403,Lake Park,FL,Miami-Fort Lauderdale-West Palm Beach,Palm Beach County,8224,197946.0,199106.0,199449.0,200745.0,202319.0,204665.0,206728.0,209275.0,211849.0,214328.0,215931.0,217019.0
8230,73189,34731,Fruitland Park,FL,Orlando-Kissimmee-Sanford,Lake County,8231,148600.0,150480.0,152087.0,153346.0,154337.0,155775.0,157396.0,158379.0,159367.0,159998.0,160734.0,161456.0
8233,72647,33498,Boca Raton,FL,Miami-Fort Lauderdale-West Palm Beach,Palm Beach County,8234,413987.0,415649.0,416558.0,417349.0,418113.0,419082.0,420072.0,421368.0,423406.0,425227.0,425969.0,425697.0
8237,72661,33527,Dover,FL,Tampa-St. Petersburg-Clearwater,Hillsborough County,8238,231638.0,233360.0,234665.0,236723.0,238697.0,240938.0,242236.0,243522.0,244421.0,245554.0,247336.0,248955.0
8241,72489,33187,Richmond West,FL,Miami-Fort Lauderdale-West Palm Beach,Miami-Dade County,8242,348645.0,350458.0,352120.0,352895.0,355187.0,357043.0,358855.0,360978.0,362858.0,365838.0,366506.0,368573.0
8291,73110,34452,Inverness,FL,Homosassa Springs,Citrus County,8292,104593.0,105729.0,107233.0,108562.0,110287.0,112041.0,113860.0,115047.0,116176.0,117659.0,118890.0,120336.0
8310,72192,32754,Mims,FL,Palm Bay-Melbourne-Titusville,Brevard County,8311,187722.0,188890.0,191154.0,194147.0,197693.0,201338.0,204159.0,206701.0,208330.0,208757.0,209378.0,209580.0
8325,72070,32569,Mary Esther,FL,Crestview-Fort Walton Beach-Destin,Okaloosa County,8326,177862.0,178606.0,179577.0,180711.0,181264.0,182313.0,183900.0,185088.0,186175.0,186260.0,186845.0,188232.0
8364,72150,32696,Williston,FL,,Levy County,8365,121322.0,121591.0,121662.0,121556.0,121785.0,121903.0,122078.0,122658.0,123589.0,124422.0,124639.0,124652.0
8372,72880,33875,Sebring,FL,Sebring,Highlands County,8373,148395.0,149712.0,150531.0,151512.0,151636.0,152321.0,153213.0,154400.0,155411.0,156982.0,158552.0,159081.0
8377,73106,34448,Homosassa,FL,Homosassa Springs,Citrus County,8378,129638.0,131318.0,132978.0,134152.0,135328.0,136713.0,138498.0,139649.0,140956.0,142600.0,144905.0,146738.0
8390,71815,32136,Flagler Beach,FL,Deltona-Daytona Beach-Ormond Beach,Flagler County,8391,309231.0,312612.0,316167.0,320435.0,323885.0,325681.0,327019.0,327984.0,328866.0,329068.0,329401.0,328905.0
8420,71988,32425,Bonifay,FL,,Holmes County,8421,95043.0,96137.0,96850.0,97278.0,97561.0,98128.0,98618.0,99218.0,99861.0,100661.0,101635.0,101891.0
8430,72879,33873,Wauchula,FL,Wauchula,Hardee County,8431,107509.0,108034.0,108487.0,108872.0,109278.0,109822.0,110351.0,110893.0,111531.0,112255.0,112936.0,113618.0
8481,71783,32095,Saint Augustine,FL,Jacksonville,Saint Johns County,8482,332555.0,333281.0,334282.0,335088.0,335754.0,336215.0,337161.0,338292.0,340615.0,343621.0,345839.0,346521.0
8487,73086,34288,North Port,FL,North Port-Sarasota-Bradenton,Sarasota County,8488,202386.0,202413.0,202402.0,202851.0,203903.0,204984.0,206591.0,207850.0,208346.0,208650.0,209306.0,210369.0
8499,71875,32222,Jacksonville,FL,Jacksonville,Duval County,8500,179491.0,181352.0,183403.0,184399.0,184863.0,185547.0,186500.0,187958.0,189326.0,190913.0,193166.0,195042.0
8508,72449,33146,Coral Gables,FL,Miami-Fort Lauderdale-West Palm Beach,Miami-Dade County,8509,998902.0,997228.0,996475.0,997702.0,1000134.0,1002169.0,1002619.0,1006320.0,1006285.0,1008684.0,1006999.0,1008773.0
8519,72816,33776,Seminole,FL,Tampa-St. Petersburg-Clearwater,Pinellas County,8520,292680.0,293195.0,294088.0,295576.0,297433.0,299029.0,301197.0,304753.0,307826.0,310572.0,311458.0,312324.0
8529,72635,33478,Jupiter,FL,Miami-Fort Lauderdale-West Palm Beach,Palm Beach County,8530,410014.0,411487.0,412227.0,413298.0,414247.0,415860.0,417138.0,418940.0,421187.0,423631.0,425535.0,426288.0
8545,73248,34987,Port Saint Lucie,FL,Port St. Lucie,Saint Lucie County,8546,256423.0,256523.0,256741.0,256779.0,257438.0,258929.0,259893.0,261037.0,261921.0,263484.0,265279.0,266206.0
8557,399580,33812,Lakeland,FL,Lakeland-Winter Haven,Polk County,8558,190946.0,192178.0,194295.0,195633.0,196768.0,197592.0,198409.0,199479.0,200736.0,202080.0,203649.0,205220.0
8560,72200,32766,Oviedo,FL,Orlando-Kissimmee-Sanford,Seminole County,8561,339402.0,341528.0,343712.0,346557.0,348815.0,350208.0,350387.0,351214.0,352205.0,353104.0,356193.0,360584.0
8575,399584,33974,Lehigh Acres,FL,Cape Coral-Fort Myers,Lee County,8576,153458.0,153855.0,154855.0,155887.0,157825.0,158983.0,160523.0,161386.0,161991.0,162294.0,162689.0,163419.0
8631,72127,32641,Gainesville,FL,Gainesville,Alachua County,8632,82713.0,83471.0,84396.0,84309.0,84481.0,85386.0,87199.0,88981.0,90406.0,91026.0,90646.0,89682.0
8649,71872,32219,Jacksonville,FL,Jacksonville,Duval County,8650,140910.0,142797.0,144980.0,146380.0,146970.0,147102.0,147761.0,148910.0,150016.0,150943.0,152189.0,154092.0
8665,73009,34117,Naples,FL,Naples-Immokalee-Marco Island,Collier County,8666,284553.0,284417.0,285113.0,286447.0,288423.0,290103.0,290554.0,291879.0,293936.0,295846.0,296032.0,295811.0
8673,72080,32579,Shalimar,FL,Crestview-Fort Walton Beach-Destin,Okaloosa County,8674,237672.0,238699.0,240322.0,241872.0,242843.0,244290.0,246393.0,247860.0,248953.0,248876.0,249299.0,250660.0
8687,72216,32784,Umatilla,FL,Orlando-Kissimmee-Sanford,Lake County,8688,131860.0,133837.0,135782.0,137892.0,139674.0,141239.0,142187.0,142517.0,143459.0,144391.0,145532.0,146616.0
8693,73111,34453,Inverness,FL,Homosassa Springs,Citrus County,8694,113882.0,115025.0,116848.0,118297.0,119732.0,121010.0,122629.0,123796.0,124753.0,125941.0,128218.0,130659.0
8712,71763,32063,Macclenny,FL,Jacksonville,Baker County,8713,165152.0,166603.0,167893.0,169046.0,170213.0,171240.0,172242.0,173339.0,174537.0,175788.0,176906.0,177842.0
8727,72947,33982,Punta Gorda,FL,Punta Gorda,Charlotte County,8728,197251.0,198025.0,199126.0,200167.0,200916.0,201816.0,203548.0,204699.0,205159.0,204999.0,206632.0,208005.0
8730,71942,32333,Havana,FL,Tallahassee,Gadsden County,8731,158907.0,159629.0,160314.0,160875.0,161282.0,162173.0,163391.0,164765.0,165871.0,167007.0,167952.0,168681.0
8739,72492,33190,Cutler Bay,FL,Miami-Fort Lauderdale-West Palm Beach,Miami-Dade County,8740,247445.0,248684.0,249630.0,250532.0,251958.0,253374.0,254617.0,256362.0,257525.0,259393.0,259682.0,261111.0
8744,71873,32220,Jacksonville,FL,Jacksonville,Duval County,8745,151563.0,153192.0,155095.0,155788.0,155972.0,156359.0,157495.0,159079.0,160499.0,161660.0,162952.0,164487.0
8745,72000,32439,Freeport,FL,Crestview-Fort Walton Beach-Destin,Walton County,8746,210295.0,210035.0,211083.0,212643.0,214129.0,215236.0,216247.0,217544.0,218099.0,219383.0,220878.0,222606.0
8774,73059,34240,Sarasota,FL,North Port-Sarasota-Bradenton,Sarasota County,8775,427034.0,425918.0,424584.0,424423.0,424495.0,425175.0,426755.0,428405.0,428373.0,427501.0,427058.0,427087.0
8831,71824,32148,Interlachen,FL,Palatka,Putnam County,8832,76672.0,77364.0,78405.0,80047.0,81536.0,82710.0,83559.0,84547.0,85695.0,86937.0,87792.0,88536.0
8875,72023,32501,Pensacola,FL,Pensacola-Ferry Pass-Brent,Escambia County,8876,112649.0,113946.0,114460.0,114708.0,115214.0,115996.0,117382.0,119095.0,120664.0,121495.0,122151.0,122757.0
8878,72654,33513,Bushnell,FL,The Villages,Sumter County,8879,123070.0,123830.0,124835.0,125273.0,125767.0,126598.0,128110.0,129472.0,130933.0,132155.0,133714.0,135438.0
8896,73113,34461,Lecanto,FL,Homosassa Springs,Citrus County,8897,173037.0,174125.0,176038.0,177256.0,178640.0,179644.0,181023.0,181678.0,182956.0,184751.0,186111.0,186900.0
8918,72148,32693,Trenton,FL,Gainesville,Gilchrist County,8919,112512.0,113034.0,113832.0,114594.0,115388.0,115902.0,116414.0,116982.0,117654.0,118309.0,118567.0,118906.0
8919,73121,34475,Ocala,FL,Ocala,Marion County,8920,80211.0,80976.0,81838.0,82718.0,83499.0,83834.0,84220.0,85252.0,86298.0,87738.0,89098.0,90615.0
8940,72208,32776,Sorrento,FL,Orlando-Kissimmee-Sanford,Lake County,8941,223062.0,225618.0,227684.0,229719.0,230982.0,232754.0,234041.0,234916.0,235840.0,236547.0,239059.0,241811.0
8946,72863,33853,Lake Wales,FL,Lakeland-Winter Haven,Polk County,8947,97181.0,98217.0,99518.0,100944.0,102031.0,102993.0,103605.0,104974.0,106439.0,108075.0,109425.0,110810.0
8999,72943,33972,Lehigh Acres,FL,Cape Coral-Fort Myers,Lee County,9000,169088.0,169642.0,170744.0,172080.0,174169.0,175208.0,176284.0,176827.0,177448.0,177965.0,178708.0,179801.0
9003,72296,32908,Palm Bay,FL,Palm Bay-Melbourne-Titusville,Brevard County,9004,161895.0,163227.0,164694.0,166660.0,169106.0,171278.0,173142.0,174498.0,175834.0,177037.0,178753.0,179969.0
9011,399585,33976,Lehigh Acres,FL,Cape Coral-Fort Myers,Lee County,9012,149089.0,149628.0,150825.0,152186.0,154270.0,155349.0,156746.0,157424.0,158023.0,158406.0,158908.0,159631.0
9018,71950,32344,Monticello,FL,Tallahassee,Jefferson County,9019,148674.0,149934.0,150770.0,151638.0,152340.0,153154.0,153968.0,154766.0,155366.0,156393.0,156959.0,157438.0
9042,72667,33540,Zephyrhills,FL,Tampa-St. Petersburg-Clearwater,Pasco County,9043,134220.0,134888.0,135435.0,136376.0,138172.0,140217.0,141868.0,143134.0,144282.0,145896.0,147269.0,147670.0
9079,73094,34428,Crystal River,FL,Homosassa Springs,Citrus County,9080,132122.0,133896.0,135959.0,137624.0,139330.0,141090.0,142581.0,143426.0,144538.0,146508.0,149630.0,152684.0
9096,72128,32643,High Springs,FL,Gainesville,Alachua County,9097,168427.0,170748.0,172147.0,172397.0,171786.0,172279.0,173579.0,175729.0,177671.0,179426.0,180713.0,181033.0
9098,73039,34217,Holmes Beach,FL,North Port-Sarasota-Bradenton,Manatee County,9099,705745.0,708999.0,712532.0,715538.0,718194.0,721948.0,723090.0,726704.0,726096.0,730374.0,731434.0,733722.0
9100,72473,33170,Goulds,FL,Miami-Fort Lauderdale-West Palm Beach,Miami-Dade County,9101,251399.0,253720.0,256033.0,257500.0,259764.0,261437.0,262959.0,264951.0,266649.0,269344.0,270609.0,273114.0
9109,72875,33868,Polk City,FL,Lakeland-Winter Haven,Polk County,9110,164722.0,166213.0,167963.0,168998.0,169789.0,170886.0,171803.0,173220.0,174331.0,174948.0,175567.0,175999.0
9125,73140,34604,Spring Hill,FL,Tampa-St. Petersburg-Clearwater,Hernando County,9126,164234.0,165493.0,167040.0,168302.0,169573.0,170745.0,172540.0,174346.0,175705.0,176479.0,177331.0,178577.0
9152,72549,33330,Cooper City,FL,Miami-Fort Lauderdale-West Palm Beach,Broward County,9153,565246.0,565309.0,565093.0,568540.0,570580.0,572640.0,573058.0,575053.0,577663.0,580492.0,581773.0,582957.0
9225,72126,32640,Hawthorne,FL,Palatka,Putnam County,9226,110381.0,111916.0,113129.0,114291.0,114994.0,116239.0,117908.0,119920.0,121601.0,122924.0,123729.0,123594.0
9226,71858,32204,Jacksonville,FL,Jacksonville,Duval County,9227,180533.0,183937.0,187199.0,188380.0,188855.0,188939.0,190121.0,191650.0,193071.0,193698.0,195426.0,198257.0
9228,72239,32814,Orlando,FL,Orlando-Kissimmee-Sanford,Orange County,9229,468804.0,471793.0,474922.0,477080.0,477889.0,481332.0,483751.0,486471.0,488997.0,490669.0,494029.0,496644.0
9245,72935,33954,Port Charlotte,FL,Punta Gorda,Charlotte County,9246,188867.0,189788.0,190873.0,192260.0,193204.0,194519.0,196104.0,197280.0,197599.0,197918.0,199035.0,200388.0
9251,73095,34429,Crystal River,FL,Homosassa Springs,Citrus County,9252,137509.0,138819.0,140103.0,141097.0,142172.0,143273.0,144592.0,145457.0,146479.0,147943.0,149498.0,150675.0
9252,72143,32680,Old Town,FL,,Dixie County,9253,88946.0,89241.0,89207.0,89679.0,90074.0,90644.0,91260.0,91808.0,92315.0,93142.0,94092.0,94810.0
9330,73227,34947,Fort Pierce,FL,Port St. Lucie,Saint Lucie County,9331,80255.0,81035.0,81709.0,82572.0,83540.0,84811.0,86253.0,87772.0,89488.0,90792.0,91728.0,91301.0
9340,72062,32561,Gulf Breeze,FL,Pensacola-Ferry Pass-Brent,Santa Rosa County,9341,421018.0,423980.0,427678.0,431622.0,436651.0,440551.0,444161.0,447343.0,451155.0,454344.0,457583.0,459686.0
9410,73048,34229,Osprey,FL,North Port-Sarasota-Bradenton,Sarasota County,9411,466439.0,465195.0,464264.0,463936.0,464332.0,465071.0,466723.0,468296.0,467793.0,468099.0,468971.0,471148.0
9439,71954,32348,Perry,FL,,Taylor County,9440,89413.0,90009.0,90331.0,90739.0,91219.0,91754.0,92199.0,92630.0,93276.0,93693.0,94137.0,94480.0
9448,72698,33592,Thonotosassa,FL,Tampa-St. Petersburg-Clearwater,Hillsborough County,9449,206245.0,206639.0,207787.0,210145.0,212301.0,214465.0,215599.0,216974.0,218128.0,219541.0,221374.0,223889.0
9490,71745,32038,Fort White,FL,Lake City,Columbia County,9491,139976.0,141064.0,142132.0,143166.0,144324.0,145416.0,146447.0,147362.0,148299.0,149085.0,149691.0,150431.0
9588,72181,32736,Eustis,FL,Orlando-Kissimmee-Sanford,Lake County,9589,248690.0,250648.0,252404.0,254684.0,255944.0,257738.0,258354.0,258633.0,259333.0,260829.0,262438.0,263749.0
9617,73101,34436,Floral City,FL,Homosassa Springs,Citrus County,9618,115420.0,116614.0,118250.0,119591.0,121319.0,122703.0,124393.0,124920.0,126089.0,127761.0,129837.0,131689.0
9633,399574,33473,Boynton Beach,FL,Miami-Fort Lauderdale-West Palm Beach,Palm Beach County,9634,572436.0,573891.0,573236.0,573354.0,573564.0,574954.0,576230.0,578009.0,581166.0,583539.0,583529.0,580672.0
9643,73143,34607,Hernando Beach,FL,Tampa-St. Petersburg-Clearwater,Hernando County,9644,220554.0,222394.0,224565.0,225868.0,227407.0,229489.0,232593.0,235728.0,237190.0,238140.0,238652.0,239610.0
9658,71813,32134,Fort Mc Coy,FL,Ocala,Marion County,9659,72685.0,73053.0,73483.0,74182.0,75117.0,75908.0,76631.0,77127.0,77842.0,78605.0,79354.0,79514.0
9671,73174,34688,Tarpon Springs,FL,Tampa-St. Petersburg-Clearwater,Pinellas County,9672,399018.0,398787.0,399142.0,400512.0,402090.0,402941.0,403953.0,405820.0,407741.0,409730.0,410249.0,410265.0
9813,72379,33042,Summerland Key,FL,Key West,Monroe County,9814,559388.0,560649.0,561223.0,561414.0,560927.0,561554.0,562173.0,563442.0,564587.0,567286.0,568503.0,567193.0
9838,71789,32110,Bunnell,FL,Deltona-Daytona Beach-Ormond Beach,Flagler County,9839,138852.0,140102.0,141110.0,142739.0,143838.0,144281.0,145236.0,146493.0,147941.0,148575.0,148929.0,149221.0
9866,71811,32132,Edgewater,FL,Deltona-Daytona Beach-Ormond Beach,Volusia County,9867,138577.0,139965.0,141532.0,143370.0,144865.0,146159.0,147535.0,148770.0,150928.0,153139.0,155213.0,156502.0
9917,71755,32054,Lake Butler,FL,,Union County,9918,117621.0,118308.0,118742.0,119582.0,119950.0,120467.0,120847.0,121583.0,121846.0,123389.0,124895.0,126730.0
9926,72484,33182,Tamiami,FL,Miami-Fort Lauderdale-West Palm Beach,Miami-Dade County,9927,352187.0,354682.0,356069.0,356645.0,357442.0,358596.0,360185.0,362457.0,364257.0,366525.0,366864.0,368172.0
9962,399583,33973,Lehigh Acres,FL,Cape Coral-Fort Myers,Lee County,9963,178132.0,177787.0,178220.0,179003.0,180934.0,181752.0,183179.0,183593.0,183934.0,183804.0,183973.0,184931.0
9987,72006,32446,Marianna,FL,,Jackson County,9988,123926.0,124805.0,125639.0,126408.0,126982.0,127538.0,128115.0,128738.0,129375.0,130150.0,130849.0,131474.0
10014,72860,33850,Lake Alfred,FL,Lakeland-Winter Haven,Polk County,10015,135398.0,136622.0,138498.0,139761.0,140828.0,141909.0,143005.0,143924.0,144895.0,146251.0,147920.0,149566.0
10047,71977,32409,Lynn Haven,FL,Panama City,Bay County,10048,214577.0,215519.0,216730.0,218027.0,219273.0,219899.0,220585.0,221914.0,223780.0,223597.0,224323.0,224877.0
10050,73097,34431,Dunnellon,FL,Ocala,Marion County,10051,117442.0,118442.0,120096.0,121845.0,123240.0,123933.0,124534.0,125616.0,126664.0,127562.0,128476.0,129431.0
10071,71751,32046,Hilliard,FL,Jacksonville,Nassau County,10072,160825.0,161465.0,162266.0,162644.0,163638.0,164117.0,164555.0,165211.0,166268.0,167226.0,167819.0,168879.0
10119,73100,34434,Dunnellon,FL,Ocala,Marion County,10120,121683.0,123329.0,125744.0,127474.0,129495.0,131078.0,132814.0,133586.0,134401.0,135821.0,137850.0,139582.0
10142,72013,32456,Port Saint Joe,FL,Panama City,Gulf County,10143,247543.0,249242.0,250900.0,252214.0,253605.0,254810.0,256120.0,257456.0,258706.0,259557.0,260878.0,262649.0
10216,71947,32340,Madison,FL,,Madison County,10217,93939.0,94878.0,95743.0,96511.0,97082.0,97687.0,98118.0,98661.0,99062.0,99332.0,99439.0,99654.0
10302,71764,32064,Live Oak,FL,,Suwannee County,10303,82272.0,82913.0,83565.0,84092.0,84367.0,84521.0,84666.0,85008.0,85410.0,85919.0,86194.0,86490.0
10351,72824,33785,Indian Rocks Beach,FL,Tampa-St. Petersburg-Clearwater,Pinellas County,10352,467053.0,467322.0,468034.0,470562.0,473578.0,476490.0,478457.0,482602.0,486166.0,490380.0,491867.0,492800.0
10363,72257,32833,Wedgefield,FL,Orlando-Kissimmee-Sanford,Orange County,10364,259889.0,261971.0,264083.0,265663.0,266816.0,268911.0,271047.0,273013.0,275075.0,276582.0,277986.0,279071.0
10393,72934,33953,Port Charlotte,FL,Punta Gorda,Charlotte County,10394,247825.0,248871.0,249580.0,250619.0,251046.0,251891.0,253132.0,254214.0,254420.0,254234.0,254946.0,255548.0
10406,72683,33567,Plant City,FL,Tampa-St. Petersburg-Clearwater,Hillsborough County,10407,200208.0,201147.0,202240.0,203799.0,205610.0,207584.0,208663.0,209640.0,210652.0,211732.0,213326.0,214592.0
10432,399572,33449,Wellington,FL,Miami-Fort Lauderdale-West Palm Beach,Palm Beach County,10433,450626.0,453282.0,454074.0,454651.0,455124.0,455910.0,456400.0,457368.0,458900.0,460709.0,461051.0,460509.0
10444,71842,32179,Ocklawaha,FL,Ocala,Marion County,10445,104145.0,104388.0,105140.0,106592.0,107742.0,108511.0,109360.0,110886.0,112636.0,114439.0,115964.0,117384.0
10475,72399,33070,Tavernier,FL,Key West,Monroe County,10476,621779.0,620626.0,619881.0,619584.0,617414.0,618620.0,622177.0,627166.0,628956.0,632212.0,634730.0,636725.0
10550,72702,33597,Webster,FL,Tampa-St. Petersburg-Clearwater,Hernando County,10551,119429.0,119595.0,119434.0,120234.0,120891.0,122878.0,124292.0,125597.0,126656.0,127559.0,129285.0,131561.0
10555,72008,32448,Marianna,FL,,Jackson County,10556,75094.0,75650.0,76174.0,76674.0,77062.0,77601.0,78230.0,78922.0,79429.0,79938.0,80477.0,81050.0
10632,72852,33841,Fort Meade,FL,Lakeland-Winter Haven,Polk County,10633,97142.0,97711.0,98942.0,100335.0,101412.0,102990.0,103735.0,104829.0,105032.0,106194.0,107528.0,109334.0
10711,72551,33332,Weston,FL,Miami-Fort Lauderdale-West Palm Beach,Broward County,10712,579768.0,579301.0,578585.0,582020.0,583226.0,584895.0,584942.0,586449.0,588507.0,590315.0,591679.0,592663.0
10740,71791,32112,Crescent City,FL,Palatka,Putnam County,10741,86917.0,87107.0,87294.0,88676.0,89979.0,91266.0,92583.0,93232.0,94044.0,94810.0,96473.0,97778.0
10741,72118,32626,Manattee Road,FL,,Levy County,10742,110324.0,110514.0,110635.0,110792.0,111108.0,111576.0,112132.0,112770.0,113459.0,114086.0,114124.0,114044.0
10792,71907,32266,Neptune Beach,FL,Jacksonville,Duval County,10793,383312.0,387550.0,393251.0,396405.0,398193.0,400704.0,404074.0,409020.0,412336.0,415563.0,418568.0,421842.0
10797,73099,34433,Dunnellon,FL,Ocala,Marion County,10798,143083.0,144440.0,146521.0,148176.0,150108.0,151573.0,152966.0,153839.0,154962.0,156387.0,157800.0,159101.0
10814,72673,33548,Lutz,FL,Tampa-St. Petersburg-Clearwater,Hillsborough County,10815,342459.0,343361.0,344096.0,345562.0,347367.0,349474.0,350468.0,351530.0,352220.0,352758.0,353455.0,353793.0
10850,71997,32435,Defuniak Springs,FL,Crestview-Fort Walton Beach-Destin,Walton County,10851,98290.0,99492.0,100709.0,102071.0,103614.0,105354.0,106618.0,107106.0,107549.0,108498.0,109361.0,109422.0
10918,72245,32820,Bithlo,FL,Orlando-Kissimmee-Sanford,Orange County,10919,278287.0,280414.0,282705.0,284946.0,286546.0,289042.0,290494.0,292145.0,294029.0,295603.0,297560.0,299077.0
10966,72431,33128,Miami,FL,Miami-Fort Lauderdale-West Palm Beach,Miami-Dade County,10967,341072.0,341578.0,343120.0,348287.0,354279.0,355675.0,355049.0,354333.0,354528.0,352957.0,350565.0,349041.0
11011,72937,33956,Saint James City,FL,Cape Coral-Fort Myers,Lee County,11012,304988.0,304211.0,304474.0,305342.0,307248.0,307767.0,308723.0,309195.0,309281.0,309614.0,310056.0,311065.0
11067,73138,34602,Brooksville,FL,Tampa-St. Petersburg-Clearwater,Hernando County,11068,149395.0,150138.0,151324.0,152101.0,153479.0,154782.0,156643.0,158222.0,159393.0,159971.0,160911.0,162191.0
11075,71746,32040,Glen Saint Mary,FL,Jacksonville,Baker County,11076,180667.0,181819.0,183255.0,184568.0,186196.0,187449.0,188768.0,189655.0,190547.0,191417.0,192488.0,193806.0
11076,72803,33762,Feather Sound,FL,Tampa-St. Petersburg-Clearwater,Pinellas County,11077,268590.0,269177.0,270293.0,271170.0,272160.0,272896.0,274128.0,276424.0,278688.0,280057.0,280212.0,280473.0
11132,71953,32347,Perry,FL,,Taylor County,11133,97339.0,97928.0,98340.0,99049.0,99748.0,100434.0,101057.0,101773.0,102649.0,103331.0,103948.0,104350.0
11173,72021,32465,Wewahitchka,FL,Panama City,Gulf County,11174,83599.0,84432.0,85095.0,85366.0,85704.0,85804.0,85965.0,86193.0,86749.0,87089.0,87780.0,88408.0
11211,73235,34956,Indiantown,FL,Port St. Lucie,Martin County,11212,112554.0,112929.0,111928.0,111712.0,111906.0,112580.0,112917.0,113531.0,113989.0,113918.0,113195.0,111058.0
11215,73149,34614,Brooksville,FL,Tampa-St. Petersburg-Clearwater,Hernando County,11216,164705.0,166220.0,167505.0,169068.0,170142.0,171770.0,173642.0,175985.0,177440.0,178266.0,179086.0,180610.0
11274,72380,33043,Big Pine Key,FL,Key West,Monroe County,11275,423248.0,424743.0,427176.0,428239.0,427487.0,426560.0,426402.0,428083.0,429469.0,432652.0,433725.0,433377.0
11316,72913,33920,Alva,FL,Cape Coral-Fort Myers,Lee County,11317,238835.0,238713.0,239641.0,240503.0,242318.0,243415.0,244956.0,245892.0,246344.0,246416.0,246506.0,246925.0
11339,72113,32618,Archer,FL,Gainesville,Alachua County,11340,154968.0,157034.0,158243.0,158489.0,158191.0,158512.0,160176.0,162347.0,164605.0,166440.0,167803.0,168184.0
11366,73151,34637,Land O Lakes,FL,Tampa-St. Petersburg-Clearwater,Pasco County,11367,249081.0,250091.0,250182.0,250058.0,251096.0,253032.0,254499.0,255361.0,256038.0,257443.0,258277.0,257576.0
11393,71849,32189,Satsuma,FL,Palatka,Putnam County,11394,89389.0,89883.0,90424.0,91933.0,93144.0,94296.0,95173.0,96267.0,97129.0,97904.0,98543.0,99128.0
11411,71887,32234,Jacksonville,FL,Jacksonville,Duval County,11412,149568.0,151352.0,153220.0,153959.0,154425.0,155258.0,155992.0,157051.0,157946.0,159024.0,160351.0,161775.0
11470,399587,34291,North Port,FL,North Port-Sarasota-Bradenton,Sarasota County,11471,193848.0,193730.0,193683.0,194901.0,196402.0,198035.0,199953.0,201777.0,202662.0,202437.0,202144.0,202255.0
11505,72374,33036,Islamorada,FL,Key West,Monroe County,11506,931200.0,931589.0,935049.0,937686.0,938717.0,937325.0,938516.0,941010.0,943906.0,947689.0,948171.0,948468.0
11562,71792,32113,Citra,FL,Ocala,Marion County,11563,149611.0,149933.0,150817.0,152282.0,153840.0,155345.0,155704.0,157467.0,158604.0,160501.0,161613.0,162648.0
11591,72692,33576,San Antonio,FL,Tampa-St. Petersburg-Clearwater,Pasco County,11592,189085.0,189354.0,189476.0,189798.0,191264.0,193583.0,196337.0,198668.0,200219.0,201879.0,202904.0,203664.0
11613,72139,32666,Melrose,FL,Palatka,Putnam County,11614,155559.0,156466.0,157541.0,158447.0,159071.0,159594.0,160717.0,162466.0,164330.0,165853.0,166940.0,167669.0
11694,72881,33876,Sebring,FL,Sebring,Highlands County,11695,123695.0,124767.0,125274.0,126044.0,126249.0,126897.0,127980.0,128897.0,129749.0,130456.0,131434.0,131562.0
11759,73130,34484,Oxford,FL,The Villages,Sumter County,11760,222858.0,223851.0,224272.0,225331.0,225112.0,224959.0,224706.0,224725.0,224996.0,224961.0,225532.0,226066.0
11789,73226,34946,Fort Pierce,FL,Port St. Lucie,Saint Lucie County,11790,90284.0,91203.0,91779.0,92649.0,93393.0,95078.0,97370.0,100356.0,102444.0,103568.0,104053.0,102866.0
11837,72177,32730,Casselberry,FL,Orlando-Kissimmee-Sanford,Seminole County,11838,171575.0,173405.0,175497.0,178183.0,180719.0,182122.0,183417.0,184764.0,186755.0,188700.0,191713.0,195224.0
11870,72044,32531,Baker,FL,Crestview-Fort Walton Beach-Destin,Okaloosa County,11871,158463.0,159627.0,162384.0,164773.0,165642.0,165924.0,166488.0,168199.0,169585.0,169650.0,169571.0,170467.0
12020,72022,32466,Youngstown,FL,Panama City,Bay County,12021,145310.0,146305.0,147590.0,148691.0,150166.0,151293.0,152802.0,154723.0,156945.0,156344.0,155658.0,154591.0
12032,71753,32052,Jasper,FL,,Hamilton County,12033,79996.0,80145.0,80326.0,80842.0,81336.0,81478.0,81247.0,81157.0,81388.0,81882.0,82139.0,82034.0
12073,72066,32565,Jay,FL,Pensacola-Ferry Pass-Brent,Santa Rosa County,12074,112243.0,113296.0,114155.0,115030.0,116199.0,117735.0,118532.0,118561.0,118880.0,119873.0,121823.0,123249.0
12195,72633,33476,Pahokee,FL,Miami-Fort Lauderdale-West Palm Beach,Palm Beach County,12196,83821.0,84265.0,84494.0,86179.0,88053.0,89951.0,90561.0,90588.0,91470.0,92914.0,94633.0,96431.0
12244,72141,32668,Morriston,FL,,Levy County,12245,182754.0,183148.0,183591.0,184206.0,185270.0,186343.0,186825.0,187581.0,188153.0,189147.0,189873.0,190307.0
12253,72180,32735,Grand Island,FL,Orlando-Kissimmee-Sanford,Lake County,12254,167814.0,169600.0,171247.0,173251.0,174989.0,176914.0,178265.0,179094.0,179806.0,179935.0,180370.0,181397.0
12271,72317,32948,Fellsmere,FL,Sebastian-Vero Beach,Indian River County,12272,169956.0,171793.0,173334.0,174498.0,176032.0,177766.0,179606.0,180533.0,180976.0,181084.0,181967.0,183793.0
12273,72665,33538,Lake Panasoffkee,FL,The Villages,Sumter County,12274,102020.0,102960.0,103783.0,103614.0,103339.0,103094.0,103782.0,104014.0,104427.0,105120.0,106412.0,107726.0
12301,72630,33471,Moore Haven,FL,,Glades County,12302,100234.0,100438.0,100774.0,101213.0,101794.0,102232.0,102539.0,102616.0,102992.0,103325.0,103603.0,103827.0
12314,71734,32008,Branford,FL,,Suwannee County,12315,116389.0,116798.0,117259.0,117807.0,118400.0,118951.0,120109.0,121017.0,121902.0,122597.0,122929.0,123321.0
12315,72845,33834,Bowling Green,FL,Wauchula,Hardee County,12316,82691.0,82540.0,82307.0,82425.0,82497.0,82924.0,83205.0,83510.0,83573.0,83989.0,84265.0,84724.0
12342,72915,33922,Bokeelia,FL,Cape Coral-Fort Myers,Lee County,12343,244252.0,243863.0,244467.0,245537.0,247652.0,248777.0,250030.0,251254.0,252041.0,253186.0,253954.0,255715.0
12348,71987,32424,Blountstown,FL,,Calhoun County,12349,80644.0,81149.0,81504.0,82248.0,82773.0,83241.0,83657.0,84136.0,84548.0,84857.0,85043.0,85250.0
12366,73064,34251,Myakka City,FL,North Port-Sarasota-Bradenton,Manatee County,12367,320963.0,323132.0,324432.0,326938.0,329495.0,332753.0,333699.0,335395.0,334660.0,336795.0,336541.0,338236.0
12427,72115,32621,Bronson,FL,,Levy County,12428,100162.0,100013.0,99948.0,99874.0,100174.0,100660.0,101186.0,101855.0,102595.0,103024.0,103236.0,103359.0
12470,72098,32603,Gainesville,FL,Gainesville,Alachua County,12471,248751.0,252701.0,254702.0,254375.0,253449.0,253744.0,254994.0,256809.0,258719.0,260807.0,262767.0,263250.0
12486,72001,32440,Graceville,FL,,Jackson County,12487,82740.0,83187.0,83776.0,84491.0,84957.0,85287.0,85371.0,85631.0,85879.0,86510.0,87092.0,87560.0
12490,71856,32202,Jacksonville,FL,Jacksonville,Duval County,12491,68148.0,69234.0,70783.0,71606.0,72447.0,72737.0,73543.0,74109.0,75200.0,75656.0,75658.0,75571.0
12521,72178,32732,Geneva,FL,Orlando-Kissimmee-Sanford,Seminole County,12522,292331.0,293715.0,295402.0,299055.0,301964.0,304193.0,304228.0,304658.0,304801.0,306201.0,310479.0,315429.0
12570,71809,32130,De Leon Springs,FL,Deltona-Daytona Beach-Ormond Beach,Volusia County,12571,152376.0,154324.0,156138.0,158224.0,159697.0,161258.0,162599.0,164067.0,166017.0,168420.0,170719.0,172101.0
12743,71803,32124,Daytona Beach,FL,Deltona-Daytona Beach-Ormond Beach,Volusia County,12744,225277.0,227016.0,228793.0,230985.0,232588.0,234157.0,235423.0,236326.0,238251.0,240024.0,241771.0,242713.0
12788,73025,34201,Sarasota,FL,North Port-Sarasota-Bradenton,Sarasota County,12789,433992.0,434424.0,434124.0,433422.0,433254.0,433023.0,432078.0,432059.0,431424.0,432243.0,430986.0,430092.0
12844,71957,32352,Quincy,FL,Tallahassee,Gadsden County,12845,103981.0,104105.0,104242.0,104233.0,104191.0,104476.0,104949.0,105225.0,105345.0,105830.0,106113.0,106190.0
12846,72461,33158,Village of Palmetto Bay,FL,Miami-Fort Lauderdale-West Palm Beach,Miami-Dade County,12847,649938.0,649640.0,648078.0,645481.0,644367.0,643739.0,642742.0,643907.0,645422.0,650247.0,651861.0,654375.0
12852,73071,34269,Arcadia,FL,Arcadia,De Soto County,12853,193257.0,194390.0,195470.0,196369.0,197324.0,198360.0,199687.0,201047.0,202293.0,203445.0,204628.0,205821.0
12932,72849,33838,Dundee,FL,Lakeland-Winter Haven,Polk County,12933,131238.0,133045.0,134894.0,136310.0,137436.0,138757.0,139912.0,141562.0,143477.0,145650.0,147588.0,149193.0
12962,72927,33946,Port Charlotte,FL,Punta Gorda,Charlotte County,12963,435259.0,435816.0,436712.0,439169.0,441639.0,444574.0,448230.0,451865.0,454003.0,454812.0,456127.0,456277.0
13005,72114,32619,Bell,FL,Gainesville,Gilchrist County,13006,118344.0,119010.0,119669.0,120156.0,120717.0,121313.0,121746.0,122490.0,123283.0,124465.0,124802.0,125344.0
13062,71822,32145,Hastings,FL,Jacksonville,Saint Johns County,13063,116220.0,116356.0,116454.0,117137.0,118116.0,119684.0,122002.0,123369.0,124495.0,125267.0,126317.0,126916.0
13064,72319,32950,Malabar,FL,Palm Bay-Melbourne-Titusville,Brevard County,13065,291465.0,293708.0,295665.0,298931.0,302333.0,305653.0,307655.0,309360.0,310643.0,315465.0,322003.0,327428.0
13066,72369,33031,Homestead,FL,Miami-Fort Lauderdale-West Palm Beach,Miami-Dade County,13067,393842.0,397429.0,399510.0,400519.0,402431.0,404510.0,407012.0,410007.0,411816.0,414141.0,414109.0,416177.0
13074,72024,32502,Pensacola,FL,Pensacola-Ferry Pass-Brent,Escambia County,13075,131899.0,133133.0,134372.0,134830.0,136586.0,138404.0,141699.0,145521.0,148333.0,150688.0,151940.0,154737.0
13120,71993,32431,Cottondale,FL,,Jackson County,13121,79975.0,80440.0,80911.0,81718.0,82125.0,82726.0,83249.0,83940.0,84432.0,84852.0,85337.0,85822.0
13136,71742,32033,Elkton,FL,Jacksonville,Saint Johns County,13137,219636.0,220803.0,222128.0,222921.0,223714.0,224998.0,227027.0,229082.0,230969.0,233589.0,235297.0,236196.0
13139,72047,32535,Century,FL,Pensacola-Ferry Pass-Brent,Escambia County,13140,83847.0,83762.0,84386.0,84765.0,85109.0,84991.0,85296.0,85576.0,86440.0,86682.0,86904.0,87455.0
13146,73204,34753,Mascotte,FL,Orlando-Kissimmee-Sanford,Lake County,13147,137085.0,138566.0,139790.0,141828.0,143089.0,144414.0,145294.0,146350.0,147251.0,147844.0,148832.0,149954.0
13182,72078,32577,Molino,FL,Pensacola-Ferry Pass-Brent,Escambia County,13183,155758.0,156552.0,157266.0,157729.0,158934.0,159949.0,161321.0,162381.0,163986.0,164770.0,165297.0,165266.0
13212,72525,33306,Fort Lauderdale,FL,Miami-Fort Lauderdale-West Palm Beach,Broward County,13213,649979.0,648422.0,646490.0,648526.0,646491.0,645962.0,645527.0,647653.0,647783.0,647448.0,648243.0,651586.0
13261,71766,32066,Mayo,FL,,Lafayette County,13262,111528.0,112292.0,112805.0,113329.0,114447.0,115693.0,117013.0,117482.0,118038.0,118369.0,119396.0,120320.0
13318,72850,33839,Eagle Lake,FL,Lakeland-Winter Haven,Polk County,13319,120746.0,121942.0,123912.0,125272.0,126473.0,127413.0,128249.0,129649.0,131014.0,132708.0,134171.0,135654.0
13377,72012,32455,Ponce de Leon,FL,Crestview-Fort Walton Beach-Destin,Walton County,13378,91478.0,90966.0,90243.0,90828.0,91666.0,93160.0,93574.0,93506.0,92846.0,92560.0,92289.0,92343.0
13394,71931,32321,Bristol,FL,,Liberty County,13395,97997.0,98738.0,99510.0,99889.0,100326.0,101097.0,102607.0,103746.0,104628.0,104985.0,105820.0,106179.0
13424,73107,34449,Inglis,FL,,Levy County,13425,119505.0,119507.0,119559.0,119601.0,120005.0,120546.0,121360.0,121996.0,122367.0,122643.0,122543.0,122512.0
13429,72890,33890,Zolfo Springs,FL,Wauchula,Hardee County,13430,124627.0,124869.0,125262.0,125960.0,126375.0,127321.0,127998.0,129357.0,130446.0,131408.0,132365.0,133473.0
13489,72146,32686,Reddick,FL,Ocala,Marion County,13490,185204.0,185999.0,187697.0,189649.0,191622.0,193596.0,193897.0,195447.0,196138.0,197592.0,199046.0,200845.0
13516,71810,32131,East Palatka,FL,Palatka,Putnam County,13517,131027.0,131573.0,133020.0,134192.0,135779.0,137905.0,139786.0,141234.0,141324.0,141741.0,142481.0,143906.0
13749,73225,34945,Fort Pierce,FL,Port St. Lucie,Saint Lucie County,13750,194323.0,195840.0,196747.0,197683.0,198979.0,200448.0,201825.0,203129.0,205147.0,207068.0,209497.0,211529.0
13764,72017,32461,Panama City Beach,FL,Panama City,Bay County,13765,853331.0,854895.0,857572.0,860825.0,863213.0,867195.0,872441.0,876121.0,877280.0,881458.0,889930.0,896344.0
13772,72081,32580,Valparaiso,FL,Crestview-Fort Walton Beach-Destin,Okaloosa County,13773,176018.0,177074.0,178857.0,180166.0,180767.0,181483.0,182813.0,184571.0,186229.0,186875.0,186744.0,187420.0
13781,71937,32328,Eastpoint,FL,,Franklin County,13782,467247.0,469560.0,471848.0,474220.0,476524.0,478708.0,481002.0,483452.0,485956.0,488824.0,490776.0,492858.0
13860,72140,32667,Micanopy,FL,Gainesville,Alachua County,13861,184860.0,186692.0,187980.0,188749.0,188827.0,189703.0,191637.0,194159.0,196376.0,197317.0,198498.0,198937.0
13870,71984,32421,Altha,FL,,Calhoun County,13871,97088.0,97746.0,98186.0,99391.0,100093.0,100812.0,101205.0,101694.0,102199.0,102908.0,103728.0,104399.0
13871,72016,32460,Sneads,FL,,Jackson County,13872,75437.0,75809.0,76234.0,76629.0,76989.0,77431.0,77849.0,78398.0,78994.0,79813.0,80589.0,81505.0
13878,72112,32617,Anthony,FL,Ocala,Marion County,13879,154799.0,155281.0,156176.0,157756.0,158958.0,159699.0,159740.0,161540.0,163199.0,164884.0,165584.0,166221.0
13900,71940,32331,Greenville,FL,,Madison County,13901,81676.0,82461.0,83350.0,84045.0,84731.0,85541.0,86233.0,87066.0,87967.0,88728.0,89196.0,89738.0
13918,71934,32324,Chattahoochee,FL,Tallahassee,Gadsden County,13919,53170.0,53459.0,53518.0,53310.0,53159.0,53152.0,53033.0,52659.0,52410.0,52431.0,52995.0,53260.0
13929,73190,34734,Gotha,FL,Orlando-Kissimmee-Sanford,Orange County,13930,271239.0,273465.0,275473.0,276864.0,277720.0,279387.0,280280.0,281106.0,282304.0,282754.0,285437.0,287866.0
13930,72020,32464,Westville,FL,,Holmes County,13931,82372.0,82261.0,82328.0,82808.0,83322.0,84083.0,84373.0,84605.0,85332.0,86166.0,87358.0,88879.0
13963,72225,32798,Zellwood,FL,Orlando-Kissimmee-Sanford,Orange County,13964,110022.0,111053.0,111540.0,112718.0,113427.0,114974.0,116156.0,117778.0,119237.0,120814.0,123076.0,125380.0
14026,71787,32102,Astor,FL,Orlando-Kissimmee-Sanford,Lake County,14027,164599.0,165712.0,167294.0,168740.0,169989.0,170982.0,171831.0,172167.0,172467.0,172869.0,173389.0,173845.0
14149,72068,32567,Laurel Hill,FL,Crestview-Fort Walton Beach-Destin,Okaloosa County,14150,131192.0,132284.0,135234.0,137150.0,138744.0,139391.0,139587.0,138990.0,137370.0,136185.0,136206.0,137452.0
14256,72153,32702,Altoona,FL,Orlando-Kissimmee-Sanford,Lake County,14257,118729.0,120089.0,121496.0,123367.0,124718.0,126107.0,127244.0,128039.0,129230.0,130051.0,131061.0,131993.0
14271,71932,32322,Carrabelle,FL,,Franklin County,14272,159797.0,160513.0,161104.0,161516.0,161907.0,162376.0,163087.0,163630.0,164325.0,165082.0,165315.0,165583.0
14297,71853,32195,Weirsdale,FL,Ocala,Marion County,14298,204631.0,205561.0,207292.0,209464.0,210605.0,210937.0,210849.0,211731.0,212560.0,213802.0,215349.0,217333.0
14319,73216,34773,Saint Cloud,FL,Orlando-Kissimmee-Sanford,Osceola County,14320,234143.0,233744.0,234104.0,235166.0,237427.0,239319.0,240104.0,240368.0,241238.0,242561.0,243416.0,244349.0
14346,71999,32438,Fountain,FL,Panama City,Bay County,14347,81113.0,81780.0,82562.0,82813.0,82820.0,83382.0,84116.0,85264.0,86364.0,87074.0,88881.0,91320.0
14427,73242,34981,Fort Pierce,FL,Port St. Lucie,Saint Lucie County,14428,193238.0,194541.0,195231.0,196469.0,197851.0,199860.0,201664.0,203521.0,205121.0,207521.0,209856.0,211251.0
14483,72195,32759,Oak Hill,FL,Deltona-Daytona Beach-Ormond Beach,Volusia County,14484,153107.0,154736.0,156317.0,158515.0,160129.0,162202.0,163561.0,164753.0,166242.0,168758.0,170980.0,172647.0
14521,72002,32442,Grand Ridge,FL,,Jackson County,14522,84609.0,85179.0,85953.0,86521.0,87132.0,87774.0,88365.0,89118.0,89816.0,90791.0,91580.0,92414.0
14539,71769,32071,O Brien,FL,,Suwannee County,14540,134980.0,135892.0,136902.0,138170.0,139155.0,139968.0,140647.0,141216.0,142323.0,142920.0,143181.0,143056.0
14547,72198,32764,Mims,FL,Palm Bay-Melbourne-Titusville,Brevard County,14548,235987.0,237113.0,238672.0,240419.0,241871.0,242744.0,243528.0,244587.0,247120.0,250534.0,253811.0,256555.0
14561,72018,32462,Vernon,FL,,Washington County,14562,77034.0,77443.0,78109.0,78399.0,79042.0,79775.0,80615.0,81658.0,82446.0,83238.0,83773.0,84525.0
14640,72184,32744,Lake Helen,FL,Deltona-Daytona Beach-Ormond Beach,Volusia County,14641,143454.0,145111.0,146944.0,148940.0,150634.0,152258.0,153835.0,155254.0,157187.0,159635.0,162146.0,164118.0
14732,71754,32053,Jennings,FL,,Hamilton County,14733,112721.0,113425.0,113534.0,113953.0,114222.0,114648.0,115659.0,116355.0,117124.0,117819.0,118518.0,119029.0
14784,71843,32180,Pierson,FL,Deltona-Daytona Beach-Ormond Beach,Volusia County,14785,156227.0,158354.0,160560.0,162886.0,164284.0,165567.0,167029.0,168460.0,170121.0,172715.0,176180.0,178933.0
14808,71779,32087,Sanderson,FL,Jacksonville,Baker County,14809,95554.0,96476.0,97248.0,97528.0,98192.0,99190.0,100480.0,100770.0,100654.0,100675.0,101187.0,102773.0
14842,72120,32628,Trenton,FL,Gainesville,Gilchrist County,14843,60412.0,60755.0,61047.0,61366.0,61446.0,61552.0,61747.0,62040.0,62320.0,62657.0,62995.0,63288.0
14890,71758,32058,Lawtey,FL,,Bradford County,14891,91239.0,91820.0,92968.0,94065.0,94269.0,94054.0,93802.0,93864.0,94225.0,94732.0,95163.0,95997.0
14933,71930,32320,Apalachicola,FL,,Franklin County,14934,148128.0,149051.0,149577.0,150365.0,151152.0,152119.0,153238.0,154328.0,155270.0,155904.0,156141.0,156779.0
14939,73206,34756,Montverde,FL,Orlando-Kissimmee-Sanford,Lake County,14940,313211.0,316501.0,319344.0,322368.0,324722.0,327479.0,329941.0,330926.0,331861.0,331498.0,333223.0,335812.0
14950,73087,34289,North Port,FL,North Port-Sarasota-Bradenton,Sarasota County,14951,235704.0,235592.0,235294.0,235119.0,235421.0,235580.0,236760.0,237372.0,237446.0,236966.0,236767.0,236887.0
14976,71949,32343,Midway,FL,Tallahassee,Gadsden County,14977,143849.0,145344.0,146550.0,147682.0,148803.0,150333.0,151899.0,153415.0,154817.0,156609.0,158430.0,159866.0
15301,73192,34737,Howey in the Hills,FL,Orlando-Kissimmee-Sanford,Lake County,15302,224006.0,226041.0,227905.0,229984.0,231551.0,233122.0,234242.0,234507.0,235166.0,235217.0,235666.0,236250.0
15411,72003,32443,Greenwood,FL,,Jackson County,15412,80718.0,81441.0,82205.0,82869.0,83336.0,83786.0,83973.0,84432.0,84856.0,85765.0,86455.0,87171.0
15505,72069,32568,Mc David,FL,Pensacola-Ferry Pass-Brent,Escambia County,15506,115598.0,115545.0,115994.0,116015.0,116025.0,115363.0,115750.0,115799.0,116676.0,116616.0,117354.0,117475.0
15553,71952,32346,Panacea,FL,Tallahassee,Wakulla County,15554,257702.0,258936.0,260324.0,261094.0,262088.0,262981.0,264830.0,265995.0,267196.0,267945.0,268985.0,269994.0
15589,72065,32564,Holt,FL,Crestview-Fort Walton Beach-Destin,Okaloosa County,15590,126082.0,125987.0,126347.0,127443.0,128408.0,129011.0,130135.0,131509.0,133010.0,132836.0,132213.0,131951.0
15608,72201,32767,Paisley,FL,Orlando-Kissimmee-Sanford,Lake County,15609,95501.0,95977.0,96965.0,98408.0,99547.0,100736.0,101534.0,102672.0,103673.0,104725.0,105386.0,106358.0
15712,72842,33827,Babson Park,FL,Lakeland-Winter Haven,Polk County,15713,146511.0,147891.0,149676.0,151129.0,152234.0,152642.0,152781.0,153285.0,154218.0,156199.0,158524.0,160640.0
15870,71782,32094,Wellborn,FL,,Suwannee County,15871,125016.0,125968.0,127264.0,128671.0,129843.0,130602.0,131523.0,132239.0,133055.0,133545.0,134688.0,135907.0
15947,71784,32096,White Springs,FL,,Hamilton County,15948,91943.0,92146.0,92557.0,93365.0,93911.0,94057.0,93963.0,94290.0,94518.0,95030.0,94932.0,94794.0
16026,71735,32009,Bryceville,FL,Jacksonville,Nassau County,16027,191770.0,191252.0,191990.0,192809.0,195247.0,196505.0,197014.0,196657.0,196867.0,198450.0,200832.0,204040.0
16127,72914,33921,Boca Grande,FL,Cape Coral-Fort Myers,Lee County,16128,1898352.0,1893640.0,1896078.0,1899975.0,1912784.0,1918507.0,1931648.0,1936840.0,1938266.0,1939152.0,1942554.0,1945227.0
16268,72159,32709,Christmas,FL,Orlando-Kissimmee-Sanford,Orange County,16269,219265.0,221385.0,223521.0,225146.0,226991.0,229424.0,232249.0,235051.0,238927.0,241974.0,245473.0,247772.0
16301,71759,32059,Lee,FL,,Madison County,16302,111089.0,112665.0,114035.0,115369.0,116624.0,117579.0,118274.0,119350.0,120478.0,121064.0,121021.0,120955.0
16344,73182,34705,Astatula,FL,Orlando-Kissimmee-Sanford,Lake County,16345,163335.0,165373.0,167125.0,168869.0,170008.0,171595.0,173078.0,174212.0,175538.0,176602.0,178097.0,179484.0
16454,72318,32949,Grant-Valkaria,FL,Palm Bay-Melbourne-Titusville,Brevard County,16455,337438.0,341553.0,343623.0,346606.0,350237.0,353325.0,354843.0,355365.0,355791.0,355642.0,357445.0,358353.0
16475,71844,32181,Pomona Park,FL,Palatka,Putnam County,16476,90899.0,92566.0,94049.0,95346.0,96180.0,97166.0,98476.0,99528.0,100754.0,101471.0,103061.0,104693.0
16830,71762,32062,Mc Alpin,FL,,Suwannee County,16831,157329.0,158658.0,159995.0,161361.0,162678.0,163834.0,165176.0,166262.0,167750.0,168320.0,168884.0,169148.0
16859,72867,33857,Lorida,FL,Sebring,Highlands County,16860,130487.0,131166.0,131568.0,132855.0,132795.0,133062.0,133683.0,134721.0,135370.0,135671.0,136038.0,135757.0
17026,71983,32420,Alford,FL,,Jackson County,17027,109855.0,110781.0,111592.0,112181.0,112853.0,113521.0,114571.0,115432.0,116315.0,116914.0,117824.0,118421.0
17151,72644,33493,South Bay,FL,Miami-Fort Lauderdale-West Palm Beach,Palm Beach County,17152,108314.0,108564.0,108621.0,110322.0,112129.0,114905.0,116370.0,118057.0,119512.0,119405.0,118754.0,118469.0
17257,71962,32358,Sopchoppy,FL,Tallahassee,Wakulla County,17258,143357.0,143648.0,144199.0,144344.0,144434.0,144138.0,144216.0,144560.0,145055.0,145688.0,145974.0,146694.0
17539,71848,32187,San Mateo,FL,Palatka,Putnam County,17540,98488.0,98569.0,99634.0,101393.0,103804.0,106140.0,108044.0,109408.0,110081.0,111082.0,112981.0,114997.0
17575,71963,32359,Steinhatchee,FL,,Taylor County,17576,118636.0,119392.0,120034.0,120512.0,120889.0,121514.0,122630.0,123755.0,124317.0,124673.0,124926.0,125438.0
17630,72426,33122,Doral,FL,Miami-Fort Lauderdale-West Palm Beach,Miami-Dade County,17631,1199296.0,1207150.0,1205650.0,1211974.0,1220661.0,1229082.0,1225451.0,1230774.0,1232993.0,1243679.0,1242040.0,1241129.0
17748,73038,34216,Anna Maria,FL,North Port-Sarasota-Bradenton,Manatee County,17749,965839.0,969408.0,973446.0,978961.0,984473.0,985783.0,987034.0,989934.0,991608.0,989005.0,980522.0,974431.0
17823,72149,32694,Waldo,FL,Gainesville,Alachua County,17824,114554.0,117259.0,119769.0,121840.0,122905.0,124499.0,125656.0,126867.0,127684.0,128852.0,128935.0,128775.0
17878,72117,32625,Cedar Key,FL,,Levy County,17879,231824.0,232566.0,233482.0,234402.0,236160.0,237240.0,238105.0,238551.0,239632.0,240883.0,240932.0,240912.0
18135,73246,34985,Port Saint Lucie,FL,Port St. Lucie,Saint Lucie County,18136,142491.0,143752.0,144034.0,143953.0,144417.0,146310.0,149388.0,151084.0,153366.0,153745.0,155161.0,156429.0
18192,72825,33786,Belleair Beach,FL,Tampa-St. Petersburg-Clearwater,Pinellas County,18193,667611.0,667337.0,669065.0,671445.0,673394.0,675560.0,679041.0,684708.0,689471.0,693323.0,694532.0,696753.0
18484,72859,33849,Zephyrhills,FL,Tampa-St. Petersburg-Clearwater,Pasco County,18485,197684.0,199554.0,201328.0,201922.0,201762.0,202505.0,203202.0,205330.0,206652.0,209271.0,212159.0,214477.0
18609,71819,32140,Florahome,FL,Palatka,Putnam County,18610,101704.0,102422.0,103566.0,104686.0,106157.0,107852.0,109192.0,110485.0,111873.0,113546.0,114849.0,114767.0
18821,73169,34681,Palm Harbor,FL,Tampa-St. Petersburg-Clearwater,Pinellas County,18822,332793.0,332778.0,333285.0,334815.0,336748.0,338940.0,341505.0,345329.0,349024.0,352257.0,353568.0,354526.0
19148,71750,32044,Hampton,FL,,Bradford County,19149,127936.0,128766.0,129521.0,130507.0,131671.0,132655.0,133262.0,134306.0,135696.0,137478.0,138854.0,139854.0
19208,73037,34215,Cortez,FL,North Port-Sarasota-Bradenton,Manatee County,19209,664164.0,668391.0,669408.0,670723.0,671894.0,674393.0,673748.0,676446.0,675330.0,674006.0,669298.0,665489.0
19244,71941,32332,Gretna,FL,Tallahassee,Gadsden County,19245,41131.0,41502.0,41887.0,41901.0,41971.0,42301.0,42549.0,42705.0,42619.0,42745.0,42958.0,42992.0
19410,72655,33514,Center Hill,FL,The Villages,Sumter County,19411,127281.0,127407.0,125846.0,124745.0,122771.0,122029.0,120799.0,120651.0,120352.0,120741.0,121183.0,122536.0
19474,71943,32334,Hosford,FL,,Liberty County,19475,74299.0,74160.0,74295.0,75004.0,75860.0,76539.0,77570.0,78850.0,80270.0,81160.0,81710.0,82291.0
19593,71818,32139,Georgetown,FL,Palatka,Putnam County,19594,108261.0,108837.0,108981.0,109722.0,109930.0,111087.0,112705.0,114615.0,115896.0,116539.0,117433.0,118090.0
19771,71945,32336,Lamont,FL,Tallahassee,Jefferson County,19772,101679.0,102215.0,102743.0,102853.0,103204.0,103827.0,105220.0,106183.0,107444.0,107897.0,107934.0,107496.0
19836,72418,33109,Fisher Island,FL,Miami-Fort Lauderdale-West Palm Beach,Miami-Dade County,19837,2479995.0,2484099.0,2467906.0,2446961.0,2446369.0,2453268.0,2461144.0,2480838.0,2485067.0,2495154.0,2475962.0,2469891.0
19859,73224,34797,Yalaha,FL,Orlando-Kissimmee-Sanford,Lake County,19860,180727.0,182181.0,183429.0,184791.0,185951.0,187670.0,189218.0,190259.0,190905.0,191348.0,191894.0,192888.0
19962,71852,32193,Welaka,FL,Palatka,Putnam County,19963,136289.0,136570.0,137232.0,138651.0,139911.0,141045.0,142711.0,143944.0,145045.0,145403.0,146117.0,146604.0
20278,72384,33051,Key Colony Beach,FL,Key West,Monroe County,20279,611214.0,614839.0,618592.0,619583.0,618157.0,618984.0,621506.0,624248.0,626650.0,629655.0,629251.0,625151.0
20344,72116,32622,Brooker,FL,,Bradford County,20345,122344.0,123300.0,124237.0,124602.0,125211.0,126473.0,127711.0,129778.0,131060.0,132931.0,133849.0,135142.0
20350,71955,32350,Pinetta,FL,,Madison County,20351,112158.0,113136.0,114575.0,115908.0,117364.0,118510.0,119805.0,121091.0,122247.0,122923.0,123766.0,125299.0
20451,71775,32083,Raiford,FL,,Union County,20452,96491.0,96354.0,96723.0,97241.0,98034.0,98742.0,99078.0,100217.0,100817.0,102411.0,102677.0,103483.0
20551,72856,33846,Highland City,FL,Lakeland-Winter Haven,Polk County,20552,74808.0,74838.0,75321.0,76834.0,78344.0,79908.0,81233.0,83225.0,85183.0,86342.0,87707.0,89604.0
20588,72858,33848,Kissimmee,FL,Orlando-Kissimmee-Sanford,Osceola County,20589,90151.0,89756.0,89141.0,90014.0,91438.0,93227.0,94671.0,96156.0,97334.0,97739.0,97588.0,97405.0
20662,73193,34739,Kenansville,FL,Orlando-Kissimmee-Sanford,Osceola County,20663,164630.0,163775.0,163174.0,163479.0,164528.0,165530.0,166510.0,168012.0,169871.0,173066.0,174039.0,175686.0
20663,73209,34760,Oakland,FL,Orlando-Kissimmee-Sanford,Orange County,20664,251318.0,252062.0,253079.0,254910.0,256182.0,257219.0,257513.0,258370.0,259730.0,260940.0,262122.0,263476.0
20810,71850,32190,Seville,FL,Deltona-Daytona Beach-Ormond Beach,Volusia County,20811,118387.0,121177.0,124077.0,126146.0,127570.0,129696.0,131858.0,133564.0,135116.0,137366.0,140810.0,143915.0
20857,72851,33840,Lakeland,FL,Lakeland-Winter Haven,Polk County,20858,59161.0,59617.0,60500.0,61997.0,63358.0,64787.0,66070.0,67314.0,68527.0,69241.0,69956.0,71122.0
20872,72005,32445,Malone,FL,,Jackson County,20873,62929.0,63652.0,64371.0,65280.0,65618.0,65592.0,65390.0,65575.0,65786.0,66410.0,66983.0,67822.0
20965,72695,33585,Center Hill,FL,The Villages,Sumter County,20966,160777.0,161482.0,162550.0,163510.0,164640.0,167410.0,170332.0,173594.0,174947.0,176685.0,178608.0,182132.0
20978,71992,32430,Altha,FL,,Calhoun County,20979,93366.0,93435.0,93109.0,93500.0,93615.0,93958.0,94426.0,94861.0,94852.0,94948.0,95278.0,95015.0
21086,72916,33924,Captiva,FL,Cape Coral-Fort Myers,Lee County,21087,1116446.0,1112868.0,1111009.0,1112174.0,1117026.0,1118843.0,1122567.0,1124167.0,1122169.0,1118965.0,1117540.0,1120969.0
21213,72865,33855,Lake Wales,FL,Lakeland-Winter Haven,Polk County,21214,129102.0,130710.0,132533.0,133803.0,134423.0,134669.0,134736.0,135443.0,136417.0,137584.0,138253.0,139301.0
21228,71986,32423,Bascom,FL,,Jackson County,21229,73898.0,74596.0,75411.0,76274.0,76667.0,76792.0,76595.0,76809.0,76785.0,77562.0,77953.0,78722.0
21404,72861,33851,Lake Hamilton,FL,Lakeland-Winter Haven,Polk County,21405,128815.0,130671.0,133292.0,135544.0,137428.0,138915.0,139995.0,141196.0,142803.0,144175.0,145925.0,147102.0
21668,71990,32427,Caryville,FL,,Washington County,21669,59071.0,59641.0,59315.0,58476.0,58363.0,58691.0,59730.0,60836.0,61975.0,63095.0,63796.0,64086.0
21979,71989,32426,Campbellton,FL,,Jackson County,21980,57620.0,57999.0,58338.0,59188.0,59346.0,59336.0,59005.0,59066.0,59169.0,59592.0,60137.0,60846.0
22375,73211,34762,Leesburg,FL,Orlando-Kissimmee-Sanford,Lake County,22376,107267.0,107734.0,108389.0,109846.0,110806.0,111834.0,112672.0,113306.0,114078.0,115224.0,116035.0,117232.0
22542,72939,33960,Venus,FL,Sebring,Highlands County,22543,169997.0,171693.0,171851.0,172121.0,171953.0,172171.0,172467.0,173516.0,173670.0,174370.0,174299.0,173681.0
22754,73018,34139,Everglades,FL,Naples-Immokalee-Marco Island,Collier County,22755,237022.0,236658.0,236640.0,238980.0,243956.0,249244.0,252296.0,254719.0,256732.0,258224.0,258449.0,257055.0
22833,72604,33438,Canal Point,FL,Miami-Fort Lauderdale-West Palm Beach,Palm Beach County,22834,87048.0,87808.0,88120.0,88984.0,90074.0,91011.0,91246.0,90884.0,90471.0,89865.0,89504.0,89027.0
22853,73136,34498,Yankeetown,FL,,Levy County,22854,150549.0,150990.0,151560.0,152561.0,153131.0,153889.0,154697.0,155533.0,156437.0,157258.0,158145.0,158899.0
22944,72343,33001,Layton,FL,Key West,Monroe County,22945,466526.0,466381.0,464284.0,459291.0,456895.0,455246.0,457285.0,457037.0,459197.0,459686.0,458530.0,455130.0
23283,73019,34140,Goodland,FL,Naples-Immokalee-Marco Island,Collier County,23284,283312.0,284361.0,283804.0,287400.0,290212.0,294693.0,295200.0,296656.0,298034.0,299402.0,296159.0,290166.0
23361,59738,4956,Pensacola,FL,Pensacola-Ferry Pass-Brent,Escambia County,23362,136838.0,136031.0,136037.0,136325.0,137836.0,138960.0,139557.0,139609.0,139530.0,140492.0,141413.0,142978.0
23461,72868,33858,Loughman,FL,Lakeland-Winter Haven,Polk County,23462,132169.0,134609.0,138164.0,140242.0,141997.0,143840.0,145162.0,147545.0,148997.0,152232.0,155471.0,159260.0
23477,72873,33865,Ona,FL,Wauchula,Hardee County,23478,185657.0,186464.0,187504.0,189479.0,190730.0,191632.0,192093.0,193675.0,195541.0,197305.0,198703.0,199920.0
23593,72138,32664,Micanopy,FL,Gainesville,Alachua County,23594,164465.0,163294.0,163562.0,164572.0,166701.0,168615.0,169831.0,171602.0,172290.0,172640.0,172801.0,174766.0
23629,72043,32530,Milton,FL,Pensacola-Ferry Pass-Brent,Santa Rosa County,23630,75890.0,77191.0,78198.0,79051.0,80030.0,81064.0,82475.0,83259.0,84162.0,84542.0,85563.0,86065.0
23707,71939,32330,Quincy,FL,Tallahassee,Gadsden County,23708,48653.0,48955.0,48971.0,48703.0,48408.0,48241.0,47796.0,47264.0,46764.0,46489.0,46234.0,46130.0
23931,72882,33877,Lake Wales,FL,Lakeland-Winter Haven,Polk County,23932,47493.0,48306.0,49000.0,49680.0,50350.0,50868.0,51348.0,52324.0,53207.0,53924.0,54028.0,54591.0
23935,72656,33521,Coleman,FL,The Villages,Sumter County,23936,88843.0,88774.0,89198.0,90607.0,91141.0,92231.0,91948.0,90694.0,88836.0,87569.0,88057.0,89564.0
24142,71998,32437,Ebro,FL,,Washington County,24143,79517.0,79667.0,80490.0,80430.0,81448.0,82420.0,83118.0,84056.0,84361.0,84888.0,84763.0,85832.0
24171,73063,34250,Terra Ceia,FL,North Port-Sarasota-Bradenton,Manatee County,24172,422176.0,423423.0,426422.0,428749.0,433074.0,435763.0,438176.0,439111.0,439512.0,439746.0,438791.0,438942.0
24188,71978,32410,Mexico Beach,FL,Panama City,Bay County,24189,222038.0,223575.0,225234.0,227115.0,228968.0,230067.0,231178.0,233622.0,236551.0,239014.0,242353.0,246600.0
24357,72919,33930,Immokalee,FL,Naples-Immokalee-Marco Island,Collier County,24358,175013.0,175100.0,175699.0,175743.0,177142.0,178218.0,180469.0,182176.0,184187.0,186355.0,187502.0,188502.0
24949,72846,33835,Mulberry,FL,Lakeland-Winter Haven,Polk County,24950,72667.0,73681.0,75108.0,75009.0,73753.0,72883.0,73687.0,75218.0,76203.0,75545.0,75822.0,76169.0
25056,73020,34141,Ochopee,FL,Naples-Immokalee-Marco Island,Collier County,25057,155723.0,156531.0,155933.0,154524.0,155174.0,156924.0,160486.0,164479.0,165339.0,162206.0,156802.0,152646.0
25353,72130,32648,Horseshoe Beach,FL,,Dixie County,25354,151165.0,151113.0,150704.0,151135.0,151652.0,152862.0,154126.0,155461.0,156244.0,157844.0,159330.0,159654.0
25696,72009,32449,Wewahitchka,FL,Panama City,Gulf County,25697,70640.0,70042.0,69084.0,68077.0,66919.0,66410.0,66174.0,66373.0,66451.0,66359.0,66725.0,67273.0
25714,73160,34661,Bushnell,FL,The Villages,Sumter County,25715,61359.0,62545.0,63309.0,63877.0,64654.0,65415.0,66980.0,68487.0,69294.0,69266.0,69390.0,70259.0
26130,72121,32631,Earleton,FL,Gainesville,Alachua County,26131,178204.0,182180.0,186480.0,189372.0,190385.0,190686.0,193289.0,196927.0,201551.0,205503.0,208190.0,208316.0
26140,72147,32692,Suwannee,FL,,Dixie County,26141,141098.0,140180.0,138925.0,138691.0,138956.0,139396.0,139261.0,139179.0,139566.0,140451.0,141389.0,142227.0
26309,71959,32355,Crawfordville,FL,Tallahassee,Wakulla County,26310,149796.0,150174.0,150098.0,150728.0,150997.0,151887.0,152428.0,152957.0,153691.0,154443.0,155478.0,155714.0
26391,73017,34138,Chokoloskee,FL,Naples-Immokalee-Marco Island,Collier County,26392,246845.0,245424.0,246084.0,245762.0,249050.0,253484.0,256026.0,259271.0,259395.0,258989.0,255766.0,253232.0
26739,72151,32697,Worthington Springs,FL,,Union County,26740,68164.0,68751.0,69527.0,70369.0,70166.0,69800.0,69173.0,69612.0,70091.0,71286.0,72160.0,73483.0
26922,72019,32463,Chipley,FL,,Washington County,26923,55909.0,56671.0,57386.0,58126.0,58670.0,59202.0,59349.0,59602.0,59948.0,60288.0,60917.0,61188.0
27223,72838,33820,Bartow,FL,Lakeland-Winter Haven,Polk County,27224,124892.0,125131.0,125850.0,127316.0,129129.0,130389.0,130762.0,131712.0,132640.0,135127.0,137069.0,139317.0
27569,73103,34445,Beverly Hills,FL,Homosassa Springs,Citrus County,27570,75516.0,76349.0,77726.0,78936.0,79959.0,81370.0,83257.0,84598.0,85670.0,86653.0,88319.0,89694.0
27616,71946,32337,Monticello,FL,Tallahassee,Jefferson County,27617,250814.0,251499.0,249279.0,245089.0,241897.0,242110.0,243496.0,243628.0,242305.0,237556.0,234609.0,235284.0
27829,71761,32061,Lake Butler,FL,,Union County,27830,87074.0,87133.0,87536.0,88200.0,89233.0,90193.0,90978.0,91722.0,92366.0,93031.0,93523.0,94455.0
27850,72925,33944,Moore Haven,FL,,Glades County,27851,70675.0,70715.0,70366.0,70777.0,71357.0,72320.0,73034.0,73600.0,74219.0,74949.0,75269.0,75841.0
27891,72857,33847,Homeland,FL,Lakeland-Winter Haven,Polk County,27892,85655.0,87092.0,88560.0,90154.0,91439.0,92975.0,94168.0,95687.0,96599.0,97427.0,98980.0,100699.0
28092,71933,32323,Carrabelle,FL,,Franklin County,28093,50414.0,50537.0,50589.0,51019.0,51415.0,51807.0,51973.0,52112.0,52303.0,52688.0,52889.0,53069.0
29170,72145,32683,Otter Creek,FL,,Levy County,29171,47752.0,47507.0,47369.0,47082.0,47226.0,47452.0,47694.0,48244.0,48565.0,49379.0,49365.0,49490.0
29195,71812,32133,Weirsdale,FL,Ocala,Marion County,29196,214182.0,212966.0,212779.0,213394.0,214144.0,213884.0,213588.0,214118.0,215227.0,216016.0,216631.0,217975.0
29502,71964,32360,Hosford,FL,,Liberty County,29503,39820.0,39705.0,39773.0,40023.0,40801.0,41404.0,42273.0,42940.0,43709.0,44452.0,44746.0,44636.0
29659,73188,34729,Ferndale,FL,Orlando-Kissimmee-Sanford,Lake County,29660,222949.0,226468.0,228306.0,230846.0,231777.0,234509.0,235947.0,237573.0,240355.0,242006.0,241237.0,239044.0
29960,71960,32356,Salem,FL,,Taylor County,29961,73395.0,74886.0,76546.0,77159.0,77351.0,77275.0,77945.0,78757.0,79257.0,79128.0,78895.0,79056.0
30150,71961,32357,Greenville,FL,,Madison County,30151,81557.0,81419.0,80988.0,81213.0,81670.0,81951.0,81523.0,81045.0,80047.0,79115.0,77389.0,76204.0
30415,71770,32072,Sanderson,FL,Jacksonville,Baker County,30416,65921.0,67111.0,67993.0,68816.0,69294.0,70376.0,71393.0,71255.0,70276.0,69165.0,69554.0,70247.0
30420,72874,33867,River Ranch,FL,Lakeland-Winter Haven,Polk County,30421,,,,,,,,,,,75276.0,73873.0
